Name,Address,Lat,Lon,Phone #
A G Ferrari Foods,"050 El Camino Real Belmont, CA 94002",37.5295731,-122.287858,(650) 632-1655
A G Ferrari Foods,"68 Castro St San Francisco, CA 94114",37.7631776,-122.4352475,(415) 255-6590
A G Ferrari Foods,"00 Hamilton Ave Palo Alto, CA 94301",37.4446824,-122.1607734,(650) 752-0900
A G Ferrari Foods,"905 College Ave Berkeley, CA 94705",37.8537072,-122.2527291,(510) 849-2701
AG Ferrari Foods,"04 W El Camino Real Sunnyvale, CA 94087",37.3740777,-122.0571094,(408) 524-4000
AG Ferrari Foods,"490 California St San Francisco, CA 94118",37.7859709,-122.4569759,(415) 923-4470
AG Ferrari Foods,"3 Lafayette Cir Lafayette, CA 94549",37.89002,-122.12097332606237,(925) 299-8040
AG Ferrari Foods,"4234 Catalina St San Leandro, CA 94577",37.6962082,-122.1725308,(510) 357-5441
AG Ferrari Foods,"07 Corte Madera Town Ctr Corte Madera, CA 94925",37.9257907,-122.5175625,(415) 927-4347
Albertsons,"os Angeles, CA 90001",43.737944,-7.6747587416666665,(888) 746-7252
Albertsons,"901 Crenshaw Blvd Los Angeles, CA 90008",34.0105031,-118.3351155,(323) 295-1919
Albertsons,"480 S La Brea Ave Los Angeles, CA 90016",34.072995500000005,-118.34404041381109,(323) 299-2649
Albertsons,"985 Venice Blvd Los Angeles, CA 90034",34.0307284,-118.3859604,(909) 889-6270
Albertsons,"443 S Sepulveda Blvd Los Angeles, CA 90034",33.9725752,-118.3947755,(910) 692-7029
Albertsons,"750 Mesmer Ave Culver City, CA 90230",33.9833767,-118.3985008,(912) 261-4730
Albertsons,"320 Firestone Blvd Downey, CA 90241",33.9363205,-118.1256947,(562) 862-7513
Albertsons,"735 W Artesia Blvd Gardena, CA 90248",33.8728192,-118.2991388,(910) 692-3048
Albertsons,"4401 Inglewood Ave Hawthorne, CA 90250",33.9176942,-118.3612402,(916) 744-1510
Albertsons,"2630 Hawthorne Blvd Hawthorne, CA 90250",33.929125,-118.352481,(916) 781-5424
Albertsons,"15 Pacific Coast Hwy Hermosa Beach, CA 90254",33.8626324,-118.3924076,(910) 628-5803
Albertsons,"115 Artesia Blvd Redondo Beach, CA 90278",33.872809,-118.3613737,(914) 376-5429
Albertsons,"105 Wilshire Blvd Santa Monica, CA 90403",34.0264124,-118.4893354,(256) 721-0739
Albertsons,"627 Lincoln Blvd Santa Monica, CA 90405",34.0050621,-118.4738435,(912) 383-4377
Albertsons,"1035 Hawthorne Blvd Torrance, CA 90503",33.8432398,-118.3538268,(516) 845-1044
Albertsons,"3003 Whittier Blvd Whittier, CA 90602",33.9637804,-118.0337343,(562) 696-5025
Albertsons,"880 Valley View St Buena Park, CA 90620",33.8342291,-118.028489,(714) 236-8200
Albertsons,"931 La Palma Ave Buena Park, CA 90620",33.8466693,-117.9958883,(714) 522-1054
Albertsons,"060 Dale St Buena Park, CA 90620",33.8632097,-117.9850399,(714) 828-5550
Albertsons,"800 W Whittier Blvd La Habra, CA 90631",33.939028,-117.955004,(562) 697-6442
Albertsons,"5200 Rosecrans Ave La Mirada, CA 90638",33.9025292,-118.026978,(714) 521-2310
Albertsons,"16 Wilber Pl Montebello, CA 90640",34.0123405,-118.0974148,(323) 278-0128
Albertsons,"469 Via Campo Montebello, CA 90640",34.0327916,-118.1245494,(323) 888-2250
Albertsons,"636 W 25th St San Pedro, CA 90732",33.7215819,-118.3038917,(919) 489-9887
Albertsons,"2451 Seal Beach Blvd Seal Beach, CA 90740",33.758366400036216,-118.08115380067609,(562) 431-2113
Albertsons,"222 N Avalon Blvd Wilmington, CA 90744",33.771673285714286,-118.26168132653062,(919) 676-3534
Albertsons,"00 E Sepulveda Blvd Carson, CA 90745",33.8080836,-118.2375218,(913) 384-5793
Albertsons,"10 E Carson St Carson, CA 90745",33.8317235,-118.2222101,(919) 751-2149
Albertsons,"255 E 2nd St Long Beach, CA 90803",33.75684063265306,-118.12217236734693,(562) 430-4822
Albertsons,"400 E South St Long Beach, CA 90805",33.859959,-118.188258,(562) 529-6098
Albertsons,"01 E Willow St Long Beach, CA 90806",33.8043329,-118.1887211,(562) 988-8785
Albertsons,"235 E Spring St Long Beach, CA 90808",33.8105728,-118.1112613,(562) 425-8456
Albertsons,"44 Redondo Ave Long Beach, CA 90814",33.7615690625,-118.1523784375,(562) 439-4004
Albertsons,"98 E Live Oak Ave Arcadia, CA 91006",34.107692,-118.027565,(626) 446-1416
Albertsons,"50 Parkrose Ave Monrovia, CA 91016",34.1475749,-117.9839548,(626) 287-7581
Albertsons,"25 E Huntington Dr Monrovia, CA 91016",34.140492,-117.9902343,(626) 305-4231
Albertsons,"841 E Sierra Madre Blvd Pasadena, CA 91107",34.1616647,-118.089666,(626) 351-0076
Albertsons,"8555 Devonshire St Northridge, CA 91324",34.2572657,-118.5523141,(818) 368-3694
Albertsons,"6201 San Fernando Mission Blvd Granada Hills, CA 91344",34.2720214,-118.4999823,(818) 366-9555
Albertsons,"8571 Soledad Canyon Rd Canyon Country, CA 91351",34.4157804,-118.4637084,(661) 298-0233
Albertsons,"770 Lindero Canyon Rd Thousand Oaks, CA 91362",34.1807323,-118.7867465,(818) 889-9819
Albertsons,"6850 The Old Rd Stevenson Ranch, CA 91381",34.3843354,-118.571767,(661) 799-9473
Albertsons,"227 Van Nuys Blvd Van Nuys, CA 91405",34.2029734,-118.4487032,(818) 787-8035
Albertsons,"830 W Verdugo Ave Burbank, CA 91505",34.1615837,-118.3419488,(818) 954-0817
Albertsons,"1358 Kenyon Way Rancho Cucamonga, CA 91701",34.1336604,-117.5549627,(909) 476-9874
Albertsons,"255 Grand Ave Chino Hills, CA 91709",34.0022518,-117.7329487,(909) 590-3660
Albertsons,"5970 Los Serranos Country Club Dr Chino Hills, CA 91709",33.9628267,-117.6947695,(909) 606-8184
Albertsons,"2013 Central Ave Chino, CA 91710",33.9959337,-117.6890847,(909) 464-1594
Albertsons,"000 N Azusa Ave Covina, CA 91722",34.0894755,-117.9078857,(626) 974-1763
Albertsons,"850 Foothill Blvd Rancho Cucamonga, CA 91730",34.1063081,-117.5554488,(909) 484-7237
Albertsons,"775 Baseline Rd Rancho Cucamonga, CA 91730",34.1214703,-117.5169859,(909) 980-0728
Albertsons,"9725 Colima Rd Rowland Heights, CA 91748",33.9874586,-117.8886706,(909) 869-7886
Albertsons,"522 S Grove Ave Ontario, CA 91761",34.05605083243243,-117.62872274594594,(909) 947-1055
Albertsons,"000 N Mountain Ave Ontario, CA 91762",34.0857152,-117.6702345,(410) 728-8626
Albertsons,"235 S Diamond Bar Blvd Diamond Bar, CA 91765",34.0008891,-117.8112737,(909) 861-6207
Albertsons,"33 E Las Tunas Dr San Gabriel, CA 91776",34.1034686,-118.0812706,(626) 287-7581
Albertsons,"595 Rosemead Blvd Temple City, CA 91780",34.0988234,-118.0734238,(626) 287-0907
Albertsons,"028 N Mountain Ave Upland, CA 91786",34.09470459366124,-117.67005090887952,(909) 931-5752
Albertsons,"8730 Amar Rd Walnut, CA 91789",34.0369131,-117.8675933,(626) 965-7377
Albertsons,"630 E Workman Ave West Covina, CA 91791",34.0755021,-117.9262345,(626) 331-5532
Albertsons,"400 W Commonwealth Ave Alhambra, CA 91803",34.089997,-118.129106,(626) 576-3900
Albertsons,"310 Proctor Valley Rd Chula Vista, CA 91914",32.6616465,-116.9576258,(619) 482-2930
Albertsons,"660 El Camino Real Carlsbad, CA 92009",33.1535493,-117.3118208,(760) 633-3589
Albertsons,"899 Jamacha Rd El Cajon, CA 92019",32.78368889208683,-116.9277940931774,(619) 670-7880
Albertsons,"608 Broadway El Cajon, CA 92021",32.80776642304825,-116.95512748680625,(619) 579-3463
Albertsons,"509 E Valley Pkwy Escondido, CA 92027",33.1451231,-117.0364256,(760) 735-5131
Albertsons,"570 W Valley Pkwy Escondido, CA 92029",33.1002968,-117.1076592,(760) 738-1669
Albertsons,"450 Marron Rd Oceanside, CA 92056",33.1782514,-117.2951207,(760) 729-3468
Albertsons,"150 Oceanside Blvd Oceanside, CA 92056",33.207379,-117.2844469,(760) 940-8282
Albertsons,"925 Mission Ave Oceanside, CA 92058",33.2035602,-117.3656456,(760) 433-8107
Albertsons,"4837 Pomerado Rd Poway, CA 92064",32.975295,-117.062434,(858) 748-9555
Albertsons,"459 Main St Ramona, CA 92065",33.04679993918645,-116.86006140603061,(760) 789-0023
Albertsons,"51 Woodland Pkwy San Marcos, CA 92069",33.14072296819221,-117.13969442290161,(760) 736-8880
Albertsons,"71 Larchwood Dr San Marcos, CA 92069",33.1472153,-117.1366856,(760) 798-2116
Albertsons,"870 N Magnolia Ave Santee, CA 92071",32.8551752,-116.9711514,(619) 449-4217
Albertsons,"929 W San Marcos Blvd San Marcos, CA 92078",33.1326065,-117.1958816,(760) 598-7272
Albertsons,"61 S Twin Oaks Valley Rd San Marcos, CA 92078",33.1409467,-117.1637798,(760) 798-2824
Albertsons,"601 S Melrose Dr Vista, CA 92081",33.1639743,-117.244798,(760) 598-0142
Albertsons,"44 14th St San Diego, CA 92101",32.705807312224294,-117.15198349286764,(619) 237-1247
Albertsons,"55 14th St San Diego, CA 92101",32.70587345025033,-117.15178474475238,(619) 237-9127
Albertsons,"22 W Washington St San Diego, CA 92103",32.7438933,-117.1808973,(619) 291-1277
Albertsons,"421 University Ave San Diego, CA 92105",32.749521,-117.0899939,(619) 563-7575
Albertsons,"30 Turquoise St San Diego, CA 92109",32.8082504,-117.2611165,(858) 488-0600
Albertsons,"715 Balboa Ave San Diego, CA 92111",32.8202244,-117.1727675,(858) 576-2270
Albertsons,"220 Balboa Ave San Diego, CA 92117",32.8111496,-117.204575,(858) 270-7140
Albertsons,"50 B Ave Coronado, CA 92118",32.6892142,-117.1750333,(619) 234-1523
Albertsons,"185 Waring Rd San Diego, CA 92120",32.7973803,-117.0720504,(619) 582-1607
Albertsons,"510 Genesee Ave San Diego, CA 92122",32.8543629,-117.2043844,(877) 932-7948
Albertsons,"4340 Penasquitos Dr San Diego, CA 92129",32.9796908,-117.0929423,(858) 672-2552
Albertsons,"7 22 Via Genoa Indio, CA 92201",33.705753,-116.2170037,(760) 342-6890
Albertsons,"40 E Hobsonway Blythe, CA 92225",33.6107278,-114.5795177,(760) 922-4099
Albertsons,"1655 Date Palm Dr Cathedral City, CA 92234",33.7858429,-116.4580472,(760) 202-0715
Albertsons,"5935 Date Palm Dr Cathedral City, CA 92234",33.7858429,-116.4580472,(760) 328-8046
Albertsons,"3053 Avenue 48 Coachella, CA 92236",33.7003382,-116.1934919,(760) 342-8057
Albertsons,"4590 Highway 111 Palm Desert, CA 92260",33.7257859,-116.4007646,(760) 340-1201
Albertsons,"3 101 Country Club Dr Palm Desert, CA 92260",33.758170896073004,-116.36564050670893,(760) 346-2036
Albertsons,"4580 Highway 111 Palm Desert, CA 92260",33.7257859,-116.4007646,(760) 346-2566
Albertsons,"751 N Sunrise Way Palm Springs, CA 92262",33.83349875868515,-116.52832155882473,(760) 322-1131
Albertsons,"840 Sierra Ave Fontana, CA 92335",34.0993638,-117.4357387,(909) 350-0232
Albertsons,"6055 Foothill Blvd Fontana, CA 92335",34.1064803,-117.4888866,(909) 822-7037
Albertsons,"201 Boulder Ave Highland, CA 92346",34.1281495,-117.1954414,(909) 425-9100
Albertsons,"50 E Cypress Ave Redlands, CA 92373",34.04807630598559,-117.17505416573276,(909) 792-1114
Albertsons,"51 W Base Line Rd Rialto, CA 92376",34.1213863,-117.3966548,(909) 873-4100
Albertsons,"3650 Bear Valley Rd Victorville, CA 92392",34.4705606,-117.3314877,(760) 243-6862
Albertsons,"40 W 40th St San Bernardino, CA 92407",34.1649144,-117.2866894,(909) 883-5666
Albertsons,"451 Dixie Ln Riverside, CA 92503",33.8838021,-117.5022984,(951) 279-8698
Albertsons,"975 Van Buren Blvd Riverside, CA 92503",33.9145388,-117.4415868,(951) 689-2252
Albertsons,"202 Arlington Ave Riverside, CA 92504",33.9460725,-117.4247657,(951) 359-8045
Albertsons,"0901 Riverside Dr Lake Elsinore, CA 92530",33.6806286,-117.3701263,(951) 245-4461
Albertsons,"2281 Mission Trl Lake Elsinore, CA 92530",33.6342682,-117.2906893,(951) 674-0771
Albertsons,"1000 California Oaks Rd Murrieta, CA 92562",33.5662841,-117.2066466,(951) 600-1127
Albertsons,"9140 Winchester Rd Murrieta, CA 92563",33.5760248,-117.1347217,(951) 600-4461
Albertsons,"560 N Perris Blvd Perris, CA 92571",33.79184553828199,-117.22620351594892,(951) 943-4611
Albertsons,"6100 Newport Rd Menifee, CA 92584",33.6849873,-117.158769,(951) 301-3852
Albertsons,"3893 Clinton Keith Rd Wildomar, CA 92595",33.5955946,-117.2453985,(951) 600-4607
Albertsons,"3805 Clinton Keith Rd Wildomar, CA 92595",33.5955946,-117.2453985,(951) 600-4607
Albertsons,"931 Irvine Blvd Irvine, CA 92602",33.7213013,-117.7709702,(714) 734-5655
Albertsons,"4201 Jeffrey Rd Irvine, CA 92620",33.7049491,-117.7535873,(949) 733-0945
Albertsons,"3601 Del Obispo St Dana Point, CA 92629",33.4677545,-117.6850639,(949) 496-9490
Albertsons,"051 Atlanta Ave Huntington Beach, CA 92646",33.6576961,-117.9773244,(714) 962-3338
Albertsons,"201 Yorktown Ave Huntington Beach, CA 92648",33.6795846,-117.9590459,(714) 536-3679
Albertsons,"0922 Coast Hwy Laguna Beach, CA 92651",33.560364,-117.8211395,(949) 499-1733
Albertsons,"04 Avenida Pico San Clemente, CA 92673",33.4377457,-117.6234734,(949) 492-1755
Albertsons,"0241 Golden Lantern Laguna Niguel, CA 92677",33.5418385,-117.6907027,(949) 363-0456
Albertsons,"9941 Alicia Pkwy Laguna Niguel, CA 92677",33.5261917,-117.7164735,(949) 495-1891
Albertsons,"755 Westminster Blvd Westminster, CA 92683",33.75919,-117.9919216,(714) 898-3668
Albertsons,"5872 Muirlands Blvd Mission Viejo, CA 92691",33.605152,-117.6802406,(949) 461-0099
Albertsons,"3072 Alicia Pkwy Mission Viejo, CA 92692",33.6278774,-117.6508976,(949) 583-9779
Albertsons,"329 S Bristol St Santa Ana, CA 92704",33.7145457,-117.8853606,(714) 557-9015
Albertsons,"70 S Harbor Blvd Santa Ana, CA 92704",33.7169828,-117.9207977,(714) 839-5371
Albertsons,"000 E 17th St Santa Ana, CA 92705",33.7599507,-117.8384739,(714) 541-9100
Albertsons,"8579 Brookhurst St Fountain Valley, CA 92708",33.710707,-117.9545285,(714) 378-0196
Albertsons,"3270 Newport Ave Tustin, CA 92780",33.7403336,-117.8200431,(714) 544-8525
Albertsons,"822 Katella Ave Anaheim, CA 92804",33.8034096,-117.906521,(714) 636-1872
Albertsons,"10 S State College Blvd Anaheim, CA 92806",33.833205,-117.889187,(714) 533-4790
Albertsons,"00 N Puente St Brea, CA 92821",33.9298591,-117.9156212,(714) 990-8200
Albertsons,"20 N Raymond Ave Fullerton, CA 92831",33.8723479,-117.907012,(714) 870-7713
Albertsons,"23 Imperial Hwy Fullerton, CA 92835",33.9172034,-117.9023827,(562) 697-1786
Albertsons,"41 Imperial Hwy Fullerton, CA 92835",33.9172034,-117.9023827,(562) 697-1786
Albertsons,"3220 Harbor Blvd Garden Grove, CA 92843",33.7644244,-117.9204038,(714) 539-1351
Albertsons,"100 Hamner Ave Norco, CA 92860",33.9261485,-117.5585603,(951) 738-8880
Albertsons,"440 E Chapman Ave Orange, CA 92869",33.7877854431734,-117.84936840488378,(714) 771-7933
Albertsons,"471 Kennedy Dr Corona, CA 92879",33.8923509,-117.5146781,(951) 279-2482
Albertsons,"260 E Ontario Ave Corona, CA 92881",33.8513257,-117.5508707,(951) 734-8451
Albertsons,"50 W Olive St Corona, CA 92882",33.8687781,-117.5755665,(951) 279-0721
Albertsons,"066 W 7th St Corona, CA 92882",33.8752941,-117.5754631,(951) 279-2693
Albertsons,"1500 Yorba Linda Blvd Yorba Linda, CA 92887",33.8832269,-117.7554119,(714) 693-7488
Albertsons,"800 Telegraph Rd Ventura, CA 93004",34.283349,-119.1808384,(805) 647-0023
Albertsons,"018 Casitas Pass Rd Carpinteria, CA 93013",34.398011,-119.509015,(805) 684-4815
Albertsons,"75 W Los Angeles Ave Moorpark, CA 93021",34.279092957325815,-118.88288769180318,(805) 523-9595
Albertsons,"30 N Ventura Rd Oxnard, CA 93030",34.2114911,-119.1945838,(805) 981-8954
Albertsons,"20 N Ventura Rd Oxnard, CA 93030",34.2203542,-119.1946948,(805) 983-0238
Albertsons,"401 Saviers Rd Oxnard, CA 93033",34.1725463,-119.1775063,(805) 385-2928
Albertsons,"135 E Los Angeles Ave Simi Valley, CA 93063",34.27179667431753,-118.79415220461254,(805) 520-9298
Albertsons,"268 Madera Rd Simi Valley, CA 93065",34.2872068,-118.7902008,(805) 520-9306
Albertsons,"800 Cochran St Simi Valley, CA 93065",34.28005841439469,-118.78610869249421,(805) 522-9000
Albertsons,"943 State St Santa Barbara, CA 93105",34.433583,-119.7185175,(805) 683-0970
Albertsons,"127 Hollister Ave Goleta, CA 93117",34.4269128,-119.88730644435532,(805) 968-3558
Albertsons,"044 Kern St Taft, CA 93268",35.143643,-119.461095,(661) 763-4298
Albertsons,"520 Brundage Ln Bakersfield, CA 93304",35.353988939393936,-119.0076683939394,(661) 328-0835
Albertsons,"132 W Branch St Arroyo Grande, CA 93420",35.12263302619492,-120.5804851762871,(805) 474-4909
Albertsons,"200 El Camino Real Atascadero, CA 93422",35.522777,-120.703979,(805) 462-0379
Albertsons,"300 El Camino Real Atascadero, CA 93422",35.52329206177886,-120.70390971790214,(877) 932-7948
Albertsons,"500 N H St Lompoc, CA 93436",34.64555,-120.457665,(805) 736-3850
Albertsons,"30 Quintana Rd Morro Bay, CA 93442",35.3633079,-120.8230992,(805) 772-0670
Albertsons,"89 Niblick Rd Paso Robles, CA 93446",35.61535992461994,-120.68900853251716,(805) 237-1626
Albertsons,"830 N Broadway Santa Maria, CA 93454",34.961600874999995,-120.43557112500001,(805) 348-3552
Albertsons,"120 E Clark Ave Santa Maria, CA 93455",34.8650769,-120.405105,(805) 934-3243
Albertsons,"010 E Avenue J Lancaster, CA 93535",34.6896378,-118.1003988,(661) 948-9620
Albertsons,"8727 Tierra Subida Ave Palmdale, CA 93551",34.5837676,-118.1474573,(661) 274-9557
Albertsons,"038 W Avenue N Palmdale, CA 93551",34.630812,-118.2201426,(661) 718-3791
Albertsons,"27 S China Lake Blvd Ridgecrest, CA 93555",35.6128145,-117.6700567,(760) 384-4015
Albertsons,"301 N Norma St Ridgecrest, CA 93555",35.627856,-117.678966,(760) 446-1506
Albertsons,"425 N Blackstone Ave Fresno, CA 93703",36.749121373312995,-119.79061966747354,(559) 229-3119
Albertsons,"223 N Davis Rd Salinas, CA 93907",36.6872375,-121.6729732,(831) 753-7400
Albertsons,"00 Country Club Gate Ctr Pacific Grove, CA 93950",36.609203,-121.922828,(831) 373-7381
Albertsons,"843 Mission St Daly City, CA 94014",37.6927793,-122.4650425,(650) 992-9490
Albertsons,"322 El Camino Real San Bruno, CA 94066",37.6352871,-122.4203064,(650) 742-9737
Albertsons,"133 Old County Rd San Carlos, CA 94070",37.51164997488406,-122.26414081209977,(650) 637-1780
Albertsons,"84 N Mathilda Ave Sunnyvale, CA 94085",37.384489,-122.0320671,(408) 749-8200
Albertsons,"515 Sloat Blvd San Francisco, CA 94132",37.734674,-122.4784399,(415) 681-4136
Albertsons,"000 Mowry Ave Fremont, CA 94538",37.5375261,-121.997557,(510) 744-1660
Albertsons,"2555 Mission Blvd Hayward, CA 94541",37.6717367,-122.0836281,(510) 538-7819
Albertsons,"5151 Santa Clara St Hayward, CA 94544",37.6631389,-122.1021809,(510) 670-0821
Albertsons,"701 Marina Blvd San Leandro, CA 94577",37.71456385563133,-122.15660663587819,(877) 932-7948
Albertsons,"300 Fairmont Dr San Leandro, CA 94578",37.7034882,-122.125963,(510) 276-8106
Albertsons,"5840 Hesperian Blvd San Lorenzo, CA 94580",37.6865108,-122.1299203,(510) 276-9395
Albertsons,"1001 San Ramon Valley Blvd San Ramon, CA 94583",37.7583721,-121.9675018,(925) 828-1200
Albertsons,"25 Sunset Ave Suisun City, CA 94585",38.2493438,-122.020542,(877) 932-7948
Albertsons,"2300 Dyer St Union City, CA 94587",37.5897243,-122.0697886,(510) 441-9393
Albertsons,"740 Tuolumne St Vallejo, CA 94589",38.10754309375,-122.238082,(707) 645-7329
Albertsons,"47 E 18th St Oakland, CA 94606",37.80020159375,-122.2530006875,(510) 272-9042
Albertsons,"963 Mountain Blvd Oakland, CA 94611",37.84106923217644,-122.22058514384273,(510) 339-4291
Albertsons,"70 Magnolia Ave Larkspur, CA 94939",37.927932861513256,-122.5319720805148,(415) 924-6738
Albertsons,"705 El Camino Real Santa Clara, CA 95051",37.3522924,-121.9947997,(408) 249-6700
Albertsons,"44 Blossom Hill Rd San Jose, CA 95123",37.251397,-121.83092,(408) 578-8484
Albertsons,"792 Southwest Expy San Jose, CA 95126",37.3119464,-121.9159369,(408) 947-0970
Albertsons,"094 G St Merced, CA 95340",37.06885067506219,-120.85564783206999,(877) 932-7948
Albertsons,"01 N Golden State Blvd Turlock, CA 95380",37.5297737,-120.8863852,(209) 634-2953
Albertsons,"9181 Sonoma Hwy Sonoma, CA 95476",38.417442750000006,-122.54917,(707) 996-1271
Albertsons,"86 Elm Ave Auburn, CA 95603",38.9030456,-121.0686079,(530) 823-6054
Albertsons,"184 Sunrise Mall Citrus Heights, CA 95610",38.67465675,-121.26877812260645,(916) 726-1813
Albertsons,"160 Elk Grove Blvd Elk Grove, CA 95624",38.4093087,-121.3874251,(916) 685-5299
Albertsons,"003 E Bidwell St Folsom, CA 95630",38.6436751,-121.114978,(916) 983-0186
Albertsons,"003 Bidwell St Folsom, CA 95630",38.673617,-121.1727724,(916) 983-4084
Albertsons,"839 Greenback Ln Orangevale, CA 95662",38.6785096,-121.2355734,(916) 989-3915
Albertsons,"270 Broadway Placerville, CA 95667",38.7298863,-120.7663712,(530) 622-1291
Albertsons,"979 Peabody Rd Vacaville, CA 95687",38.3527446,-121.976153,(707) 452-0145
Albertsons,"77 E Monte Vista Ave Vacaville, CA 95688",38.3608767,-121.9742724,(707) 448-5723
Albertsons,"060 Foothills Blvd Roseville, CA 95747",38.7826873,-121.3137483,(916) 782-2720
Albertsons,"021 Stanford Ranch Rd Rocklin, CA 95765",38.7861194,-121.266249,(916) 435-2828
Albertsons,"550 Arcade Blvd Sacramento, CA 95815",38.624440824185925,-121.452772626693,(916) 923-2093
Albertsons,"137 Kiefer Blvd Sacramento, CA 95826",38.5466435,-121.3921686,(916) 366-3555
Albertsons,"291 Truxel Rd Sacramento, CA 95833",38.6215506,-121.4979215,(916) 646-2023
Albertsons,"054 Nevada City Hwy Grass Valley, CA 95945",39.2412044,-121.0368983,(530) 477-9511
Albertsons,"2054 Nevada City Hwy Grass Valley, CA 95945",39.237548968456,-121.03637704870766,(530) 477-9511
Albertsons,"636 Clark Rd Paradise, CA 95969",39.744714,-121.607648,(530) 877-0522
Albertsons,"00 River Rd Tahoe City, CA 96145",39.1751505,-120.189345,(530) 583-5231
Apna Bazaar,"992 Amador Valley Blvd Dublin, CA 94568",37.7161297,-121.9167651,(925) 829-6093
Apna Bazaar,"500 Commerce Blvd Cotati, CA 94931",38.3358259,-122.7122783,(707) 665-0333
Arteaga's Starlite Supermarket,"436 E Anaheim St Long Beach, CA 90813",33.7826007,-118.1491829,(562) 591-7629
Arteaga's Starlite Supermarket,"12 5th Ave Redwood City, CA 94063",37.4852872,-122.1964767,(650) 364-1718
Arteaga's Starlite Supermarket,"33 E Duane Ave Sunnyvale, CA 94085",37.388702,-122.0145572,(408) 735-7277
Arteaga's Starlite Supermarket,"11 1st St Gilroy, CA 95020",37.0134154,-121.5989581,(408) 842-9067
Arteaga's Starlite Supermarket,"906 Chestnut St Gilroy, CA 95020",36.9964562,-121.5599937,(408) 847-7542
Arteaga's Starlite Supermarket,"40 Sacramento Ave West Sacramento, CA 95605",38.5891201,-121.5335717,(916) 375-0598
Azteca Mkt.,"370 Verdugo Rd Los Angeles, CA 90065",34.1215738,-118.2301497,(323) 258-4745
Azteca Mkt.,"748 Lankershim Blvd North Hollywood, CA 91606",34.1846135,-118.3865453,(818) 765-3536
Azteca Mkt.,"83 Avenue Of The Flags Buellton, CA 93427",34.6200763,-120.1900802,(805) 693-1614
Azteco Mkt.,"2017 Civic Center Dr Hawaiian Gardens, CA 90716",33.8295198,-118.0750454,(562) 425-3169
Basic American Foods,"100 N Market Blvd Sacramento, CA 95834",38.6473163,-121.4769016,(916) 928-4324
Bel Air Supermarkets,"323 Roscomare Rd Los Angeles, CA 90077",34.1100653,-118.463564,(912) 748-0943
Bel Air Supermarkets,"3384 Lincoln Way Auburn, CA 95603",38.8983171,-121.072385,(530) 885-0669
Bel Air Supermarkets,"425 Elk Grove Florin Rd Elk Grove, CA 95624",38.4199387,-121.3716678,(916) 681-5775
Bel Air Supermarkets,"787 Elk Grove Blvd Elk Grove, CA 95624",38.4093087,-121.3874251,(916) 685-2282
Bel Air Supermarkets,"26 Cameron Way Roseville, CA 95678",38.7317141,-121.2990453,(916) 786-0210
Bel Air Supermarkets,"100 Laguna Blvd Elk Grove, CA 95758",38.4233097,-121.4454759,(916) 684-7007
Better Brand Foods Inc.,"55 Rodriguez St Watsonville, CA 95076",36.91375348571428,-121.76537885714286,(831) 724-7243
BI-Rite Supermarket,"913 N Broadway Los Angeles, CA 90031",34.0736824,-118.2125651,(323) 222-7189
Big Saver Foods,"829 Compton Ave Los Angeles, CA 90001",33.9911658,-118.2477611,(323) 582-8295
Big Saver Foods,"859 Compton Ave Los Angeles, CA 90001",33.9911658,-118.2477611,(323) 582-8295
Big Saver Foods,"000 N Broadway Los Angeles, CA 90031",34.0736824,-118.2125651,(323) 222-3524
Big Saver Foods,"168 Huntington Dr S Los Angeles, CA 90032",34.0825378,-118.1895502,(323) 222-9130
Big Saver Foods,"619 N Figueroa St Los Angeles, CA 90065",34.049928333333334,-118.25947116666667,(323) 222-0113
Big Saver Foods,"4310 Hawthorne Blvd Lawndale, CA 90260",33.8873304,-118.3523901,(910) 588-4090
Big Saver Foods,"406 Washington Blvd Pico Rivera, CA 90660",33.9790243,-118.0895185,(562) 949-6299
Big Saver Foods,"6000 Woodruff Ave Bellflower, CA 90706",33.8737392,-118.1172799,(562) 920-7912
Big Saver Foods,"500 W Willow St Long Beach, CA 90810",33.8044213,-118.2165202,(562) 595-7595
Big Saver Foods,"344 W Wardlow Rd Long Beach, CA 90810",33.81889133333333,-118.196534,(562) 595-7595
Big Saver Foods,"920 Valley Blvd El Monte, CA 91731",34.0751552,-118.0354684,(626) 575-7701
Big Saver Foods,"619 Garvey Ave Rosemead, CA 91770",34.0626697,-118.0799764,(626) 571-7816
Big Saver Foods,"981 Chicago Ave Riverside, CA 92507",33.9694758,-117.3485051,(951) 684-1038
Big Saver Foods,"20 W 17th St Santa Ana, CA 92706",33.7601094,-117.8774582,(714) 541-8154
Bunge Foods,"5601 Mosher Ave Tustin, CA 92780",33.7170097,-117.835763,(714) 258-1223
Bunge Foods,"36 S Mcclure Rd Modesto, CA 95357",37.6299059,-120.9297769,(209) 574-9981
Cala Foods Inc,"095 Hyde St San Francisco, CA 94109",37.781446263157896,-122.4155682631579,(415) 776-3650
Cala Foods Inc,"245 S Van Ness Ave San Francisco, CA 94110",37.777944796875,-122.41963318750001,(415) 282-0514
California Creative Foods,"235 Production Ave Oceanside, CA 92054",33.2155822,-117.3480947,(760) 721-2600
California Creative Foods,"49 Benet Rd Oceanside, CA 92054",33.2197472,-117.3579447,(760) 757-2622
California Custom Foods,"2 E Tokay St Lodi, CA 95240",38.126355,-121.272729,(209) 369-3333
California Family Foods,"550 Struckmeyer Rd Arbuckle, CA 95912",39.045548,-122.069818,(530) 476-3326
Cardenas Foods,"040 Jackson St Paramount, CA 90723",33.8854235,-118.1614271,(562) 220-1570
Cardenas Foods,"809 Howe St Paramount, CA 90723",33.9072843,-118.1536625,(562) 630-3050
Cardenas Foods,"90 E Holt Ave Pomona, CA 91767",34.0628847,-117.7290434,(909) 629-1666
Cardenas Foods,"620 N Imperial Ave El Centro, CA 92243",32.797601,-115.570119,(760) 482-0139
Cardenas Foods,"963 Sierra Ave Fontana, CA 92335",34.0993638,-117.4357387,(909) 429-2070
Cardenas Foods,"50 W Foothill Blvd Rialto, CA 92376",34.1067493,-117.3875169,(909) 873-2228
Cardenas Foods,"350 Van Buren Blvd Riverside, CA 92503",33.9145388,-117.4415868,(951) 343-7877
Cardenas Foods,"475 S San Jacinto Ave San Jacinto, CA 92583",33.79949772727273,-116.95906995454546,(951) 487-9466
Cardenas Foods,"01 S Lincoln Ave Corona, CA 92882",33.8577212,-117.5862307,(951) 371-9030
Chavez Supermarket,"282 Middlefield Rd Menlo Park, CA 94025",37.4560664038418,-122.16722904625165,(650) 365-6510
Chavez Supermarket,"75 Arguello St Redwood City, CA 94063",37.4899079,-122.2366185,(650) 367-8819
Chavez Supermarket,"17 Arguello St Redwood City, CA 94063",37.4899079,-122.2366185,(650) 367-9745
Chavez Supermarket,"6 5th Ave Redwood City, CA 94063",37.4852872,-122.1964767,(650) 701-1801
Chavez Supermarket,"66 N Fair Oaks Ave Sunnyvale, CA 94085",37.382057,-122.0182986,(408) 736-3793
Chavez Supermarket,"157 W Tennyson Rd Hayward, CA 94544",37.633963127992764,-122.0644014425785,(510) 783-4052
Chavez Supermarket,"327 Mckee Rd San Jose, CA 95116",37.3632935,-121.8531915,(408) 929-5208
Chavez Supermarket,"72 Lochridge Dr San Jose, CA 95133",37.3614848,-121.8621887,(408) 929-5208
City Market,"107 Venice Blvd Los Angeles, CA 90019",34.0439978,-118.3263079,(323) 938-3256
City Market,"1400 Nordhoff St Chatsworth, CA 91311",34.2354683,-118.5877718,(866) 455-4037
City Market,"01 Linden Ave Carpinteria, CA 93013",34.4003647,-119.5171268,(805) 566-0159
City Market,"825 Greenback Ln Citrus Heights, CA 95621",38.6782991,-121.3014,(916) 725-1660
Costco,"901 Los Feliz Blvd Los Angeles, CA 90039",34.1246925,-118.2662292,(323) 644-5200
Costco,"383 Wilshire Blvd Beverly Hills, CA 90211",34.067049,-118.3850928,(323) 782-8944
Costco,"3463 Washington Blvd Culver City, CA 90232",34.0272477,-118.3881089,(917) 441-5960
Costco,"4501 Hindry Ave Hawthorne, CA 90250",33.9027845,-118.3730663,(916) 989-3915
Costco,"3401 Washington Blvd Marina Del Rey, CA 90292",33.9814071,-118.4629187,(914) 788-1909
Costco,"3463 Washington Blvd Marina Del Rey, CA 90292",33.9814071,-118.4629187,(917) 441-5960
Costco,"3411 Washington Blvd Marina Del Rey, CA 90292",33.9814071,-118.4629187,(919) 362-4125
Costco,"560 W Century Blvd Inglewood, CA 90303",33.9454037,-118.3184583,(910) 285-2445
Costco,"751 Skypark Dr Torrance, CA 90505",33.8113146,-118.3510668,(919) 828-9216
Costco,"881 8th St Buena Park, CA 90620",33.8669981,-118.0015003,(714) 562-9000
Costco,"01 N Beach Blvd La Habra, CA 90631",33.9393416,-117.9680198,(562) 524-0001
Costco,"401 Katella Ave Los Alamitos, CA 90720",33.8031957,-118.0833872,(562) 668-5152
Costco,"200 E Willow St Signal Hill, CA 90755",33.8044691,-118.1659692,(562) 427-2537
Costco,"28 W Willow St Long Beach, CA 90806",33.8043207,-118.1980721,(562) 424-2837
Costco,"1300 Roscoe Blvd Canoga Park, CA 91304",34.2197956,-118.5976667,(818) 884-7935
Costco,"810 Tampa Ave Northridge, CA 91324",34.2426301,-118.5535899,(818) 428-0003
Costco,"700 Lindero Canyon Rd Thousand Oaks, CA 91362",34.1807323,-118.7867465,(818) 540-2020
Costco,"8649 Via Princessa Canyon Country, CA 91387",34.4084629,-118.4692385,(661) 250-2818
Costco,"100 Sepulveda Blvd Van Nuys, CA 91411",34.1719757,-118.466183,(818) 989-0829
Costco,"400 W Riverside Dr Burbank, CA 91505",34.1529846,-118.3395427,(818) 557-3784
Costco,"051 W Burbank Blvd Burbank, CA 91506",34.1724035,-118.6444898,(818) 557-3783
Costco,"220 W Foothill Blvd Azusa, CA 91702",34.13339657894737,-117.90915510526315,(626) 812-7905
Costco,"3111 Peyton Dr Chino, CA 91708",33.983748,-117.7324766,(909) 664-9902
Costco,"3111 Peyton Dr Chino Hills, CA 91709",33.985102,-117.7324682,(909) 664-9902
Costco,"404 Central Ave Montclair, CA 91763",34.0679418,-117.6896433,(909) 575-5009
Costco,"20 N Lone Hill Ave San Dimas, CA 91773",34.1113346,-117.8288145,(909) 962-5507
Costco,"207 W Commonwealth Ave Alhambra, CA 91803",34.0874839,-118.1348019,(626) 289-7164
Costco,"95 E H St Chula Vista, CA 91910",32.63683441114602,-117.06879529467709,(619) 482-4405
Costco,"130 Broadway Chula Vista, CA 91911",32.600657,-117.0776915,(619) 205-1501
Costco,"100 Fletcher Pkwy La Mesa, CA 91942",32.7778606,-117.0179059,(619) 667-8513
Costco,"125 Fletcher Pkwy La Mesa, CA 91942",32.7778606,-117.0179059,(619) 697-9933
Costco,"001 W 19th St National City, CA 91950",32.665047,-117.107842,(619) 477-0125
Costco,"0281 Greenleaf Rd Spring Valley, CA 91977",32.716305,-116.978996,(619) 447-0290
Costco,"51 Palomar Airport Rd Carlsbad, CA 92011",33.1223988,-117.3253817,(760) 929-0154
Costco,"2155 Tech Center Dr Poway, CA 92064",32.936623,-117.036537,(858) 848-2456
Costco,"25 Center Dr San Marcos, CA 92069",33.1351727,-117.1194907,(760) 741-5627
Costco,"01 Town Center Pkwy Santee, CA 92071",32.838815,-116.988235,(619) 562-1560
Costco,"755 Hacienda Dr Vista, CA 92081",33.1935873958275,-117.25848871287367,(760) 631-2176
Costco,"50 Gateway Center Dr San Diego, CA 92102",32.7125467,-117.1142695,(619) 358-2301
Costco,"50 Gateway Center Way San Diego, CA 92102",32.714054,-117.112373,(619) 358-2301
Costco,"345 Fenton Pkwy San Diego, CA 92108",32.7852545,-117.1335039,(619) 358-4001
Costco,"605 Morena Blvd San Diego, CA 92117",32.8033834,-117.2123665,(619) 358-2303
Costco,"649 Morena Blvd San Diego, CA 92117",32.8033834,-117.2123665,(858) 270-7643
Costco,"949 Morena Blvd San Diego, CA 92117",32.8033834,-117.2123665,(858) 812-1400
Costco,"01 Towne Centre Dr San Diego, CA 92121",32.8728157,-117.2073574,(619) 562-2812
Costco,"130 Miramar Rd San Diego, CA 92121",32.8776062,-117.1711784,(858) 790-6750
Costco,"125 Fletcher Pkwy San Diego, CA 92138",32.807596,-116.964751174698,(619) 697-9933
Costco,"1373 Date Palm Ave Indio, CA 92201",33.7189297,-116.2436506,(760) 342-0655
Costco,"6670 Desert Villa St Indio, CA 92201",33.7095911,-116.241738,(760) 775-8891
Costco,"4136 Avenue 44 Indio, CA 92203",33.7294616,-116.213139,(760) 347-0329
Costco,"2800 Dinah Shore Dr Palm Desert, CA 92211",33.78746,-116.365346,(760) 202-7120
Costco,"2800 Dinah Shore Dr Cathedral City, CA 92234",33.8014309,-116.4406283,(760) 202-7120
Costco,"030 N Imperial Ave El Centro, CA 92243",32.7964712,-115.5700234,(760) 353-8592
Costco,"9795 Highway 111 La Quinta, CA 92253",33.7074609,-116.2774465,(760) 342-0655
Costco,"2800 Dinah Shore Dr Rancho Mirage, CA 92270",33.801592,-116.4233862,(760) 202-7120
Costco," General Delivery Fontana, CA 92334",34.0922335,-117.435048,(909) 823-5067
Costco,"257 Live Oak Ave Fontana, CA 92335",34.0433968,-117.4822044,(909) 823-0570
Costco,"321 Tokay Ave Fontana, CA 92335",34.1108408,-117.4559017,(909) 823-0671
Costco,"6960 San Bernardino Ave Fontana, CA 92335",34.0773386,-117.5011095,(909) 823-5051
Costco,"6805 Randall Ave Fontana, CA 92335",34.0848319,-117.4466096,(909) 823-8270
Costco,"6505 Sierra Lakes Pkwy Fontana, CA 92336",34.1384684,-117.4753431,(909) 770-5639
Costco,"5242 Mcdonnell Ave Fontana, CA 92336",34.129166,-117.4678184,(909) 823-5269
Costco,"4601 Valley Center Dr Victorville, CA 92395",34.5166766,-117.318507,(760) 524-9000
Costco,"4555 Valley Center Dr Victorville, CA 92395",34.5166766,-117.318507,(760) 524-9902
Costco,"an Bernardino, CA 92408",34.07382124514118,-117.2696712662391,(888) 724-9267
Costco,"099 E Hospitality Ln San Bernardino, CA 92408",34.0662695,-117.2768057,(909) 478-0115
Costco,"25 E Club Center Dr San Bernardino, CA 92408",34.0604901,-117.2837602,(909) 478-3364
Costco,"9315 Central Ave Lake Elsinore, CA 92532",33.7009141,-117.3281141,(951) 253-6030
Costco,"2700 Day St Moreno Valley, CA 92553",33.9358209,-117.2789299,(951) 413-1923
Costco,"6610 Ynez Rd Temecula, CA 92591",33.5343339,-117.1629403,(951) 719-2018
Costco,"3961 Doheny Park Rd San Juan Capistrano, CA 92675",33.4681174,-117.67622,(949) 240-4814
Costco,"7972 Cabot Rd Laguna Niguel, CA 92677",33.5566474,-117.6789324,(949) 364-9239
Costco,"7220 Heather Ridge Rd Laguna Niguel, CA 92677",33.5638225,-117.7116689,(949) 389-8700
Costco,"7900 Newhope St Fountain Valley, CA 92708",33.7002288,-117.9356228,(714) 434-2702
Costco,"6383 Hemlock St Fountain Valley, CA 92708",33.7238651,-117.961612,(714) 534-2307
Costco,"700 Park Ave Tustin, CA 92782",33.6983077,-117.8231919,(714) 338-1933
Costco,"655 El Camino Real Tustin, CA 92782",33.7246314,-117.7943681,(714) 838-5513
Costco,"47 S Magnolia Ave Anaheim, CA 92804",33.8139644,-117.9758005,(714) 761-3826
Costco,"00 S Harbor Blvd Fullerton, CA 92832",33.8691836,-117.9243084,(714) 738-7521
Costco,"2633 Savi Ranch Pkwy Yorba Linda, CA 92887",33.8758223,-117.7399496,(714) 637-0360
Costco,"001 E Ventura Blvd Oxnard, CA 93036",34.233371,-119.1716418,(805) 983-2249
Costco,"660 Park Center Dr Simi Valley, CA 93065",34.2847495,-118.7968045,(805) 578-3301
Costco,"095 Market Place Dr Goleta, CA 93117",34.4286831,-119.8702513,(805) 685-3199
Costco,"750 S Mooney Blvd Visalia, CA 93277",36.3161608,-119.3138055,(559) 625-5869
Costco,"800 Rosedale Hwy Bakersfield, CA 93308",35.3832427,-119.0456073,(661) 852-2648
Costco,"101 Gilmore Ave Bakersfield, CA 93308",35.38949,-119.044549,(800) 607-6861
Costco,"900 Panama Ln Bakersfield, CA 93313",35.2959604,-119.0258065,(661) 398-4750
Costco,"an Luis Obispo, CA 93401",35.2586157,-120.6637136807492,(805) 541-7003
Costco,"540 Froom Ranch Way San Luis Obispo, CA 93405",35.2525415,-120.6876611,(805) 541-7000
Costco,"335 South Bradley, CA 93426",35.8628636,-120.8037593106835,(805) 614-1433
Costco,"anta Maria, CA 93454",33.6454086,-117.6123703,(805) 614-1428
Costco,"335 S Bradley Rd Santa Maria, CA 93454",34.950515686868684,-120.41824457575758,(805) 928-8459
Costco,"141 W Avenue L Lancaster, CA 93534",34.660358782563314,-118.12660024257973,(661) 802-4475
Costco,"100 N Abby St Fresno, CA 93720",36.743431,-119.789286,(559) 437-3643
Costco,"544 W Yale Ave Fresno, CA 93722",36.77028509439847,-119.81821643774062,(559) 271-2258
Costco,"500 W Shaw Ave Fresno, CA 93722",36.808504933887306,-119.80161964667012,(559) 271-6511
Costco,"339 N Davis Rd Salinas, CA 93907",36.6872375,-121.6729732,(831) 751-0508
Costco,"01 Tioga Ave Seaside, CA 93955",36.6162308,-121.8453368,(831) 583-9240
Costco,"300 Middlefield Rd Redwood City, CA 94063",37.4814437,-122.2200571,(650) 365-9384
Costco,"200 Middlefield Rd Redwood City, CA 94063",37.4814437,-122.2200571,(650) 385-6591
Costco,"an Carlos, CA 94070",37.50591044223739,-122.26013484101186,(650) 365-8046
Costco,"51 S Airport Blvd South San Francisco, CA 94080",37.65144820408163,-122.40911804081632,(650) 872-2021
Costco,"50 Lawrence Station Rd Sunnyvale, CA 94086",37.4087513,-121.9958522,(408) 739-3043
Costco,"50 10th St San Francisco, CA 94103",37.7727524,-122.4127495,(415) 626-4388
Costco,"001 Metro Center Blvd San Mateo, CA 94404",37.5620882,-122.2723423,(650) 286-0763
Costco,"201 Verne Roberts Cir Antioch, CA 94509",38.0095472,-121.836431,(925) 470-4603
Costco,"400 Monument Blvd Concord, CA 94520",37.9682012,-122.0321426,(925) 566-4000
Costco,"150 Fostoria Way Danville, CA 94526",37.7827582,-121.9691232,(925) 277-0163
Costco,"101 Business Center Dr Fairfield, CA 94534",38.2320591,-122.113952,(707) 864-3816
Costco,"0580 Albrae St Fremont, CA 94538",37.5192833,-121.9828069,(510) 683-6707
Costco,"3621 Pacific Commons Blvd Fremont, CA 94538",37.5004026,-121.9685899,(510) 897-1119
Costco,"2330 Hathaway Ave Hayward, CA 94541",37.6663878,-122.1034133,(510) 259-6600
Costco,"800 Independence Dr Livermore, CA 94551",37.702702,-121.8109621,(925) 443-6056
Costco,"900 Davis St San Leandro, CA 94577",37.722299243048035,-122.1650063665989,(510) 562-8241
Costco,"720 Stoneridge Dr Pleasanton, CA 94588",37.6908637,-121.8881814,(925) 277-0407
Costco,"98 Plaza Dr Vallejo, CA 94591",38.135403,-122.217729,(707) 553-6409
Costco,"100 Central Ave Richmond, CA 94804",38.012379,-122.643341,(510) 898-2020
Costco,"801 Central Ave Richmond, CA 94804",37.9646404,-122.369878,(510) 898-2031
Costco,"901 Redwood Dr Rohnert Park, CA 94928",38.36262790000001,-122.71500319833982,(707) 540-9118
Costco,"00 Vintage Way Novato, CA 94945",38.0935541,-122.5550817,(415) 899-8538
Costco,"251 Camino Arroyo Gilroy, CA 95020",36.9977758,-121.5474859,(408) 848-0700
Costco,"601 Coleman Ave Santa Clara, CA 95050",37.3583355,-121.9399399,(408) 567-9000
Costco,"20 Sylvania Ave Santa Cruz, CA 95060",36.98654953006537,-122.03453192239623,(831) 469-0961
Costco,"301 Almaden Expy San Jose, CA 95118",37.2569587,-121.8761216,(408) 979-2513
Costco,"709 Automation Pkwy San Jose, CA 95131",37.388641,-121.8829027,(408) 678-2150
Costco,"616 E Hammer Ln Stockton, CA 95210",38.0208627852349,-121.30456475838926,(209) 478-2040
Costco,"021 Kiltie Way Stockton, CA 95210",38.024215,-121.317208,(209) 478-5813
Costco,"250 W Grant Line Rd Tracy, CA 95304",37.75405095918367,-121.42851418367347,(209) 830-5348
Costco,"444 R St Merced, CA 95340",37.29210659459459,-120.49955047297297,(209) 381-5620
Costco,"801 Pelandale Ave Modesto, CA 95356",37.7005717,-121.0318948,(209) 342-4910
Costco,"7880 W Schulte Rd Tracy, CA 95377",37.721811,-121.513098,(209) 221-6200
Costco,"955 N Tegner Rd Turlock, CA 95380",37.5198173,-120.8867447,(209) 656-5301
Costco,"900 Santa Rosa Ave Santa Rosa, CA 95407",38.43044,-122.710956,(707) 566-6429
Costco,"006 W Wabash Ave Eureka, CA 95501",40.79155133333333,-124.170996,(707) 441-0905
Costco,"000 Auburn Blvd Citrus Heights, CA 95621",38.6892649,-121.3053187,(916) 560-4004
Costco,"981 E Stockton Blvd Elk Grove, CA 95624",38.4386413,-121.3972213,(916) 682-4443
Costco,"800 Cavitt Dr Folsom, CA 95630",38.647627,-121.111756,(916) 850-1003
Costco,"80 Cavitt Dr Folsom, CA 95630",38.647627,-121.111756,(916) 850-1003
Costco,"200 Creekside Dr Folsom, CA 95630",38.672268,-121.143031,(916) 984-3192
Costco,"750 Stanford Ranch Rd Roseville, CA 95678",38.7826189,-121.2658103,(916) 789-1616
Costco,"501 Hume Way Vacaville, CA 95687",38.3490129,-121.9776093,(707) 453-7342
Costco,"051 Hume Way Vacaville, CA 95687",38.3490129,-121.9776093,(707) 453-7343
Costco,"1260 White Rock Rd Rancho Cordova, CA 95742",38.58825,-121.2852618,(916) 724-2240
Costco,"299 Bronze Star Dr Woodland, CA 95776",38.6699816,-121.7274521,(530) 406-2120
Costco,"00 S St Sacramento, CA 95814",38.5520904,-121.4320334,(916) 560-4002
Costco,"600 Expo Pkwy Sacramento, CA 95815",38.598238,-121.450447,(916) 563-7002
Costco,"981 E Stockton Blvd Sacramento, CA 95823",38.465251,-121.414211,(916) 682-4443
Costco,"005 Westboro Way Sacramento, CA 95823",38.466365,-121.424493,(916) 682-7505
Costco,"252 Summer Falls Cir Sacramento, CA 95828",38.469305,-121.401885,(916) 682-4045
Costco,"977 Colombard Way Sacramento, CA 95829",38.466766,-121.367674,(916) 682-7193
Costco,"100 Dr Martin Luther King Junior Pkwy Chico, CA 95928",39.7218053,-121.8087973,(530) 342-6497
Costco,"40 Setter Ct Redding, CA 96003",40.5976475,-122.3477304,(530) 222-6515
Dominick's Finer Foods,"6212 Auburn Folsom Rd Granite Bay, CA 95746",38.7800843917694,-121.14805987426799,(916) 786-3355
Dot Foods,"200 Nickerson Dr Modesto, CA 95358",37.5962459,-120.985549,(209) 581-9090
Draegers Supermarket,"42 1st St Los Altos, CA 94022",37.38080043979849,-122.12017624684347,(650) 948-9196
Draegers Supermarket,"0101 University Dr Menlo Park, CA 94025",37.44405628846154,-122.17654396153846,(650) 324-7733
Draegers Supermarket,"91 Utah Ave South San Francisco, CA 94080",37.6453241,-122.4043902,(650) 871-8473
Draegers Supermarket,"22 E 4th Ave San Mateo, CA 94401",37.562517,-122.324649,(650) 685-3797
Eastern Foods,"669 Rickenbacker Rd Bell, CA 90201",33.9891656,-118.1619965,(323) 264-3871
Eastern Foods,"608 Barrington Ct Hayward, CA 94545",37.6554346,-122.1409677,(510) 784-0374
F'real Foods,"7 Avenida De Orinda Orinda, CA 94563",37.88503903020555,-122.19173161027703,(925) 253-8556
F'real Foods,"1 Avenida De Orinda Orinda, CA 94563",37.885071,-122.191704,(925) 258-0100
Fairway Foods Inc.,"4411 Village Center Dr Idyllwild, CA 92549",33.7435674,-116.7125903,(951) 659-2737
Family Foods,"2469 W Washington Blvd Los Angeles, CA 90066",34.0010826,-118.4163415,(912) 262-6663
Family Foods,"037 Glenoaks Blvd San Fernando, CA 91340",34.2877775,-118.4266176,(818) 361-1565
Family Foods,"780 Sweetwater Springs Blvd Spring Valley, CA 91977",32.733025,-116.971581,(619) 660-6199
Fastop Foods Inc,"620 S Main St Lakeport, CA 95453",39.037067916535655,-122.91513801666552,(707) 263-7523
Fastrip Food Store,"92 S San Jacinto Ave San Jacinto, CA 92583",33.7816549,-116.9588537,(951) 654-4809
Fastrip Food Store,"03 Kern St Taft, CA 93268",35.143643,-119.461095,(661) 763-1352
Fastrip Food Store,"798 E Clinton Ave Fresno, CA 93703",36.77212,-119.801202,(559) 454-1908
Fiesta Foods,"190 E Tulare St Fresno, CA 93702",36.62645832958899,-119.674801154719,(559) 367-0285
Fiesta Foods,"985 E Kings Canyon Rd Fresno, CA 93727",36.7357926,-119.7195341,(559) 456-9941
Fiesta Foods,"40 E Boronda Rd Salinas, CA 93906",36.695387482142856,-121.6790780625,(831) 444-7894
Food 4 Less,"651 E 103rd St Los Angeles, CA 90002",33.9435654681452,-118.2633205359227,(323) 564-3753
Food 4 Less,"091 S Hoover St Los Angeles, CA 90006",33.9295223,-118.2869523,(239) 282-5515
Food 4 Less,"717 S Western Ave Los Angeles, CA 90006",34.05932071428572,-118.30917602040817,(323) 731-0164
Food 4 Less,"700 W 6th St Los Angeles, CA 90017",34.049448,-118.256519,(229) 928-2784
Food 4 Less,"748 W Jefferson Blvd Los Angeles, CA 90018",34.0255524,-118.3179607,(323) 735-8317
Food 4 Less,"654 E Olympic Blvd Los Angeles, CA 90023",34.018744,-118.2071418,(323) 980-5067
Food 4 Less,"420 W Sunset Blvd Los Angeles, CA 90027",34.0980755,-118.313065,(323) 871-8011
Food 4 Less,"910 Huntington Dr S Los Angeles, CA 90032",34.0825378,-118.1895502,(323) 222-2659
Food 4 Less,"750 E 1st St Los Angeles, CA 90033",33.85486934657518,-118.39086090002364,(323) 268-0461
Food 4 Less,"318 S Main St Los Angeles, CA 90037",33.91939542857143,-118.41583436734695,(323) 846-8895
Food 4 Less,"100 N Figueroa St Los Angeles, CA 90042",34.057621,-118.251987,(323) 982-0304
Food 4 Less,"820 W Slauson Ave Los Angeles, CA 90047",33.9891493,-118.2888783,(323) 291-2092
Food 4 Less,"1407 S Western Ave Los Angeles, CA 90047",33.9590495,-118.3090192,(323) 757-1257
Food 4 Less,"1840 Wilmington Ave Los Angeles, CA 90059",33.9329525,-118.2390537,(323) 564-3986
Food 4 Less,"963 N Cahuenga Blvd Los Angeles, CA 90068",34.08822336734694,-118.32889579591836,(323) 460-4231
Food 4 Less,"901 Eastern Ave Bell, CA 90201",33.9690226,-118.1646882,(323) 771-2003
Food 4 Less,"900 W Rosecrans Ave Compton, CA 90220",33.903234,-118.241768,(916) 452-1072
Food 4 Less,"100 W Artesia Blvd Compton, CA 90220",33.87445,-118.224612,(800) 427-4438
Food 4 Less,"3525 Lakewood Blvd Downey, CA 90242",33.9130799,-118.1406419,(562) 633-0830
Food 4 Less,"4500 Ocean Gate Ave Hawthorne, CA 90250",33.9094755,-118.3670805,(916) 685-5525
Food 4 Less,"920 Santa Fe Ave Huntington Park, CA 90255",33.9749732,-118.2302552,(323) 585-6430
Food 4 Less,"200 W Century Blvd Inglewood, CA 90303",33.9454037,-118.3184583,(916) 850-1003
Food 4 Less,"810 Norwalk Blvd Whittier, CA 90606",33.9957688,-118.0582995,(562) 699-3358
Food 4 Less,"620 Whittier Blvd Pico Rivera, CA 90660",33.9970243,-118.0742848,(562) 948-3435
Food 4 Less,"910 Katella Ave Stanton, CA 90680",33.802966,-117.985953,(714) 934-8600
Food 4 Less,"2222 Carson St Hawaiian Gardens, CA 90716",33.8315191,-118.0737374,(562) 429-9135
Food 4 Less,"36 W Anaheim St Wilmington, CA 90744",33.7791893,-118.2768793,(919) 781-8776
Food 4 Less,"700 Cherry Ave Long Beach, CA 90805",33.8463811,-118.1674706,(562) 220-2373
Food 4 Less,"329 N Lake Ave Pasadena, CA 91104",34.1598369,-118.1324926,(626) 791-7412
Food 4 Less,"0155 Saticoy St Winnetka, CA 91306",34.2083357,-118.5792618,(818) 998-8074
Food 4 Less,"2765 Van Nuys Blvd Pacoima, CA 91331",34.2617606,-118.4279843,(818) 890-1151
Food 4 Less,"635 Laurel Canyon Blvd Pacoima, CA 91331",34.2494635,-118.4222806,(818) 897-3545
Food 4 Less,"040 Glenoaks Blvd San Fernando, CA 91340",34.2877775,-118.4266176,(818) 365-4577
Food 4 Less,"6208 Parthenia St North Hills, CA 91343",34.2283288,-118.4739309,(818) 830-0249
Food 4 Less,"9200 Soledad Canyon Rd Canyon Country, CA 91351",34.4157804,-118.4637084,(661) 250-7357
Food 4 Less,"6530 Sherman Way Van Nuys, CA 91406",34.2011212,-118.4866369,(818) 997-0170
Food 4 Less,"000 Baldwin Park Blvd Baldwin Park, CA 91706",34.086499,-117.964773,(626) 856-0511
Food 4 Less,"024 Grand Ave Chino, CA 91710",33.9865019,-117.6280059,(909) 902-0060
Food 4 Less,"1950 Garvey Ave El Monte, CA 91732",34.0630314,-118.0171422,(626) 442-7155
Food 4 Less,"2879 Foothill Blvd Rancho Cucamonga, CA 91739",34.1063073,-117.5539514,(909) 899-8388
Food 4 Less,"801 N Hacienda Blvd La Puente, CA 91744",34.035308,-117.950232,(626) 916-1120
Food 4 Less,"246 S Euclid Ave Ontario, CA 91762",34.06208360961138,-117.65123145239485,(909) 986-6673
Food 4 Less,"090 S Garey Ave Pomona, CA 91766",34.0487762,-117.7497753,(909) 902-0299
Food 4 Less,"15 N Azusa Ave West Covina, CA 91791",34.0751744,-117.9076618,(626) 967-5244
Food 4 Less,"60 Palomar St Chula Vista, CA 91911",32.60954875946675,-117.05679570330446,(619) 498-0327
Food 4 Less,"420 Broadway Lemon Grove, CA 91945",32.7427195,-117.0349941,(619) 463-4774
Food 4 Less,"320 E 30th St National City, CA 91950",32.65782527925475,-117.09573962299373,(620) 663-7651
Food 4 Less,"44 Broadway El Cajon, CA 92021",32.8077675,-116.9356522,(518) 426-0652
Food 4 Less,"44 N Broadway Escondido, CA 92025",33.121801,-117.0815764,(760) 737-8920
Food 4 Less,"430 Cuyamaca St Santee, CA 92071",32.8361529,-116.9837113,(619) 596-9076
Food 4 Less,"00 Hacienda Dr Vista, CA 92081",33.1926155,-117.267347,(760) 630-5333
Food 4 Less,"730 Hazard Center Dr San Diego, CA 92108",32.7707928,-117.1563393,(619) 683-7760
Food 4 Less,"995 Shawline St San Diego, CA 92111",32.8318206,-117.1638997,(858) 278-0681
Food 4 Less,"12 Euclid Ave San Diego, CA 92114",32.704243,-117.085098,(619) 266-3161
Food 4 Less,"975 University Ave San Diego, CA 92115",32.7487934,-117.0791995,(619) 287-6501
Food 4 Less,"691 E 6th St Beaumont, CA 92223",33.929322934931626,-116.97415420205986,(951) 845-3323
Food 4 Less,"09 W Birch St Calexico, CA 92231",32.679168,-115.511714,(760) 768-9766
Food 4 Less,"4251 Date Palm Dr Cathedral City, CA 92234",33.7858429,-116.4580472,(760) 770-3034
Food 4 Less,"420 Cottonwood Dr El Centro, CA 92243",32.7714736,-115.5715909,(760) 482-0530
Food 4 Less,"7200 29 Palms Hwy Yucca Valley, CA 92284",34.1217484,-116.4197709,(760) 365-9429
Food 4 Less,"0801 Bear Valley Rd Apple Valley, CA 92308",34.471568,-117.1814819,(760) 247-4990
Food 4 Less,"80 E Virginia Way Barstow, CA 92311",34.8881513,-117.016388,(760) 255-2233
Food 4 Less,"150 N Pepper Ave Colton, CA 92324",34.06986985271638,-117.35289126880221,(909) 370-1761
Food 4 Less,"6991 Valley Blvd Fontana, CA 92335",34.0701527,-117.4975333,(909) 823-1286
Food 4 Less,"6529 Highland Ave Highland, CA 92346",34.135606571428575,-117.22352871428572,(909) 425-8040
Food 4 Less,"070 W Redlands Blvd Redlands, CA 92373",34.05739623371279,-117.18321546608937,(909) 793-0722
Food 4 Less,"410 W Foothill Blvd Rialto, CA 92376",34.106856661048596,-117.37729713952704,(909) 873-9377
Food 4 Less,"6266 Bear Valley Rd Victorville, CA 92395",34.4710863,-117.2632773,(760) 951-1140
Food 4 Less,"4738 La Paz Dr Victorville, CA 92395",34.7835346,-117.312823,(760) 951-5600
Food 4 Less,"55 A W 2nd St San Bernardino, CA 92401",34.1027167,-117.3106172,(909) 888-5654
Food 4 Less,"250 Van Buren Blvd Riverside, CA 92503",33.9145388,-117.4415868,(909) 352-8353
Food 4 Less,"900 Chicago Ave Riverside, CA 92507",33.9694758,-117.3485051,(951) 369-9434
Food 4 Less,"4440 Alessandro Blvd Moreno Valley, CA 92553",33.9171909,-117.2500518,(951) 243-7571
Food 4 Less,"2200 Perris Blvd Moreno Valley, CA 92557",33.9575194,-117.2265701,(951) 247-0787
Food 4 Less,"688 E North Perris Perris, CA 92571",33.7825194,-117.2286478,(951) 943-5655
Food 4 Less,"6419 Ynez Rd Temecula, CA 92591",33.5343339,-117.1629403,(951) 296-5534
Food 4 Less,"15 E 1st St Santa Ana, CA 92701",33.7455668,-117.863378,(714) 972-1997
Food 4 Less,"140 S Bristol St Santa Ana, CA 92704",33.7145457,-117.8853606,(714) 545-6401
Food 4 Less,"900 N Grand Ave Santa Ana, CA 92705",33.752849,-117.851956,(714) 542-2361
Food 4 Less,"21 N Beach Blvd Anaheim, CA 92801",33.8335194,-117.9935868,(714) 952-5044
Food 4 Less,"616 W Katella Ave Anaheim, CA 92802",33.80312955357143,-117.91686282142857,(714) 539-7497
Food 4 Less,"14 W Orangethorpe Ave Fullerton, CA 92832",33.8594307,-117.9299075,(714) 773-0238
Food 4 Less,"09 N Mckinley St Corona, CA 92879",33.8911489,-117.5216636,(951) 278-8020
Food 4 Less,"50 W Esplanade Dr Oxnard, CA 93036",34.2341707,-119.1791076,(805) 983-2910
Food 4 Less,"290 W Henderson Ave Porterville, CA 93257",36.080327994363,-119.02401538661394,(559) 788-6290
Food 4 Less,"025 N Dinuba Blvd Visalia, CA 93291",36.360769,-119.2969009,(559) 733-0690
Food 4 Less,"12 El Sereno Dr Bakersfield, CA 93304",35.343042,-119.017499,(661) 835-5696
Food 4 Less,"505 Haley St Bakersfield, CA 93305",35.3810121,-118.9796685,(661) 873-2052
Food 4 Less,"115 Union Ave Bakersfield, CA 93307",35.3520861,-119.0029353,(661) 631-8020
Food 4 Less,"400 Ming Ave Bakersfield, CA 93309",35.33953798989899,-119.00634865656565,(661) 835-5696
Food 4 Less,"985 S Higuera St San Luis Obispo, CA 93401",35.280909333333334,-120.66093133333332,(805) 546-8169
Food 4 Less,"360 El Camino Real Atascadero, CA 93422",35.521317,-120.703828,(805) 461-9699
Food 4 Less,"465 Creston Rd Paso Robles, CA 93446",35.62868112839398,-120.6793101656579,(805) 239-8173
Food 4 Less,"4455 Valley Central Way Lancaster, CA 93536",34.6929602,-118.1718757,(661) 940-6373
Food 4 Less,"341 E Avenue S Palmdale, CA 93550",34.5579986435315,-118.12562184536826,(661) 266-9091
Food 4 Less,"000 E Pacheco Blvd Los Banos, CA 93635",37.0563549,-120.8041395,(209) 829-1300
Food 4 Less,"360 W Cleveland Ave Madera, CA 93637",36.974403030578266,-120.07208589406947,(559) 661-6190
Food 4 Less,"819 Highland Ave Selma, CA 93662",36.575998,-119.6285797,(559) 891-2361
Food 4 Less,"921 N Chestnut Ave Fresno, CA 93720",36.8414153,-119.7388173,(559) 322-2280
Food 4 Less,"576 N Sanborn Rd Salinas, CA 93905",36.681803306688835,-121.6227528686589,(831) 753-6630
Food 4 Less,"184 Sonoma Blvd Vallejo, CA 94589",38.1467849,-122.2549064,(707) 552-0956
Food 4 Less,"78 N Wilson Way Stockton, CA 95205",37.956569208333335,-121.27165204166667,(209) 466-2751
Food 4 Less,"434 Manthey Rd Stockton, CA 95206",37.914637,-121.29086,(209) 983-9660
Food 4 Less,"55 E March Ln Stockton, CA 95207",37.996693725,-121.3051,(209) 957-4920
Food 4 Less,"89 W Hammer Ln Stockton, CA 95210",38.0211005,-121.3344858,(209) 235-1310
Food 4 Less,"014 Lower Sacramento Rd Stockton, CA 95210",38.049833,-121.315226,(209) 957-4917
Food 4 Less,"430 W Kettleman Ln Lodi, CA 95242",38.1154122,-121.3060244,(209) 366-1053
Food 4 Less,"840 Shaffer Rd Atwater, CA 95301",37.3613922,-120.5957853,(209) 357-5320
Food 4 Less,"561 Mitchell Rd Ceres, CA 95307",37.6104926,-120.9386793,(209) 537-0200
Food 4 Less,"31 Spreckels Ave Manteca, CA 95336",37.791582,-121.196711,(209) 823-0806
Food 4 Less,"115 W Olive Ave Merced, CA 95348",37.31866682124023,-120.4713133151355,(209) 725-2150
Food 4 Less,"44 Brighton Ave Modesto, CA 95355",37.657448,-120.9710681,(209) 537-0200
Food 4 Less,"225 N Tracy Blvd Tracy, CA 95376",37.7305741,-121.4346549,(209) 820-2200
Food 4 Less,"982 Sunrise Blvd Citrus Heights, CA 95610",38.6800329,-121.2716273,(916) 723-2446
Food 4 Less,"51 Pioneer Ave Woodland, CA 95776",38.68193353535354,-121.74671470707071,(530) 669-3244
Food 4 Less,"860 Florin Rd Sacramento, CA 95823",38.4959862,-121.467583,(916) 427-4240
Food 4 Less,"051 Dr Martin Luther King Junior Pkwy Chico, CA 95928",39.7218053,-121.8087973,(530) 894-1050
Food 4 Less,"330 Churn Creek Rd Redding, CA 96003",40.610866684328926,-122.34774714530063,(530) 222-6740
Food 4 Less,"4 Belle Mill Rd Red Bluff, CA 96080",40.18620804477612,-122.22140095522388,(530) 529-7666
Food Express,"71 Montgomery St Oroville, CA 95965",39.5159777,-121.5499215,(530) 534-8392
Food Giant,"065 Logan Ave San Diego, CA 92113",32.6971034,-117.1082152,(619) 262-5051
Foodmax,"950 Delta Fair Blvd Antioch, CA 94509",38.0025309,-121.8395636,(925) 778-2701
Foodsco,"850 W Lacey Blvd Hanford, CA 93230",36.327897322160226,-119.65671005472966,(559) 585-2080
Foodsco,"210 E Prosperity Ave Tulare, CA 93274",36.22559559219005,-119.34680535577581,(559) 685-9731
Foodsco,"637 S Mooney Blvd Visalia, CA 93277",36.3161608,-119.3138055,(559) 739-1193
Foodsco,"801 White Ln Bakersfield, CA 93304",35.31758798989899,-119.01096145454545,(661) 836-4360
Foodsco,"200 Rosedale Hwy Bakersfield, CA 93312",35.3833384,-119.0918515,(661) 587-6265
Foodsco,"01 W Central Ave Lompoc, CA 93436",34.661381,-120.510488,(805) 740-9490
Foodsco,"465 S Broadway Santa Maria, CA 93454",34.94929041836735,-120.4357424387755,(805) 922-9815
Foodsco,"838 E Kings Canyon Rd Fresno, CA 93727",36.7357926,-119.7195341,(559) 456-9050
Foodsco,"030 E Alisal St Salinas, CA 93905",36.67392826315789,-121.65351763157895,(831) 424-0455
Foodsco,"443 H Dela Rosa Sr St Soledad, CA 93960",36.4176278,-121.3206135,(831) 678-1937
Foodsco,"401 Broadway St Redwood City, CA 94063",37.4869681,-122.2186947,(650) 366-5546
Foodsco,"800 Folsom St San Francisco, CA 94103",37.781995,-122.401344,(415) 558-9137
Foodsco,"45 Williams Ave San Francisco, CA 94124",37.729424,-122.394344,(415) 330-1870
Foodsco,"250 Macdonald Ave Richmond, CA 94801",37.9357536,-122.3626747,(510) 412-4444
Foodsco,"330 Stockton Blvd Sacramento, CA 95820",38.5381077,-121.4489865,(916) 451-0806
Foodsco,"421 W Stockton Blvd Sacramento, CA 95823",38.455374,-121.41405,(916) 688-3343
Foodsco,"122 Gerber Rd Sacramento, CA 95828",38.4816273,-121.4086912,(916) 689-5959
Foodtown,"00 Eureka Sq Pacifica, CA 94044",37.63336545,-122.48854865967016,(650) 355-3711
Foodtown,"32 Montezuma Dr Pacifica, CA 94044",37.5908285,-122.4988975,(650) 355-3711
Foodtown,"049 Sacramento St Berkeley, CA 94702",37.8766337,-122.2825841,(510) 981-1255
Frank's Mkt.,"690 Workman St Los Angeles, CA 90031",34.0621125,-118.2140775,(323) 223-7700
Frank's Mkt.,"026 Maine Ave Baldwin Park, CA 91706",34.0966582,-117.9604995,(626) 960-0884
Frank's Mkt.,"049 E Main St Ventura, CA 93003",34.2644761,-119.2438099,(805) 643-4259
Freeland Foods,"245 Mora Dr Mountain View, CA 94040",37.4027975,-122.1014461,(619) 286-0207
Freeland Foods,"945 Mora Dr Mountain View, CA 94040",37.4027975,-122.1014461,(619) 286-0207
Freeland Foods,"235 Mora Dr Mountain View, CA 94040",37.4027975,-122.1014461,(650) 962-9299
Fresh and Easy Neighborhood,"700 Rosecrans Ave Manhattan Beach, CA 90266",33.901847,-118.407027,(913) 441-6751
Fresh and Easy Neighborhood,"33 E Foothill Blvd Arcadia, CA 91006",34.15106622222223,-118.03040733333333,(626) 256-8800
Fresh and Easy Neighborhood,"709 W Florida Ave Hemet, CA 92545",33.74743,-116.98016389897481,(951) 765-1284
Fresh and Easy Neighborhood,"5050 Alessandro Blvd Moreno Valley, CA 92553",33.9171909,-117.2500518,(877) 932-7948
Fresh and Easy Neighborhood,"6672 Beach Blvd Huntington Beach, CA 92647",33.7127805,-117.9889739,(714) 596-7605
Fresh and Easy Neighborhood,"49 Beck Ave Fairfield, CA 94533",38.2505529,-122.0662099,(707) 422-4870
G & G Supermarket,"01 Sonoma Mountain Pkwy Petaluma, CA 94954",38.2653024,-122.6343756,(707) 765-1198
G & G Supermarket,"211 W College Ave Santa Rosa, CA 95401",38.4458984295302,-122.73015857718121,(707) 546-6877
Gruma Mission Foods,"1359 Jersey Blvd Rancho Cucamonga, CA 91730",34.0946108,-117.5608327,(909) 483-7815
Gruma Mission Foods,"2316 World Trade Dr San Diego, CA 92128",32.983925,-117.073914,(858) 451-5647
Gruma Mission Foods,"7748 Caminito Balata San Diego, CA 92128",33.032818,-117.052238,(858) 451-5647
Harvest Foods,"040 Franklin Blvd Sacramento, CA 95820",38.5165644,-121.4693352,(916) 455-4448
Healthway Natural Foods,"35 E Bixby Rd Long Beach, CA 90807",33.8267216,-118.1859121,(562) 424-9760
Holiday Quality Foods,"6981 Placer Hills Rd Meadow Vista, CA 95722",38.9821684,-121.0268455,(530) 878-1225
Holiday Quality Foods,"017 Bridge St Colusa, CA 95932",39.210254,-122.00207,(530) 458-5191
Holiday Quality Foods,"4001 Lakeridge Cir Magalia, CA 95954",39.816484,-121.589997,(530) 873-4654
Holiday Quality Foods,"848 Skyway Paradise, CA 95969",39.744167,-121.65058,(530) 877-7621
Holiday Quality Foods,"536 Westside Rd Redding, CA 96001",40.5495906,-122.3875002,(530) 241-2054
Holiday Quality Foods,"315 Placer St Redding, CA 96001",40.5822217,-122.3906794,(530) 242-0477
Holiday Quality Foods,"455 Hartnell Ave Redding, CA 96002",40.56380817291062,-122.36575669424721,(530) 222-3335
Holiday Quality Foods,"71 Main Chester, CA 96020",33.648635169612554,-117.80444085142697,(530) 258-2122
Holiday Quality Foods,"68 Main Chester, CA 96020",33.648571419124416,-117.80420314398243,(530) 258-2123
Holiday Quality Foods,"0635 Gas Point Rd Cottonwood, CA 96022",40.3893325,-122.2856599,(530) 347-3014
Holiday Quality Foods,"0803 Front Cottonwood, CA 96022",40.3827065,-122.2823522,(530) 347-4621
Holiday Quality Foods,"350 Deschutes Rd Palo Cedro, CA 96073",40.5522851,-122.2383073,(530) 547-4483
Holiday Quality Foods,"16 Cedar St Red Bluff, CA 96080",40.177763,-122.241898,(530) 527-1300
Holland Market,"8563 Netherlands Rd Clarksburg, CA 95612",38.4162681,-121.5270081,(916) 744-1510
Holland Market,"2945 Netherlands Ave Clarksburg, CA 95612",38.4167051,-121.5275312,(916) 744-1510
Hometown Foods,"46 E St Chula Vista, CA 91910",32.64747774768055,-117.07122999438516,(619) 427-4844
Hometown Foods,"075 Federal Blvd San Diego, CA 92102",32.720525,-117.1024363,(619) 527-3385
Horizon Foods,"73 E San Carlos Ave San Carlos, CA 94070",37.5058435,-122.2621533,(650) 595-3798
Huy Fong Foods Inc.,"001 Earle Ave Rosemead, CA 91770",34.0607422,-118.0848333,(626) 286-8328
Huy Fong Foods Inc.,"35 El Monte St San Gabriel, CA 91776",34.0941713,-118.0951298,(626) 286-8256
Island Pacific Supermarket,"27 N Vermont Ave Los Angeles, CA 90004",34.0745218,-118.291681,(323) 671-1020
Island Pacific Supermarket,"1481 South St Cerritos, CA 90703",33.8586576,-118.0638354,(562) 809-8863
Island Pacific Supermarket,"340 Van Nuys Blvd Panorama City, CA 91402",34.2198503,-118.4488487,(818) 895-2423
Island Pacific Supermarket,"512 E Amar Rd West Covina, CA 91792",34.0267066,-117.9006716,(626) 964-4858
Island Pacific Supermarket,"122 Dyer St Union City, CA 94587",37.5897243,-122.0697886,(510) 489-8189
Island Pacific Supermarket,"110 Springs Rd Vallejo, CA 94591",38.10637557142857,-122.24626269387755,(707) 552-6730
Island Pacific Supermarket,"24 Springstowne Ctr Vallejo, CA 94591",38.105314449999995,-122.21630744119253,(707) 642-2048
Island Pacific Supermarket,"4 Springstowne Ctr Vallejo, CA 94591",38.105314449999995,-122.21630744119253,(707) 642-2048
Jalisco Market,"48 N Pacific Ave San Pedro, CA 90731",33.7538335,-118.2905839,(914) 472-7550
Jalisco Market,"01 S Sultana Ave Ontario, CA 91761",34.094178,-117.64629,(909) 988-4045
Jalisco Market,"619 International Blvd Oakland, CA 94601",37.7711162,-122.2120929,(510) 535-1399
Jensens Finest Foods,"8525 Highway 111 La Quinta, CA 92253",33.7074609,-116.2774465,(760) 777-8181
Jensens Finest Foods,"3601 Highway 111 Palm Desert, CA 92260",33.7257859,-116.4007646,(760) 346-9393
Joseph Webb Foods,"201 Park Center Dr Vista, CA 92081",33.1400209,-117.244643,(760) 599-6200
Joseph Webb Foods,"92 W Walnut Ave Fullerton, CA 92832",33.8679905,-117.9565625,(714) 441-2979
Joy Bargain,"914 Avalon Blvd Los Angeles, CA 90003",33.9659145,-118.2651454,(323) 758-1289
Joy Bargain,"364 S Vermont Ave Los Angeles, CA 90037",33.9977695,-118.2915385,(323) 233-0720
Joyti Supermarket,"7938 Baldwin St Hayward, CA 94544",37.6338581,-122.067967,(510) 786-3633
Joyti Supermarket,"150 W Winton Ave Hayward, CA 94545",37.66141412244898,-122.08887373469388,(510) 786-3633
King Food,"00 E Pico Blvd Los Angeles, CA 90015",34.0363027,-118.2603137,(540) 943-8573
King Ranch Market,"28 W Huntington Dr Monrovia, CA 91016",34.1403103,-118.0074037,(626) 359-3333
King Ranch Market,"75 E Orange Grove Blvd Pasadena, CA 91104",34.14489812244898,-118.16044512244898,(626) 204-1992
King Ranch Market,"50 W 9th St Azusa, CA 91702",34.1372586,-117.9153905,(626) 969-1838
King Ranch Market,"205 Baldwin Ave El Monte, CA 91731",34.0761188,-118.0536398,(626) 618-1060
King Ranch Market,"4827 7th St Victorville, CA 92395",34.4665231,-117.4508628,(760) 843-7730
Kings Super Market,"624 Fairgrounds Dr Ste A Vallejo, CA 94589",38.12918539727097,-122.22921540765996,(707) 554-8801
Kings Super Market,"00 El Camino Ave Sacramento, CA 95815",38.611173,-121.428115,(916) 922-5866
Kings Super Market,"0153 Live Oak Blvd Live Oak, CA 95953",39.2726064,-121.660441,(530) 695-2197
Kroger,"118 E Clinton Way Fresno, CA 93727",36.7721559,-119.725876,(559) 252-7395
Leprino Foods,"90 F St Lemoore, CA 93245",36.30451537535516,-119.78110512227708,(559) 924-7723
Leprino Foods,"10 Quandt Pl Lemoore, CA 93245",36.318136,-119.779131,(559) 924-7939
Leprino Foods,"51 Belle Haven Dr Lemoore, CA 93245",36.291403,-119.809372,(559) 924-7939
Leprino Foods,"401 N Macarthur Dr Tracy, CA 95376",37.754002,-121.414536,(209) 835-8340
Leprino Foods,"521 Lincoln Blvd Tracy, CA 95376",37.7473649,-121.4434186,(209) 839-8166
Market Basket,"845 Marysville Blvd Sacramento, CA 95838",38.6339722,-121.4304097,(916) 920-0705
Metal Supermarkets,"an Francisco, CA 94101",37.7851249,-122.4290715,(866) 700-2839
Michoacam Supermarket,"300 Middlefield Rd Menlo Park, CA 94025",37.456378,-122.167456,(650) 368-9226
Michoacam Supermarket,"380 Middlefield Rd Menlo Park, CA 94025",37.457276486297545,-122.16921614798126,(650) 368-9226
Mission Foods,"505 E Olympic Blvd Los Angeles, CA 90022",34.0189203,-118.1714645,(323) 803-1400
Mission Foods,"418 Carnelian St Rancho Cucamonga, CA 91730",34.131842,-117.616207,(909) 476-2668
Mission Foods,"1559 Jersey Blvd Rancho Cucamonga, CA 91730",34.0946108,-117.5608327,(909) 980-3566
Mission Foods,"142 Triumph Ln Ontario, CA 91764",34.071349,-117.5825682,(909) 484-7969
Mission Foods,"00 N Lemon St Anaheim, CA 92805",33.8403324,-117.9175877,(714) 535-3178
Mission Foods,"210 Wankel Way Oxnard, CA 93030",34.2167432,-119.149318,(805) 278-2141
Mission Foods,"351 Latigo Ave Oxnard, CA 93030",34.210969,-119.146473,(805) 278-2141
Mission Foods,"940 W Doe Ave Visalia, CA 93291",36.3460072,-119.372807,(559) 651-8230
Mission Foods,"149 Madison Ln Salinas, CA 93907",36.6939949,-121.6764483,(831) 757-7627
Mission Foods,"3415 Cabot Blvd Hayward, CA 94545",37.6394807,-122.1337446,(510) 785-8740
Mission Foods,"295 Ringwood Ave San Jose, CA 95131",37.3867809,-121.8921002,(408) 526-1427
Mission Foods,"10 E Trimble Rd San Jose, CA 95131",37.38596518918919,-121.9275894864865,(408) 526-1427
Mission Foods,"878 Industrial Dr Stockton, CA 95206",37.9092938250394,-121.26463680768325,(209) 983-8222
Mission Foods,"000 Commerce Way Turlock, CA 95380",37.48637,-120.8836123,(209) 216-5975
Mission Foods,"100 Commerce Way Turlock, CA 95380",37.48637,-120.8836123,(209) 216-5975
Mojave Foods,"200 E Slauson Ave Los Angeles, CA 90040",33.9864833,-118.1682085,(323) 890-8900
Nijiya Market,"130 Sawtelle Blvd Los Angeles, CA 90025",34.0453481,-118.4474519,(914) 666-7990
Nijiya Market,"121 W 182nd St Torrance, CA 90504",33.8655814,-118.3340218,(208) 466-2643
Nijiya Market,"180 W 190th St Torrance, CA 90504",33.8583151,-118.3368691,(918) 274-3970
Nijiya Market,"7869 Colima Rd Rowland Heights, CA 91748",33.9874586,-117.8886706,(626) 913-9991
Nob Hill Foods,"15 Aztec Cir Salinas, CA 93906",36.701675,-121.664717,(831) 443-1372
Nob Hill Foods,"52 Green Valley Rd Freedom, CA 95019",36.93442233467276,-121.77410137378017,(831) 728-9555
North Bay Foods,"et N Rohnert Park, CA 94926",38.3396367,-122.7010984,(707) 794-7354
North Bay Foods,"et N Petaluma, CA 94975",38.349545,-122.5212923,(707) 782-0954
Northgate Markets,"930 W Rosecrans Ave Hawthorne, CA 90250",33.9019118,-118.339626,(919) 828-9216
Northgate Markets,"1660 Firestone Blvd Norwalk, CA 90650",33.9093366,-118.0756393,(562) 863-8203
Northgate Markets,"101 Telegraph Rd Pico Rivera, CA 90660",33.9572758,-118.104622,(562) 948-4626
Northgate Markets,"120 Pacific Ave Long Beach, CA 90806",33.7923587,-118.1936731,(562) 599-5075
Northgate Markets,"828 Peck Rd El Monte, CA 91732",34.0794823,-118.0201668,(626) 442-8200
Northgate Markets,"346 S Mission Rd Fallbrook, CA 92028",33.37982546980921,-117.25350693374831,(760) 723-4512
Northgate Markets,"410 S 43rd St San Diego, CA 92113",32.70985224182189,-117.10235333688853,(619) 266-6080
Northgate Markets,"909 Coronado Ave San Diego, CA 92154",32.5764546,-117.0814758,(619) 429-8212
Northgate Markets,"09 E 4th St Santa Ana, CA 92701",33.7480366,-117.8591063,(714) 647-9310
Northgate Markets,"400 S Allec St Anaheim, CA 92805",33.8147592,-117.9000816,(714) 563-0638
Nutricion Fundamental,"930 Santa Monica Blvd Los Angeles, CA 90038",34.0907415,-118.3261708,(323) 460-4899
Nutricion Fundamental,"0633 Valley Blvd El Monte, CA 91731",34.0751552,-118.0354684,(626) 442-1125
Nutricion Fundamental,"6032 Amar Rd La Puente, CA 91744",34.0399005,-117.955658,(626) 333-6855
Nutricion Fundamental,"3720 Amar Rd La Puente, CA 91746",34.0482139,-117.9671263,(626) 917-0201
One Stop Market,"488 Madison St Riverside, CA 92504",33.934616,-117.403858,(951) 687-7220
One Stop Market,"4062 Springdale St Westminster, CA 92683",33.7595532,-118.0245806,(714) 897-8146
P W Supermarkets,"76 Pollard Rd Los Gatos, CA 95032",37.2624358,-121.9705168,(408) 255-0045
P W Supermarkets,"141 Montague Expy Milpitas, CA 95035",37.4094743,-121.8950474,(408) 456-5034
P W Supermarkets,"277 Alum Rock Ave San Jose, CA 95116",37.3553664,-121.8499833,(408) 258-4977
P W Supermarkets,"421 Foxworthy Ave San Jose, CA 95118",37.2778463,-121.8807124,(408) 269-1201
P W Supermarkets,"938 Almaden Expy San Jose, CA 95120",37.2041205,-121.8396927,(408) 997-2202
P W Supermarkets,"205 Prospect Rd San Jose, CA 95129",37.292593,-121.9985072,(408) 255-0045
P W Supermarkets,"710 Oakland Rd San Jose, CA 95131",37.3806697,-121.8952847,(408) 573-7544
Pacific Supermarket,"420 Southgate Ave Daly City, CA 94015",37.697416387083955,-122.48813067352195,(650) 994-1688
Pacific Supermarket,"015 El Camino Real South San Francisco, CA 94080",37.6556049,-122.4351489,(650) 588-2691
Pacific Supermarket,"573 Callan Blvd South San Francisco, CA 94080",37.6426578,-122.4620929,(650) 827-1818
Pacific Supermarket,"900 Alemany Blvd San Francisco, CA 94112",37.7125598,-122.4512657,(415) 337-1628
Pak'n Save,"255 Gellert Blvd South San Francisco, CA 94080",37.6456151,-122.4535703,(650) 588-9007
Pak'n Save,"55 Floresta Blvd San Leandro, CA 94578",37.7008333,-122.1446244,(510) 483-2681
Pak'n Save,"10 Hegenberger Rd Oakland, CA 94621",37.7368969,-122.1969378,(510) 636-7970
Pak'n Save,"187 S Main St Manteca, CA 95337",37.79588117647059,-121.21645347058823,(209) 824-1144
Pak'n Save,"291 Sanguinetti Rd Sonora, CA 95370",37.974075,-120.364652,(209) 533-7816
Paradise Foods,"627 Paradise Dr Corte Madera, CA 94925",37.9205009,-122.5099192,(415) 945-8855
Paradise Foods,"050 W Lincoln St Oroville, CA 95966",39.507528,-121.555467,(530) 533-0941
Patel Brothers,"039 El Camino Real Santa Clara, CA 95050",37.3531281,-121.9387477,(408) 261-3555
Pavilions,"467 W Olympic Blvd Beverly Hills, CA 90212",34.0593858,-118.393953,(914) 472-7550
Pavilions,"949 E Spring St Long Beach, CA 90808",33.8106043,-118.1159062,(562) 496-2151
Pavilions,"30 W Foothill Blvd Monrovia, CA 91016",34.150855666666665,-118.03331983333334,(626) 358-7542
Pavilions,"6101 Bob Hope Dr Rancho Mirage, CA 92270",33.7650405,-116.4080797,(760) 324-4667
Pavilions,"6022 Marguerite Pkwy Mission Viejo, CA 92692",33.6259724,-117.6516541,(949) 582-0672
Price Less Foods,"15 S Main St Yreka, CA 96097",41.716055,-122.640215,(530) 842-7314
Pw Supermarkets,"600 N Vasco Rd Livermore, CA 94551",37.7259555,-121.7242604,(925) 243-0357
Pw Supermarkets,"015 E Castro Valley Blvd Castro Valley, CA 94552",37.6942053,-122.0598123,(510) 889-7575
Pw Supermarkets,"0620 Homestead Rd Cupertino, CA 95014",37.3377358,-122.0091564,(408) 255-2100
Pw Supermarkets,"665 Foxworthy Ave San Jose, CA 95124",37.2676988,-121.917642,(408) 266-0233
Raley's Supermarkets & Drug Centers,"90 Southampton Rd Benicia, CA 94510",38.0653129,-122.1643997,(707) 746-5565
Raley's Supermarkets & Drug Centers,"400 Sand Creek Rd Brentwood, CA 94513",37.94624,-121.702842,(925) 513-6699
Raley's Supermarkets & Drug Centers,"001 Travis Blvd Fairfield, CA 94534",38.2582282,-122.0460951,(707) 429-8410
Raley's Supermarkets & Drug Centers,"9200 Paseo Padre Pkwy Fremont, CA 94538",37.5449088,-121.9649744,(510) 791-0344
Raley's Supermarkets & Drug Centers,"397 Jarvis Ave Newark, CA 94560",37.5535864,-122.0467969,(510) 797-1227
Raley's Supermarkets & Drug Centers,"077 Main St Oakley, CA 94561",37.9962183,-121.7082248,(508) 588-3393
Raley's Supermarkets & Drug Centers,"375 Buchanan Rd Pittsburg, CA 94565",37.998161256410256,-121.89233641025642,(925) 432-1656
Raley's Supermarkets & Drug Centers,"369 Buchanan Rd Pittsburg, CA 94565",37.998161641025646,-121.89235502564102,(925) 432-1900
Raley's Supermarkets & Drug Centers,"420 Sunol Blvd Pleasanton, CA 94566",37.6419251,-121.8818524,(925) 846-7944
Raley's Supermarkets & Drug Centers,"70 Sunset Ave Suisun City, CA 94585",38.2493438,-122.020542,(707) 426-1023
Raley's Supermarkets & Drug Centers,"360 San Pablo Dam Rd El Sobrante, CA 94803",37.9561614,-122.2776657,(510) 222-5935
Raley's Supermarkets & Drug Centers,"323 W Hammer Ln Stockton, CA 95209",38.0213591,-121.3466832,(209) 955-1480
Raley's Supermarkets & Drug Centers,"611 E Hatch Rd Modesto, CA 95351",37.6093168125,-120.9859891875,(209) 537-1770
Raley's Supermarkets & Drug Centers,"401 E Orangeburg Ave Modesto, CA 95355",37.663702,-120.988042,(209) 577-5656
Raley's Supermarkets & Drug Centers,"900 Geer Rd Turlock, CA 95382",37.502318,-120.848752,(209) 667-5253
Raley's Supermarkets & Drug Centers,"407 Fulton Rd Santa Rosa, CA 95403",38.42932268686869,-122.7695063939394,(707) 546-3435
Raley's Supermarkets & Drug Centers,"315 N State St Ukiah, CA 95482",39.15140268882417,-123.20814982316563,(707) 468-5178
Raley's Supermarkets & Drug Centers,"0603 Old Redwood Hwy Windsor, CA 95492",38.52778748180415,-122.78216907532153,(707) 838-6604
Raley's Supermarkets & Drug Centers,"159 Fair Oaks Blvd Carmichael, CA 95608",38.628759,-121.328263,(916) 483-0419
Raley's Supermarkets & Drug Centers,"870 Madison Ave Fair Oaks, CA 95628",38.663896,-121.2572873,(916) 966-2201
Raley's Supermarkets & Drug Centers,"915 Douglas Blvd Roseville, CA 95661",38.74400993398725,-121.28036585708789,(916) 781-7845
Raley's Supermarkets & Drug Centers,"66 Placerville Dr Placerville, CA 95667",38.72429523645316,-120.83452603765984,(530) 622-6800
Raley's Supermarkets & Drug Centers,"063 Alamo Dr Vacaville, CA 95687",38.357761737373735,-122.01088845454545,(707) 446-8707
Raley's Supermarkets & Drug Centers,"845 Douglas Blvd Granite Bay, CA 95746",38.7440693,-121.1878796,(916) 791-8000
Raley's Supermarkets & Drug Centers,"051 Woodcreek Oaks Blvd Roseville, CA 95747",38.762948,-121.3310971,(916) 771-0880
Raley's Supermarkets & Drug Centers,"850 Freeport Blvd Sacramento, CA 95822",38.5045617,-121.5052469,(916) 452-3811
Raley's Supermarkets & Drug Centers,"00 W Onstott Rd Yuba City, CA 95991",39.161434,-121.6356829,(530) 673-8880
Raley's Supermarkets & Drug Centers,"25 S Main St Red Bluff, CA 96080",40.17165846938776,-122.23002173469388,(530) 527-6902
Ralphs Grocery Co.,"233 N La Brea Ave Los Angeles, CA 90038",34.086572,-118.3440586,(323) 876-8790
Ralphs Grocery Co.,"644 Cloverfield Blvd Santa Monica, CA 90404",34.03076701337638,-118.47663588451584,(914) 937-0996
Ralphs Grocery Co.,"909 Rolling Hills Rd Torrance, CA 90505",33.7947054,-118.3490007,(910) 458-5410
Ralphs Grocery Co.,"200 N Central Ave Glendale, CA 91202",34.1592801,-118.257841,(818) 246-1752
Ralphs Grocery Co.,"4049 Ventura Blvd Sherman Oaks, CA 91423",34.1484473,-118.4337716,(818) 784-3005
Ralphs Grocery Co.,"100 N San Fernando Blvd Burbank, CA 91504",34.1916549,-118.3255719,(818) 842-0326
Ralphs Grocery Co.,"55 S Grand Ave Glendora, CA 91740",34.1242224,-117.872736,(626) 857-9439
Ralphs Grocery Co.,"230 S Atlantic Blvd Monterey Park, CA 91754",34.06045237877665,-118.1335178833246,(323) 721-3367
Ralphs Grocery Co.,"440 Mira Mesa Blvd San Diego, CA 92126",32.9103154,-117.156293,(858) 536-9745
Ralphs Grocery Co.,"331 University Dr Irvine, CA 92612",33.6581918,-117.8183241,(949) 786-0770
Ralphs Grocery Co.,"3321 Jamboree Rd Tustin, CA 92782",33.7206753,-117.7939127,(714) 544-0491
Ralphs Grocery Co.,"776 S Victoria Ave Ventura, CA 93003",34.2405918,-119.2163791,(805) 650-0466
Ralphs Grocery Co.,"500 Post St El Dorado Hills, CA 95762",38.6493083,-121.0671844,(916) 934-0181
Rosco Supermarket,"259 Sepulveda Pl Panorama City, CA 91402",34.219676,-118.4662197,(818) 893-5700
Safeway,"321 E Madison Ave Fresno, CA 93702",36.7495396,-119.7454319,(559) 268-1652
Safeway,"516 Constitution Blvd Salinas, CA 93905",36.6996651,-121.6178195,(831) 444-3625
Safeway,"7539 Vierra Canyon Rd Salinas, CA 93907",36.802919,-121.624183,(831) 663-6704
Safeway," Carmel Center Pl Carmel, CA 93923",36.5381517,-121.9078349,(831) 625-8820
Safeway,"15 Canyon Del Rey Blvd Monterey, CA 93940",36.607906,-121.856041,(831) 393-2090
Safeway,"100 Ralston Ave Belmont, CA 94002",37.5137377,-122.2887036,(650) 591-6918
Safeway,"100 El Camino Real Belmont, CA 94002",37.529066,-122.2873768,(650) 596-1730
Safeway,"450 Howard Ave Burlingame, CA 94010",37.58332639861899,-122.33712364648963,(650) 344-3092
Safeway,"60 1st St Los Altos, CA 94022",37.38063333779206,-122.1200436529955,(650) 941-1208
Safeway,"25 El Camino Real Menlo Park, CA 94025",37.4537421,-122.1834328,(650) 847-2905
Safeway,"25 Sharon Park Dr Menlo Park, CA 94025",37.4242172,-122.1983588,(650) 854-3056
Safeway,"85 W El Camino Real Mountain View, CA 94040",37.3880577,-122.0887579,(408) 481-3302
Safeway,"750 Miramonte Ave Mountain View, CA 94040",37.387475,-122.0882471,(650) 903-5850
Safeway,"580 California St Mountain View, CA 94040",37.3989267,-122.0998223,(650) 949-3324
Safeway,"70 N Shoreline Blvd Mountain View, CA 94043",37.4030088,-122.0781671,(650) 961-4851
Safeway,"50 Woodside Rd Redwood City, CA 94061",37.4761404,-122.2217688,(650) 365-2522
Safeway,"70 El Camino Real South San Francisco, CA 94080",37.6556049,-122.4351489,(650) 589-4579
Safeway,"0 Chestnut Ave South San Francisco, CA 94080",37.6612186,-122.4295502,(650) 952-8867
Safeway,"33 S Wolfe Rd Sunnyvale, CA 94086",37.3701136,-122.013838,(408) 739-8131
Safeway,"85 E El Camino Real Sunnyvale, CA 94087",37.3673202,-122.0315503,(408) 481-3300
Safeway,"62 Sunnyvale Saratoga Rd Sunnyvale, CA 94087",37.3643104,-122.0328755,(408) 720-0244
Safeway,"39 S Bernardo Ave Sunnyvale, CA 94087",37.359413,-122.0595753,(408) 732-5900
Safeway,"601 Hollenbeck Ave Sunnyvale, CA 94087",37.369914,-122.041072,(408) 733-8251
Safeway,"300 16th St San Francisco, CA 94103",37.7646255,-122.4287107,(415) 575-1130
Safeway,"98 King St San Francisco, CA 94107",37.77892581318682,-122.39040922527472,(415) 633-1001
Safeway,"020 Market St San Francisco, CA 94114",37.7617587,-122.4382956,(415) 861-7660
Safeway,"30 Taraval St San Francisco, CA 94116",37.74376529411765,-122.4644622352941,(415) 665-4136
Safeway,"2 Plaza St San Francisco, CA 94116",37.74900185,-122.45998954574185,(650) 359-2751
Safeway,"50 La Playa St San Francisco, CA 94121",37.7621528,-122.5092904,(415) 387-4664
Safeway,"350 Noriega St San Francisco, CA 94122",37.7542426,-122.476506,(415) 665-4565
Safeway,"5 Marina Blvd San Francisco, CA 94123",37.80509873469388,-122.43229102040816,(415) 563-8681
Safeway,"25 Monterey Blvd San Francisco, CA 94127",37.73145149546523,-122.4369558703395,(415) 586-2421
Safeway,"290 Diamond Heights Blvd San Francisco, CA 94131",37.7465895,-122.443522,(415) 824-7744
Safeway,"50 Bay St San Francisco, CA 94133",37.80655525,-122.4067415,(415) 781-4374
Safeway,"811 Middlefield Rd Palo Alto, CA 94306",37.4242693,-122.1148654,(650) 321-9731
Safeway,"655 S El Camino Real San Mateo, CA 94402",37.5562563,-122.3184323,(650) 341-0374
Safeway,"00 De Anza Blvd San Mateo, CA 94402",37.522646,-122.3332183,(650) 341-4039
Safeway,"227 S Shore Ctr Alameda, CA 94501",37.7596511,-122.257747,(510) 863-9000
Safeway,"03 W American Canyon Rd American Canyon, CA 94503",38.16656534053725,-122.26662207158955,(707) 649-5150
Safeway,"496 Camino Tassajara Danville, CA 94506",37.8096716,-121.9532499,(925) 736-0298
Safeway,"00 Alamo Plz Alamo, CA 94507",37.85114055,-122.03480214232104,(925) 820-8022
Safeway,"110 Balfour Rd Brentwood, CA 94513",37.9254653,-121.7103304,(925) 626-6020
Safeway,"125 2nd St Brentwood, CA 94513",37.9336898,-121.6941987,(925) 634-6780
Safeway,"431 Clayton Rd Clayton, CA 94517",37.9360099,-121.9242665,(925) 672-2107
Safeway,"309 Clayton Rd Concord, CA 94521",37.9628156,-121.9873509,(925) 356-2710
Safeway,"978 Contra Costa Blvd Pleasant Hill, CA 94523",37.9433211,-122.0603545,(925) 688-0680
Safeway,"00 Patterson Blvd Pleasant Hill, CA 94523",37.9384239,-122.0702339,(925) 933-8243
Safeway,"0636 San Pablo Ave El Cerrito, CA 94530",37.9126648,-122.3096153,(510) 525-9055
Safeway,"365 Deer Valley Rd Antioch, CA 94531",37.9848444,-121.7853664,(925) 706-4150
Safeway,"401 Waterman Blvd Fairfield, CA 94534",38.273395,-122.0521972,(707) 427-5640
Safeway,"9100 Argonaut Way Fremont, CA 94538",37.5428758,-121.9858897,(510) 794-1666
Safeway,"6848 Mission Blvd Fremont, CA 94539",37.4958626,-121.9228518,(510) 497-1003
Safeway,"2280 Foothill Blvd Hayward, CA 94541",37.6819806,-122.0877659,(510) 582-0700
Safeway,"31 W Jackson St Hayward, CA 94544",37.65534797959184,-122.08839104081632,(510) 783-8611
Safeway,"0629 Redwood Rd Castro Valley, CA 94546",37.7059976,-122.0740309,(510) 538-0268
Safeway,"540 Mt Diablo Blvd Lafayette, CA 94549",37.8915546,-122.1227599,(925) 284-1550
Safeway,"495 1st St Livermore, CA 94551",37.6773082,-121.7955365,(925) 455-2522
Safeway,"334 Alhambra Ave Martinez, CA 94553",37.9833603,-122.118692,(925) 229-0212
Safeway,"688 Alhambra Ave Martinez, CA 94553",38.016478405678285,-122.13836739566662,(925) 933-0540
Safeway,"355 Moraga Way Moraga, CA 94556",37.8340212,-122.1275199,(925) 376-9491
Safeway,"375 Jefferson St Napa, CA 94558",38.290898530829246,-122.294379641786,(707) 225-3040
Safeway,"620 Clay St Napa, CA 94559",38.3035138,-122.2783458,(707) 252-0170
Safeway," Camino Sobrante Orinda, CA 94563",37.8835728,-122.1920916,(925) 254-8792
Safeway,"421 Tara Hills Dr Pinole, CA 94564",37.9953683,-122.3023851,(510) 724-1525
Safeway,"60 Bailey Rd Pittsburg, CA 94565",38.016585,-121.9420156,(925) 458-0181
Safeway,"440 Tassajara Rd Dublin, CA 94568",37.7042248,-121.8719496,(925) 551-4710
Safeway,"05 Parker Ave Rodeo, CA 94572",38.0275505,-122.2657261,(510) 799-6200
Safeway,"55 Bancroft Ave San Leandro, CA 94577",37.7216121,-122.1454575,(510) 632-2949
Safeway,"99 Lewelling Blvd San Leandro, CA 94579",37.6866969,-122.136432,(510) 483-2225
Safeway,"1060 Bollinger Canyon Rd San Ramon, CA 94582",37.7665425,-121.9050761,(925) 359-2001
Safeway,"505 San Ramon Valley Blvd San Ramon, CA 94583",37.7583721,-121.9675018,(925) 831-9515
Safeway,"790 Decoto Rd Union City, CA 94587",37.59655267609063,-122.01808813808704,(510) 429-9090
Safeway,"918 Stoneridge Mall Rd Pleasanton, CA 94588",37.6929891,-121.9238264,(925) 467-3000
Safeway,"09 Lincoln Rd W Vallejo, CA 94590",38.07798111681087,-122.23329072946125,(707) 643-2172
Safeway,"01 Iris Ct Vallejo, CA 94591",38.089708,-122.201769,(707) 554-3409
Safeway,"22 Robles Way Vallejo, CA 94591",38.0834602,-122.2101333,(707) 554-4467
Safeway,"74 Admiral Callaghan Ln Vallejo, CA 94591",38.11142824984104,-122.22883097515819,(707) 554-8035
Safeway,"00 S Broadway Walnut Creek, CA 94596",37.8964009,-122.0567012,(925) 935-9205
Safeway,"800 Ygnacio Valley Rd Walnut Creek, CA 94598",37.9341366,-122.0015338,(925) 944-4000
Safeway,"550 Fruitvale Ave Oakland, CA 94602",37.771048426338645,-122.22870837628648,(510) 530-7067
Safeway,"747 Grand Ave Oakland, CA 94610",37.80996494553595,-122.24919748544148,(510) 465-4187
Safeway,"096 Mountain Blvd Oakland, CA 94611",37.831384,-122.2131226,(510) 482-2266
Safeway,"130 Broadway Oakland, CA 94611",37.8365848,-122.251118,(510) 658-5693
Safeway,"310 College Ave Oakland, CA 94618",37.8445516,-122.2517959,(510) 654-6992
Safeway,"100 Redwood Rd Oakland, CA 94619",37.7989115,-122.1708406,(510) 531-0565
Safeway,"444 Shattuck Ave Berkeley, CA 94709",37.8765138,-122.2688365,(510) 526-3086
Safeway,"925 Macdonald Ave Richmond, CA 94805",37.9323069,-122.3234857,(510) 237-2719
Safeway,"00 B St San Rafael, CA 94901",37.974684,-122.5292723,(415) 456-1453
Safeway,"00 Las Gallinas Ave San Rafael, CA 94903",38.0063203,-122.5444299,(415) 479-6111
Safeway,"37 Corte Madera Town Ctr Corte Madera, CA 94925",37.9257907,-122.5175625,(415) 927-1960
Safeway,"340 Commerce Blvd Rohnert Park, CA 94928",38.3485318,-122.7096034,(707) 584-8942
Safeway," Camino Alto Mill Valley, CA 94941",37.8981281,-122.5298111,(415) 388-2701
Safeway,"00 Diablo Ave Novato, CA 94947",38.1033062,-122.5730297,(415) 898-1503
Safeway,"70 Ignacio Blvd Novato, CA 94949",38.0663754,-122.5427388,(415) 883-5665
Safeway,"73 S Mcdowell Blvd Petaluma, CA 94954",38.236897,-122.6039222,(707) 762-1479
Safeway,"38 Sir Francis Drake Blvd San Anselmo, CA 94960",37.9770794,-122.5624354,(415) 456-9157
Safeway,"010 Freedom Blvd Freedom, CA 95019",36.9368018,-121.7755241,(831) 728-2640
Safeway,"05 1st St Gilroy, CA 95020",37.0134154,-121.5989581,(408) 842-6446
Safeway,"91 Tres Pinos Rd Hollister, CA 95023",36.8394071,-121.3946837,(831) 638-3247
Safeway,"70 N Santa Cruz Ave Los Gatos, CA 95030",37.22413941666667,-121.98302100000001,(408) 395-1708
Safeway,"500 Pollard Rd Los Gatos, CA 95032",37.2624358,-121.9705168,(408) 374-2050
Safeway,"5549 Union Ave Los Gatos, CA 95032",37.2402348,-121.9311883,(408) 559-5750
Safeway,"51 E Calaveras Blvd Milpitas, CA 95035",37.43130872368421,-121.90098619736843,(408) 262-9850
Safeway,"605 The Alameda Santa Clara, CA 95050",37.3469446,-121.9379106,(408) 244-6873
Safeway,"760 Homestead Rd Santa Clara, CA 95051",37.3378528,-121.9860538,(408) 248-0563
Safeway,"970 Rivermark Plz Santa Clara, CA 95054",37.394265,-121.9456776,(408) 855-0980
Safeway,"111 Mission St Santa Cruz, CA 95060",36.97664705,-122.02821961262634,(831) 429-6078
Safeway,"24 Encinal St Santa Cruz, CA 95060",36.9867427,-122.0334138,(831) 477-7212
Safeway,"17 Morrissey Blvd Santa Cruz, CA 95062",36.9814068,-122.0069576,(831) 426-7489
Safeway,"2876 Saratoga Sunnyvale Rd Saratoga, CA 95070",37.2809556,-122.0324474,(408) 867-0180
Safeway,"720 41st Ave Soquel, CA 95073",36.9865671,-121.9648895,(831) 477-7212
Safeway,"050 Almaden Expy San Jose, CA 95118",37.2569587,-121.8761216,(408) 267-1200
Safeway,"950 Almaden Expy San Jose, CA 95118",37.2569587,-121.8761216,(408) 267-1200
Safeway,"477 Almaden Expy San Jose, CA 95120",37.2041205,-121.8396927,(408) 268-3511
Safeway,"771 E Capitol Expy San Jose, CA 95121",37.3118585,-121.8081199,(408) 238-9800
Safeway,"530 Hamilton Ave San Jose, CA 95125",37.2936694,-121.9084407,(408) 264-1523
Safeway,"306 Almaden Rd San Jose, CA 95125",37.2952995,-121.8807034,(408) 266-6308
Safeway,"305 S Winchester Blvd San Jose, CA 95128",37.32297676923077,-121.95022284615384,(408) 374-2954
Safeway,"395 S Winchester Blvd San Jose, CA 95128",37.32121315270372,-121.950264,(408) 374-2954
Safeway,"150 Bollinger Rd San Jose, CA 95129",37.3096175,-121.9965849,(408) 257-3070
Safeway,"146 Stevens Creek Blvd San Jose, CA 95129",37.323118,-121.9412015,(408) 556-0614
Safeway,"600 Saratoga Ave San Jose, CA 95129",37.301063,-121.9816092,(408) 865-0345
Safeway,"558 Berryessa Rd San Jose, CA 95132",37.3923344,-121.8507198,(408) 272-2287
Safeway,"79 Branham Ln San Jose, CA 95136",37.2654979,-121.866697,(408) 227-4961
Safeway,"808 Country Club Blvd Stockton, CA 95204",37.9698468,-121.3135682,(209) 461-5560
Safeway,"445 Pacific Ave Stockton, CA 95207",38.0000922,-121.3162746,(209) 472-8600
Safeway,"449 W Kettleman Ln Lodi, CA 95242",38.1154122,-121.3060244,(209) 367-7875
Safeway,"001 Mchenry Ave Modesto, CA 95350",37.670401,-120.994009,(209) 571-6280
Safeway,"801 W 11th St Tracy, CA 95376",37.73979249498328,-121.4395455284281,(209) 830-2950
Safeway,"6900 W Schulte Rd Tracy, CA 95377",37.721811,-121.513098,(800) 388-2125
Safeway,"051 Countryside Dr Turlock, CA 95380",37.5152891,-120.8780053,(209) 669-2780
Safeway,"799 Marlow Rd Santa Rosa, CA 95401",38.4541241,-122.7512846,(707) 528-3062
Safeway,"300 Mendocino Ave Santa Rosa, CA 95403",38.440605,-122.713988,(707) 569-3100
Safeway,"785 Yulupa Ave Santa Rosa, CA 95405",38.446768216096146,-122.67727568154908,(707) 524-4646
Safeway,"00 Calistoga Rd Santa Rosa, CA 95409",38.5148213,-122.6549988,(707) 539-2129
Safeway,"60 S Main St Fort Bragg, CA 95437",39.4337936,-123.8061569,(707) 964-4058
Safeway,"6405 River Rd Guerneville, CA 95446",38.5019903,-122.9996824,(707) 869-0613
Safeway,"115 Vine St Healdsburg, CA 95448",38.6084322,-122.8703206,(707) 431-7102
Safeway,"06 N Main St Sebastopol, CA 95472",38.4068638,-122.827198,(707) 823-1037
Safeway,"77 W Napa St Sonoma, CA 95476",38.29189613223423,-122.45820696482318,(707) 996-0633
Safeway,"53 S State St Ukiah, CA 95482",39.1073185,-123.1955657,(707) 467-2700
Safeway,"45 S Main St Willits, CA 95490",39.4012402,-123.3497298,(707) 456-1790
Safeway,"080 Brooks Rd S Windsor, CA 95492",38.5486384,-122.8071544,(707) 837-2002
Safeway,"30 W Harris St Eureka, CA 95503",40.780383,-124.17074252040817,(707) 442-7597
Safeway,"520 Harris St Eureka, CA 95503",40.78031706122449,-124.16273522448981,(707) 443-8650
Safeway,"503 City Center Rd Mckinleyville, CA 95519",40.9431194,-124.1027215,(707) 840-9770
Safeway,"00 F St Arcata, CA 95521",40.8733437,-124.0829615,(707) 822-5217
Safeway,"75 M St Crescent City, CA 95531",41.7552541,-124.1940274,(707) 465-3353
Safeway,"01 S Fortuna Blvd Fortuna, CA 95540",40.5846346,-124.1468786,(707) 725-5104
Safeway,"431 W Covell Blvd Davis, CA 95616",38.56070533293267,-121.75288155888806,(530) 757-4540
Safeway,"121 Cowell Blvd Davis, CA 95618",38.5474079,-121.7055836,(530) 792-8500
Safeway,"235 Stratford Ave Dixon, CA 95620",38.45609631126347,-121.82373328261434,(707) 678-7400
Safeway,"301 Greenback Ln Citrus Heights, CA 95621",38.6782991,-121.3014,(916) 727-2458
Safeway,"450 Dewey Dr Fair Oaks, CA 95628",38.650459,-121.3084855,(916) 904-5356
Safeway,"850 Prairie City Rd Folsom, CA 95630",38.64847,-121.1617128,(916) 608-2450
Safeway,"89 Sunrise Ave Roseville, CA 95661",38.7295795,-121.2720218,(916) 773-4001
Safeway,"908 Robin Brook Way Roseville, CA 95661",38.7582488,-121.2353706,(916) 783-1426
Safeway,"640 Sierra College Blvd Roseville, CA 95661",38.747199,-121.2263811,(916) 783-2225
Safeway,"0635 Folsom Blvd Rancho Cordova, CA 95670",38.590632,-121.29979,(916) 364-4940
Safeway,"080 Pleasant Grove Blvd Roseville, CA 95678",38.7855408,-121.2849059,(916) 783-2119
Safeway,"28 Vernon St Roseville, CA 95678",38.75168170731707,-121.28155124390244,(916) 783-2128
Safeway,"090 Harbison Dr Vacaville, CA 95687",38.363072,-121.964606,(707) 452-7279
Safeway,"045 Woodcreek Oaks Blvd Roseville, CA 95747",38.762948,-121.3310971,(916) 780-9919
Safeway,"021 Laguna Blvd Elk Grove, CA 95758",38.4233097,-121.4454759,(916) 691-3770
Safeway,"2074 Francisco Dr El Dorado Hills, CA 95762",38.7267889,-121.090391,(916) 939-9456
Safeway,"207 Francisco Dr El Dorado Hills, CA 95762",38.7267889,-121.090391,(916) 939-9463
Safeway,"220 Sunset Blvd Rocklin, CA 95765",38.81731484471542,-121.29802444758815,(916) 789-0807
Safeway,"814 19th St Sacramento, CA 95814",38.5749468,-121.4821499,(916) 492-9967
Safeway,"025 Alhambra Blvd Sacramento, CA 95816",38.5710993,-121.465935,(916) 456-0852
Safeway,"320 Arden Way Sacramento, CA 95825",38.5965462,-121.4208289,(916) 483-9389
Safeway,"24 Howe Ave Sacramento, CA 95825",38.579705,-121.4154645,(916) 925-1676
Safeway,"377 Elk Grove Florin Rd Sacramento, CA 95829",38.4828379,-121.3718259,(916) 681-8666
Safeway,"851 Del Paso Rd Sacramento, CA 95835",38.6558979,-121.534887,(916) 285-8840
Safeway,"345 Elkhorn Blvd Sacramento, CA 95842",38.6831311,-121.3369519,(916) 331-2987
Safeway,"20 Mangrove Ave Chico, CA 95926",39.7344367,-121.8357213,(530) 895-6300
Safeway,"366 East Ave Chico, CA 95926",39.759467368421056,-121.85693489473685,(530) 899-2320
Safeway,"05 Neal St Grass Valley, CA 95945",39.2167137,-121.0623096,(530) 273-0115
Safeway,"67 Sutton Way Grass Valley, CA 95945",39.229628,-121.0344062,(530) 273-2249
Safeway,"020 Clark Rd Paradise, CA 95969",39.744714,-121.607648,(530) 877-7001
Safeway,"0 E Main St Quincy, CA 95971",39.9369474,-120.9408625,(530) 283-1404
Safeway,"275 Pine St Redding, CA 96001",40.579155,-122.3872333,(530) 247-3030
Safeway,"070 E Cypress Ave Redding, CA 96002",40.5709755,-122.3625719,(530) 226-5871
Safeway,"601 Balls Ferry Rd Anderson, CA 96007",40.4530315,-122.2705466,(530) 365-1010
Safeway,"00 Edith Ave Corning, CA 96021",39.944341,-122.197541,(530) 824-2467
Safeway,"970 Main St Susanville, CA 96130",40.417784714285716,-120.65885185714286,(530) 257-2029
Safeway,"815 N Lake Blvd Kings Beach, CA 96143",39.2370045,-120.0249801,(530) 546-0170
Safeway,"50 N Lake Blvd Tahoe City, CA 96145",39.1876638,-120.1187879,(530) 583-2772
Safeway,"020 Johnson Blvd South Lake Tahoe, CA 96150",38.9451253,-119.9664577,(530) 542-7744
Safeway,"1290 Donner Pass Rd Truckee, CA 96161",39.3287079,-120.1821047,(530) 582-7950
Sam's Club,"6468 Carl Boyer Dr Santa Clarita, CA 91350",34.4154977,-118.5053586,(661) 222-7408
Sam's Club,"6555 Von Karman Ave Irvine, CA 92606",33.684248,-117.8474584,(949) 553-9466
Sam's Club,"625 Gosford Rd Bakersfield, CA 93313",35.2965091,-119.0922309,(661) 654-8565
Sam's Club,"663 N Blackstone Ave Fresno, CA 93720",36.8070635,-119.7903909,(559) 446-0106
Sam's Club,"04 Pleasant Grove Blvd Roseville, CA 95678",38.7855408,-121.2849059,(916) 781-8160
Sam's Club,"360 El Camino Ave Sacramento, CA 95821",38.6101944,-121.3598926,(916) 487-8242
Save A Lot,"625 W Sunset Blvd Los Angeles, CA 90026",34.0980789,-118.3123144,(229) 559-4253
Save A Lot,"801 N Figueroa St Los Angeles, CA 90042",34.047907,-118.26135,(323) 340-8787
Save A Lot,"315 3rd Ave Chula Vista, CA 91911",32.6013483,-117.0645307,(619) 420-8470
Save A Lot,"05 Palm Ave Imperial Beach, CA 91932",32.583931,-117.124397,(619) 429-4385
Save A Lot,"035 S Harbison Ave National City, CA 91950",32.69124883838384,-117.07759804040404,(619) 267-6191
Save A Lot,"307 E Main St Barstow, CA 92311",34.89882322857143,-117.02315271428571,(760) 256-9091
Save A Lot,"0884 Cedar Ave Bloomington, CA 92316",34.0678495,-117.3960919,(909) 877-1950
Save A Lot,"255 E Florida Ave Hemet, CA 92544",33.74747807824543,-116.96999343093637,(951) 765-1152
Save Mart Supermarket,"75 E Forest Ave Coalinga, CA 93210",36.1411904,-120.3572426,(559) 934-0742
Save Mart Supermarket,"03 W Polk St Coalinga, CA 93210",36.1362991632653,-120.36368340816327,(559) 935-2997
Save Mart Supermarket,"75 W Forest Ave Coalinga, CA 93210",36.1380083,-120.360215,(559) 935-2997
Save Mart Supermarket,"700 High St Delano, CA 93215",35.76512,-119.245983,(661) 725-7828
Save Mart Supermarket,"15 W Grangeville Blvd Hanford, CA 93230",36.3426766,-119.6505497,(559) 582-4527
Save Mart Supermarket,"05 W Hanford Armona Rd Lemoore, CA 93245",36.3134816,-119.7830586,(559) 924-0594
Save Mart Supermarket,"0 W Olive Ave Porterville, CA 93257",36.0660238,-119.0288378,(559) 784-5216
Save Mart Supermarket,"70 E Cross Ave Tulare, CA 93274",36.2220592,-119.316018,(559) 686-3581
Save Mart Supermarket,"615 W Noble Ave Visalia, CA 93277",36.32636626442579,-119.29794242353303,(559) 622-0846
Save Mart Supermarket,"203 W Walnut Ave Visalia, CA 93277",36.31278605050505,-119.29462101010101,(559) 625-9888
Save Mart Supermarket,"201 W Goshen Ave Visalia, CA 93291",36.3419976,-119.3676995,(559) 738-9487
Save Mart Supermarket,"591 E Noble Ave Visalia, CA 93292",36.3268164,-119.259467,(559) 636-0328
Save Mart Supermarket,"600 Hageman Rd Bakersfield, CA 93312",35.3989293,-119.1004538,(661) 588-4420
Save Mart Supermarket,"870 N Broadway Santa Maria, CA 93454",34.961724,-120.435568,(805) 348-9600
Save Mart Supermarket,"41 Tucker Rd Tehachapi, CA 93561",35.1279856,-118.467683,(661) 822-6849
Save Mart Supermarket,"225 Robertson Blvd Chowchilla, CA 93610",37.122283702843404,-120.2605926906224,(559) 665-9476
Save Mart Supermarket,"157 N Willow Ave Clovis, CA 93611",36.8083375,-119.7271536,(559) 297-0174
Save Mart Supermarket,"179 Shaw Ave Clovis, CA 93611",36.80856763341871,-119.70656924378626,(559) 298-1707
Save Mart Supermarket,"835 Herndon Ave Clovis, CA 93611",36.8372165,-119.7015587,(559) 322-0123
Save Mart Supermarket,"0 Bullard Ave Clovis, CA 93612",36.8229782,-119.708258,(559) 298-3074
Save Mart Supermarket,"09 Sierra St Kingsburg, CA 93631",36.5179804,-119.5579329,(559) 897-9742
Save Mart Supermarket,"337 E Pacheco Blvd Los Banos, CA 93635",37.0563549,-120.8041395,(209) 826-1211
Save Mart Supermarket,"504 Howard Rd Madera, CA 93637",36.9527242,-120.0758722,(559) 661-0767
Save Mart Supermarket,"143 Country Club Dr Madera, CA 93638",36.9794533,-120.0742943,(559) 673-0045
Save Mart Supermarket,"580 E Manning Ave Reedley, CA 93654",36.60424401680421,-119.44333667120088,(559) 638-3988
Save Mart Supermarket,"37 Academy Ave Sanger, CA 93657",36.7090701,-119.5565747,(559) 875-4874
Save Mart Supermarket,"859 Whitson St Selma, CA 93662",36.5717159,-119.6197186,(559) 896-4203
Save Mart Supermarket,"120 N West Ave Fresno, CA 93705",36.71492434128337,-119.56091861873487,(559) 222-6909
Save Mart Supermarket,"625 N Fruit Ave Fresno, CA 93705",36.7938436,-119.8175183,(559) 441-8778
Save Mart Supermarket,"670 N Cedar Ave Fresno, CA 93710",36.751973285714286,-119.75433,(559) 298-0515
Save Mart Supermarket,"750 N 1st St Fresno, CA 93710",36.753412938451376,-119.7723751646527,(559) 435-7903
Save Mart Supermarket,"066 W Bullard Ave Fresno, CA 93711",36.82298330316568,-119.79184761303817,(559) 432-4336
Save Mart Supermarket,"075 N Marks Ave Fresno, CA 93711",36.8078083,-119.8445602,(559) 439-1248
Save Mart Supermarket,"107 E Champlain Dr Fresno, CA 93720",36.8776171,-119.7728233,(559) 433-0285
Save Mart Supermarket,"797 N Milburn Ave Fresno, CA 93722",36.8330707,-119.8784003,(559) 261-4126
Save Mart Supermarket,"043 W Clinton Ave Fresno, CA 93722",36.7717941,-119.8749151,(559) 271-8830
Save Mart Supermarket,"750 W Shields Ave Fresno, CA 93722",36.77941657028809,-119.82082887053124,(559) 275-7367
Save Mart Supermarket,"055 N Figarden Dr Fresno, CA 93722",36.8296021,-119.8673244,(559) 277-8493
Save Mart Supermarket,"734 W Menlo Ave Fresno, CA 93722",36.83103922448979,-119.72741497959184,(559) 297-0270
Save Mart Supermarket,"041 E Ashlan Ave Fresno, CA 93726",36.793961025536674,-119.81207853112707,(559) 224-6066
Save Mart Supermarket,"150 S Main St Salinas, CA 93901",36.676170163265304,-121.65546214285715,(831) 758-8233
Save Mart Supermarket,"4 San Benancio Rd Salinas, CA 93908",36.57650143282344,-121.71738218705794,(831) 393-2867
Save Mart Supermarket,"2830 Bravo Pl Salinas, CA 93908",36.593607,-121.705927,(831) 759-9279
Save Mart Supermarket,"300 Sylvan Rd Monterey, CA 93940",36.5852432,-121.8691231,(831) 624-7173
Save Mart Supermarket,"990 Grandview St Seaside, CA 93955",36.6187504,-121.8370518,(831) 393-9671
Save Mart Supermarket,"11 E 18th St Antioch, CA 94509",38.00496124342349,-121.80547477683123,(925) 754-4540
Save Mart Supermarket,"190 Contra Loma Blvd Antioch, CA 94509",37.9896082,-121.8228083,(925) 754-8585
Save Mart Supermarket,"461 Balfour Rd Brentwood, CA 94513",37.9254653,-121.7103304,(925) 240-7166
Save Mart Supermarket,"751 Monument Blvd Concord, CA 94520",37.9682012,-122.0321426,(925) 356-0324
Save Mart Supermarket,"9966 Cedar Blvd Newark, CA 94560",37.5463401,-122.0299729,(510) 438-5968
Save Mart Supermarket,"370 Fitzgerald Dr Pinole, CA 94564",37.9868691,-122.3122962,(510) 243-8771
Save Mart Supermarket,"15 W Calaveras Blvd Milpitas, CA 95035",37.4282678,-121.9101957,(408) 262-2680
Save Mart Supermarket,"610 El Camino Real Santa Clara, CA 95051",37.3522924,-121.9947997,(408) 984-0419
Save Mart Supermarket,"555 Merrill St Santa Cruz, CA 95062",36.9651595,-121.9866637,(831) 465-0360
Save Mart Supermarket,"465 Main St Watsonville, CA 95076",36.9151956,-121.7627225,(831) 768-1483
Save Mart Supermarket,"070 Story Rd San Jose, CA 95122",37.3347374,-121.8501663,(408) 995-5533
Save Mart Supermarket,"806 Story Rd San Jose, CA 95127",37.3574698,-121.8171912,(408) 259-3333
Save Mart Supermarket,"457 Mckee Rd San Jose, CA 95127",37.3751763,-121.8354728,(408) 937-6032
Save Mart Supermarket,"641 N Capitol Ave San Jose, CA 95132",37.3965531,-121.8718446,(408) 258-6641
Save Mart Supermarket,"251 S White Rd San Jose, CA 95148",37.3347351,-121.8004309,(408) 274-3394
Save Mart Supermarket,"536 Waterloo Rd Stockton, CA 95205",37.9727876,-121.2680393,(209) 466-5011
Save Mart Supermarket,"10 W Kettleman Ln Lodi, CA 95240",38.11539,-121.288041,(209) 334-1010
Save Mart Supermarket,"340 S Hutchins St Lodi, CA 95240",38.12956372447425,-121.27922039491206,(209) 369-4321
Save Mart Supermarket,"60 Main St Murphys, CA 95247",38.13681702912784,-120.4573082864098,(209) 736-1739
Save Mart Supermarket,"701 Bellevue Rd Atwater, CA 95301",37.36086795,-120.5995998,(209) 357-9840
Save Mart Supermarket,"916 E Whitmore Ave Ceres, CA 95307",37.59477523618091,-120.98083034170855,(209) 538-4118
Save Mart Supermarket,"5240 S Harlan Rd Lathrop, CA 95330",37.8190653,-121.2922959,(209) 858-4421
Save Mart Supermarket,"172 N Main St Manteca, CA 95336",37.79869618181818,-121.21641406818182,(317) 736-8166
Save Mart Supermarket,"431 W Yosemite Ave Manteca, CA 95337",37.79749953061224,-121.21217912244897,(209) 823-1768
Save Mart Supermarket,"136 W Main St Merced, CA 95340",37.29935910204082,-120.47796559183674,(209) 722-6110
Save Mart Supermarket,"50 W Olive Ave Merced, CA 95348",37.31839405858622,-120.47026445805417,(209) 722-7501
Save Mart Supermarket,"300 W Olive Ave Merced, CA 95348",37.3185955,-120.4740572,(209) 726-1974
Save Mart Supermarket,"100 Standiford Ave Modesto, CA 95350",37.68944,-121.02241,(209) 577-1350
Save Mart Supermarket,"800 Standiford Ave Modesto, CA 95350",37.68916,-121.003679,(209) 577-1600
Save Mart Supermarket,"15 Paradise Rd Modesto, CA 95351",37.6278333,-121.0118033,(209) 522-2897
Save Mart Supermarket,"601 Oakdale Rd Modesto, CA 95355",37.6609606,-120.9574994,(209) 521-1722
Save Mart Supermarket,"01 Oakdale Rd Modesto, CA 95355",37.6609606,-120.9574994,(209) 569-0292
Save Mart Supermarket,"900 Pelandale Ave Modesto, CA 95356",37.7005717,-121.0318948,(209) 545-1385
Save Mart Supermarket,"449 E F St Oakdale, CA 95361",37.76716293617021,-120.84557634042554,(209) 847-4925
Save Mart Supermarket,"035 Sperry Ave Patterson, CA 95363",37.4645524,-121.1730674,(209) 892-5000
Save Mart Supermarket,"453 Goodwin Dr Ripon, CA 95366",37.749663,-121.1350022,(209) 599-3363
Save Mart Supermarket,"30 W Stockton St Sonora, CA 95370",37.982696142731555,-120.38594444639543,(209) 532-3478
Save Mart Supermarket,"045 Mono Way Sonora, CA 95370",37.97579939669892,-120.37806367046102,(209) 536-1118
Save Mart Supermarket,"950 W 11th St Tracy, CA 95376",37.739790252508364,-121.44007973578596,(209) 832-5340
Save Mart Supermarket,"631 Lander Ave Turlock, CA 95380",37.487359439560436,-120.84908674725274,(209) 632-2522
Save Mart Supermarket,"01 W Main St Turlock, CA 95380",37.4927249,-120.8646731,(406) 587-9017
Save Mart Supermarket,"595 Geer Rd Turlock, CA 95382",37.49693140816327,-120.84895520408163,(209) 667-0525
Save Mart Supermarket,"280 Grass Valley Hwy Auburn, CA 95603",38.90166026744186,-121.07541162790697,(530) 889-1460
Save Mart Supermarket,"012 Manganite St El Dorado, CA 95623",38.6382195,-120.8464588,(530) 295-0791
Save Mart Supermarket,"160 Elk Grove Florin Rd Elk Grove, CA 95624",38.4199387,-121.3716678,(916) 685-5299
Save Mart Supermarket,"671 Little Wood Cir Elk Grove, CA 95624",38.436792,-121.382997,(916) 714-2016
Save Mart Supermarket,"059 C St Galt, CA 95632",38.25149012896333,-121.31012392878996,(209) 745-1837
Save Mart Supermarket,"000 Main Ave Orangevale, CA 95662",38.6725632,-121.2024424,(916) 988-9128
Save Mart Supermarket,"00 Crocker Dr Vacaville, CA 95688",38.3981838,-121.9495482,(707) 446-5900
Save Mart Supermarket,"647 Red Current Way Elk Grove, CA 95757",38.407085,-121.434664,(916) 683-4641
Save Mart Supermarket,"707 Laguna Blvd Elk Grove, CA 95758",38.4233097,-121.4454759,(916) 683-5111
Save Mart Supermarket,"600 Folsom Blvd Sacramento, CA 95819",38.5596365,-121.441205,(916) 456-3862
Save Mart Supermarket,"735 Marconi Ave Sacramento, CA 95821",38.6201899,-121.419906,(916) 974-0151
Save Mart Supermarket,"960 Gerber Rd Sacramento, CA 95828",38.4816273,-121.4086912,(916) 689-8300
Save Mart Supermarket,"1399 Deerfield Dr Truckee, CA 96161",39.3230426,-120.2270482,(530) 587-5522
Saveway Foods,"70 Oak Ln Rio Linda, CA 95673",38.6916204,-121.4447665,(916) 991-3234
Schratter Foods,"700 Bay St Los Angeles, CA 90021",34.01090708592991,-118.48310587255132,(912) 756-4555
Schwan's Fine Food,"an Bernardino, CA 92401",34.10172767786692,-117.2822607799809,(888) 724-9267
Scolaris Food & Drug Co.,"121 Spring St Paso Robles, CA 93446",35.61563973848749,-120.69029676824249,(805) 237-2212
Seafood City Supermarket,"700 Colorado Blvd Los Angeles, CA 90041",34.1393068,-118.1984581,(323) 255-5977
Seafood City Supermarket,"231 Woodman Ave Panorama City, CA 91402",34.2310034,-118.4371962,(818) 988-8721
Seafood City Supermarket,"525 E Amar Rd West Covina, CA 91792",34.0309861,-117.9142305,(626) 965-4863
Seafood City Supermarket,"340 3rd Ave Chula Vista, CA 91911",32.6013483,-117.0645307,(619) 422-4058
Seafood City Supermarket,"955 Mira Mesa Blvd San Diego, CA 92126",32.9103154,-117.156293,(858) 549-0200
Seafood City Supermarket,"1840 Alvarado Blvd Union City, CA 94587",37.5858811,-122.0628524,(510) 429-8739
Seafood City Supermarket,"27 Manhattan Dr Vallejo, CA 94591",38.110361,-122.224603,(707) 642-4400
Seafood City Supermarkets,"495 Sonoma Blvd Vallejo, CA 94590",38.08498044897959,-122.2410126122449,(707) 642-4400
Shaws,"7121 Friml Ln Huntington Beach, CA 92649",33.7123676,-118.0312428,(714) 846-0496
Shop and Go,"411 N Dinuba Blvd Visalia, CA 93291",36.4799306,-119.3579488,(559) 625-0838
Shop N Save,"206 W Westfield Ave Porterville, CA 93257",36.0875824,-119.0390627,(559) 781-1850
Shop N Save,"885 23rd St San Pablo, CA 94806",37.9608491,-122.3461296,(510) 232-9094
Shop N Save,"0 Sioc St Colusa, CA 95932",39.205969,-122.011059,(530) 458-2800
Shop N Save,"21 7th St Colusa, CA 95932",39.211098,-122.012082,(530) 473-2895
Shoprite,"800 Bancroft Ave Oakland, CA 94605",37.7436604,-122.1584847,(510) 568-5905
Sigma Foods,"919 Alcoa Ave Los Angeles, CA 90058",33.9936567,-118.2085319,(323) 589-3600
Sigma Foods,"501 E California Ave Bakersfield, CA 93307",35.36835701010101,-118.99874035353535,(661) 327-8300
Sigma Foods,"92 Railroad Ct Milpitas, CA 95035",37.4362743,-121.9068706,(408) 941-9958
Smart & Final,"607 S Vermont Ave Los Angeles, CA 90007",34.06335362476309,-118.29174231082135,(323) 733-5875
Smart & Final,"929 Crenshaw Blvd Los Angeles, CA 90016",34.0232225,-118.3350975,(323) 730-8300
Smart & Final,"216 Compton Ave Los Angeles, CA 90021",34.0241112,-118.2432207,(239) 353-8228
Smart & Final,"700 E Olympic Blvd Los Angeles, CA 90022",34.0189203,-118.1714645,(323) 888-2803
Smart & Final,"2210 Santa Monica Blvd Los Angeles, CA 90025",34.0431287,-118.4574869,(909) 981-1114
Smart & Final,"019 Pasadena Ave Los Angeles, CA 90031",34.0790189,-118.2148909,(323) 223-6252
Smart & Final,"308 E 4th St Los Angeles, CA 90033",33.88015786110594,-118.40640732813954,(323) 268-9179
Smart & Final,"0113 Venice Blvd Los Angeles, CA 90034",34.0307284,-118.3859604,(914) 637-2513
Smart & Final,"835 S La Cienega Blvd Los Angeles, CA 90035",33.9692895,-118.3701763,(856) 853-9540
Smart & Final,"555 Wilshire Blvd Los Angeles, CA 90036",34.0623415,-118.347202,(323) 939-0946
Smart & Final,"500 Sheila St Los Angeles, CA 90040",34.0023125,-118.1702903,(323) 725-0791
Smart & Final,"060 N Figueroa St Los Angeles, CA 90042",34.113893,-118.1859488,(323) 258-2199
Smart & Final,"137 S Vermont Ave Los Angeles, CA 90044",33.9589663,-118.2917915,(323) 758-5734
Smart & Final,"041 N Fuller Ave Los Angeles, CA 90046",34.085305,-118.3498567,(323) 876-0421
Smart & Final,"720 Beverly Blvd Los Angeles, CA 90057",34.0688191,-118.2752354,(229) 928-2784
Smart & Final,"125 E El Segundo Blvd Los Angeles, CA 90059",33.916501,-118.27301833333333,(323) 569-7148
Smart & Final,"460 Wellesley Ave Los Angeles, CA 90064",34.0240297,-118.448298,(912) 882-6987
Smart & Final,"1207 W Pico Blvd Los Angeles, CA 90064",34.0531439,-118.3751958,(866) 297-5881
Smart & Final,"550 W Redondo Beach Blvd Gardena, CA 90247",33.8923945,-118.2948188,(910) 383-1769
Smart & Final,"8500 S Western Ave Rancho Palos Verdes, CA 90275",33.7635001,-118.3115721,(919) 489-9887
Smart & Final,"32 S Pacific Coast Hwy Redondo Beach, CA 90277",33.8207405,-118.3853149,(914) 376-5429
Smart & Final,"04 Lincoln Blvd Venice, CA 90291",33.9994636,-118.463949,(910) 948-4885
Smart & Final,"575 Centinela Ave Inglewood, CA 90302",33.97341854397914,-118.35003087117526,(916) 744-1510
Smart & Final,"433 W Carson St Torrance, CA 90501",33.8312929,-118.3298227,(910) 582-6525
Smart & Final,"1600 S Vermont Ave Torrance, CA 90502",33.9580212,-118.2917918,(910) 582-6525
Smart & Final,"0530 Anza Ave Torrance, CA 90503",33.8417297,-118.3623764,(918) 335-6600
Smart & Final,"310 W 190th St Torrance, CA 90504",33.8583151,-118.3368691,(918) 335-6600
Smart & Final,"775 Pacific Coast Hwy Torrance, CA 90505",33.8062904,-118.3544602,(913) 422-3959
Smart & Final,"930 Valley View St Buena Park, CA 90620",33.8342291,-118.028489,(714) 521-3680
Smart & Final,"941 W Imperial Hwy La Habra, CA 90631",33.917569,-117.95270219816871,(562) 690-4516
Smart & Final,"0935 Firestone Blvd Norwalk, CA 90650",33.9093366,-118.0756393,(562) 868-0794
Smart & Final,"0410 S Susana Rd Long Beach, CA 90810",33.8654614,-118.2048577,(918) 225-0578
Smart & Final,"66 E Huntington Dr Monrovia, CA 91016",34.140492,-117.9902343,(626) 358-3261
Smart & Final,"555 Foothill Blvd Tujunga, CA 91042",34.2463405,-118.2757546,(818) 352-9399
Smart & Final,"01 N Fair Oaks Ave Pasadena, CA 91103",34.145897,-118.150564,(626) 568-8446
Smart & Final,"299 E Colorado Blvd Pasadena, CA 91107",34.1461359,-118.0958498,(626) 396-9677
Smart & Final,"850 San Fernando Rd Glendale, CA 91201",34.1345652,-118.2630607,(818) 238-0223
Smart & Final,"10 N Verdugo Rd Glendale, CA 91206",34.166132,-118.231231,(818) 243-4239
Smart & Final,"0340 Mason Ave Chatsworth, CA 91311",34.2390188,-118.5798046,(818) 772-2021
Smart & Final,"222 W Hillcrest Dr Newbury Park, CA 91320",34.187039,-118.9243826,(805) 375-1358
Smart & Final,"3640 Lyons Ave Newhall, CA 91321",34.3802153,-118.5344849,(661) 255-9822
Smart & Final,"8207 Newhall Ranch Rd Valencia, CA 91355",34.4428887,-118.5753464,(661) 775-1416
Smart & Final,"6847 Ventura Blvd Encino, CA 91436",34.157549,-118.4922102,(818) 789-0242
Smart & Final,"708 W Burbank Blvd Burbank, CA 91505",34.1747964,-118.3499601,(818) 562-3234
Smart & Final,"601 Laurel Canyon Blvd North Hollywood, CA 91606",34.1805486,-118.396586,(818) 982-6202
Smart & Final,"2170 Central Ave Chino, CA 91710",33.9959337,-117.6890847,(909) 627-7687
Smart & Final,"50 W Willow St Pomona, CA 91768",34.0803222,-117.7560024,(909) 622-3321
Smart & Final,"00 Citadel Dr Walnut, CA 91789",34.0231278,-117.8620931,(626) 965-0483
Smart & Final,"14 N Azusa Ave West Covina, CA 91791",34.0751744,-117.9076618,(626) 915-6619
Smart & Final,"141 Main St Chula Vista, CA 91911",32.594742,-117.042923,(619) 427-0202
Smart & Final,"220 E Plaza Blvd National City, CA 91950",32.67469639448094,-117.10379289329832,(619) 477-4126
Smart & Final,"618 El Camino Real Carlsbad, CA 92008",33.1758039,-117.3257739,(760) 434-5036
Smart & Final,"090 Fletcher Pkwy El Cajon, CA 92020",32.8069186,-116.98443,(619) 562-4151
Smart & Final,"50 Encinitas Blvd Encinitas, CA 92024",33.046093,-117.267151,(760) 634-0227
Smart & Final,"70 W San Marcos Blvd San Marcos, CA 92078",33.1326065,-117.1958816,(760) 510-1855
Smart & Final,"20 15th St San Diego, CA 92101",32.70523331818182,-117.150244,(619) 239-3377
Smart & Final,"516 Mission Blvd San Diego, CA 92109",32.7954201,-117.2551347,(858) 581-6192
Smart & Final,"804 Midway Dr San Diego, CA 92110",32.7502125,-117.2072647,(619) 223-5381
Smart & Final,"235 El Cajon Blvd San Diego, CA 92115",32.7580582,-117.0775597,(619) 286-0688
Smart & Final,"195 Clairemont Mesa Blvd San Diego, CA 92117",32.8277745,-117.2083419,(858) 541-2090
Smart & Final,"01 N Main St Blythe, CA 92225",33.6140044,-114.5996327,(760) 922-2326
Smart & Final,"7005 Date Palm Dr Cathedral City, CA 92234",33.7858429,-116.4580472,(760) 321-4805
Smart & Final,"7000 Foothill Blvd Fontana, CA 92335",34.1064803,-117.4888866,(909) 829-8911
Smart & Final,"5111 Bear Valley Rd Hesperia, CA 92345",34.4709966,-117.2869249,(760) 947-9217
Smart & Final,"720 W Redlands Blvd Redlands, CA 92373",34.057615344722144,-117.19037961784251,(909) 792-1528
Smart & Final,"4557 7th St Victorville, CA 92395",34.4665231,-117.4508628,(760) 245-1835
Smart & Final,"310 Vine St Riverside, CA 92507",33.9782551,-117.3694457,(951) 341-8230
Smart & Final,"4490 Newhope St Moreno Valley, CA 92553",33.9162814,-117.2666778,(951) 653-2779
Smart & Final,"5060 Madison Ave Murrieta, CA 92562",33.5530136,-117.1958361,(951) 698-8495
Smart & Final,"6665 Jefferson Ave Murrieta, CA 92562",33.532782,-117.1780066,(951) 698-8495
Smart & Final,"4417 Culver Dr Irvine, CA 92604",33.6935615,-117.7990296,(949) 726-9402
Smart & Final,"07 W 19th St Costa Mesa, CA 92627",33.6435013,-117.9207605,(949) 548-8473
Smart & Final,"861 Adams Ave Huntington Beach, CA 92646",33.6722881,-117.9765178,(714) 968-2708
Smart & Final,"882 Edinger Ave Huntington Beach, CA 92647",33.7301068,-118.0029181,(714) 847-2989
Smart & Final,"422 E 1st St Santa Ana, CA 92701",33.745353367346944,-117.86419032653062,(714) 542-7475
Smart & Final,"430 S Bristol St Santa Ana, CA 92704",33.7145457,-117.8853606,(714) 549-1122
Smart & Final,"465 E Chapman Ave Fullerton, CA 92831",33.8741815,-117.8957972,(714) 447-0770
Smart & Final,"891 Chapman Ave Garden Grove, CA 92841",33.7884363,-117.9799303,(714) 638-1212
Smart & Final,"401 E Katella Ave Orange, CA 92867",33.8103144,-117.8319423,(714) 771-1470
Smart & Final,"60 N Main St Corona, CA 92880",33.879264968650496,-117.56582125982555,(951) 737-4151
Smart & Final,"750 E Main St Ventura, CA 93003",34.35228216326531,-119.06497665306122,(805) 643-5556
Smart & Final,"536 Eastman Ave Ventura, CA 93003",34.2500474,-119.2297627,(805) 650-5278
Smart & Final,"89 Arneill Rd Camarillo, CA 93010",34.2183583,-119.0390063,(805) 383-1020
Smart & Final,"059 N Oxnard Blvd Oxnard, CA 93036",34.2350794,-119.1801718,(805) 988-0077
Smart & Final,"856 Erringer Rd Simi Valley, CA 93065",34.25481638888889,-118.76353288888889,(805) 582-9231
Smart & Final,"17 E Gutierrez St Santa Barbara, CA 93101",34.41613210204081,-119.69402391836735,(805) 564-8855
Smart & Final,"804 Girard St Delano, CA 93215",35.7849325,-119.249836,(661) 725-0868
Smart & Final,"88 E Lacey Blvd Hanford, CA 93230",36.328028,-119.6127267,(559) 584-8749
Smart & Final,"289 W Olive Ave Porterville, CA 93257",36.0653640567696,-119.02330571187733,(559) 784-1449
Smart & Final,"00 W Center Ave Visalia, CA 93291",36.3310291,-119.3011035,(559) 625-9044
Smart & Final,"725 Golden State Ave Bakersfield, CA 93301",35.3960741,-119.031501,(661) 326-7945
Smart & Final,"400 White Ln Bakersfield, CA 93309",35.317756,-119.0070138030303,(661) 832-4484
Smart & Final,"749 Calloway Dr Bakersfield, CA 93312",35.365733818694046,-119.11399470576434,(661) 589-2579
Smart & Final,"77 Higuera St San Luis Obispo, CA 93401",35.267819260869565,-120.67026626086957,(805) 543-5340
Smart & Final,"721 S Broadway Santa Maria, CA 93454",34.94486107142857,-120.43581107142857,(805) 925-6730
Smart & Final,"180 N Main St Bishop, CA 93514",37.36192246808511,-118.39539419148936,(760) 873-7181
Smart & Final,"3718 15th St W Lancaster, CA 93534",34.6861843,-118.1568217,(661) 948-8189
Smart & Final,"752 E Avenue J Lancaster, CA 93535",34.68939341666667,-118.11608795833332,(661) 948-0538
Smart & Final,"700 N Blackstone Ave Fresno, CA 93710",36.752594,-119.790432,(559) 439-5954
Smart & Final,"330 W Shaw Ave Fresno, CA 93711",36.80854409165733,-119.79785012881764,(559) 275-3250
Smart & Final,"31 H St Fresno, CA 93721",36.7393957,-119.7998138,(559) 264-3514
Smart & Final,"19 E Market St Salinas, CA 93901",36.67760919568201,-121.65547810017915,(831) 754-1068
Smart & Final,"560 Canyon Del Rey Blvd Seaside, CA 93955",36.587921653107124,-121.83141769775278,(831) 393-0250
Smart & Final,"967 Mission St Daly City, CA 94014",37.6927793,-122.4650425,(650) 997-3151
Smart & Final,"41 E El Camino Real Mountain View, CA 94040",37.3803456,-122.0727172,(650) 962-1092
Smart & Final,"185 Broadway St Redwood City, CA 94063",37.4869681,-122.2186947,(650) 306-2450
Smart & Final,"49 Kenwood Way South San Francisco, CA 94080",37.6419626,-122.4256096,(650) 737-0915
Smart & Final,"265 S Mary Ave Sunnyvale, CA 94087",37.37824800666714,-122.04639796287496,(408) 245-4006
Smart & Final,"70 S Van Ness Ave San Francisco, CA 94103",37.773681655224465,-122.41899517887806,(415) 864-8240
Smart & Final,"80 Harrison St San Francisco, CA 94107",37.789071125,-122.3892785,(415) 836-9296
Smart & Final,"50 7th Ave San Francisco, CA 94118",37.787512500000005,-122.46554855969433,(415) 751-9951
Smart & Final,"094 Sueirro St Hayward, CA 94541",37.661843,-122.1172093,(510) 781-0865
Smart & Final,"1261 Hathaway Ave Hayward, CA 94541",37.6663878,-122.1034133,(510) 781-0865
Smart & Final,"4601 Mission Blvd Hayward, CA 94544",37.6378119,-122.0561174,(510) 733-6934
Smart & Final,"325 Sonoma Blvd Vallejo, CA 94589",38.1467849,-122.2549064,(707) 644-0560
Smart & Final,"901 Sonoma Blvd Vallejo, CA 94589",38.1467849,-122.2549064,(707) 644-4281
Smart & Final,"243 42nd Ave Oakland, CA 94601",37.7741776,-122.2147801,(510) 536-7494
Smart & Final,"01 Broadway Oakland, CA 94607",37.795224,-122.277049,(510) 251-8221
Smart & Final,"35 Andersen Dr San Rafael, CA 94901",37.9592278,-122.5098769,(415) 259-0285
Smart & Final,"70 E 10th St Gilroy, CA 95020",37.00031097959184,-121.56526624489797,(408) 846-7020
Smart & Final,"065 El Camino Real Santa Clara, CA 95050",37.3531281,-121.9387477,(408) 296-3293
Smart & Final,"152 Monterey Hwy San Jose, CA 95112",37.3042989,-121.8619876,(408) 271-7860
Smart & Final,"783 Hillsdale Ave San Jose, CA 95124",37.2649612,-121.9143163,(408) 264-0454
Smart & Final,"281 Prospect Rd San Jose, CA 95129",37.292593,-121.9985072,(408) 517-8803
Smart & Final,"47 N Wilson Way Stockton, CA 95205",37.95628702040816,-121.27178804081632,(209) 464-3829
Smart & Final,"502 Pacific Ave Stockton, CA 95207",38.0000922,-121.3162746,(209) 477-4191
Smart & Final,"108 S School St Lodi, CA 95240",38.132775775510204,-121.2736612244898,(209) 365-6713
Smart & Final,"15 E Lodi Ave Lodi, CA 95240",38.130236249999996,-121.2723469375,0
Smart & Final,"900 Standiford Ave Modesto, CA 95350",37.689193,-121.006039,(209) 525-9357
Smart & Final,"01 9th St Modesto, CA 95354",37.6316897,-120.9916486,(209) 526-4115
Smart & Final,"150 W 11th St Tracy, CA 95376",37.739807,-121.428225,(209) 833-0320
Smart & Final,"481 Auburn Blvd Citrus Heights, CA 95610",38.6923969,-121.2967588,(916) 729-7290
Smart & Final,"101 Richards Blvd Sacramento, CA 95814",38.5951817,-121.4856787,(916) 441-1618
Smart & Final,"431 28th St Sacramento, CA 95818",38.57969244444444,-121.46656061111112,(916) 451-0416
Smart & Final,"340 Stockton Blvd Sacramento, CA 95824",38.5097491,-121.4354428,(916) 428-4454
Smart & Final,"730 Watt Ave Sacramento, CA 95825",38.577603555555555,-121.38282111111111,(916) 484-7402
Smart & Final,"820 Madison Ave Sacramento, CA 95841",38.6608944,-121.3468351,(916) 344-2172
Smart & Final,"471 Lake Tahoe Blvd South Lake Tahoe, CA 96150",38.936667,-119.9772906,(530) 542-2016
Spruce Foods,"06 El Berro San Clemente, CA 92672",33.4431057,-117.5905294,(949) 498-0735
Stater Bros,"511 Orangethorpe Ave Buena Park, CA 90621",33.8589772,-118.0019161,(714) 522-1222
Stater Bros,"640 Alondra Blvd Paramount, CA 90723",33.88924,-118.1601628,(562) 633-5721
Stater Bros,"6900 Sierra Hwy Newhall, CA 91321",34.3879019,-118.4896624,(661) 298-7988
Stater Bros,"4230 Chino Hills Pkwy Chino Hills, CA 91709",33.98280359419333,-117.71249437046654,(909) 591-5405
Stater Bros,"721 Riverside Dr Chino, CA 91710",34.0190862,-117.6886499,(909) 627-3015
Stater Bros,"090 Foothill Blvd La Verne, CA 91750",34.1134828,-117.7657866,(909) 593-1591
Stater Bros,"1070 Limonite Ave Mira Loma, CA 91752",33.9753063,-117.5474698,(951) 734-4330
Stater Bros,"575 Central Ave Montclair, CA 91763",34.0679418,-117.6896433,(909) 621-4637
Stater Bros,"425 W Arrow Hwy San Dimas, CA 91773",34.103028594817786,-117.81592130373164,(909) 599-1374
Stater Bros,"048 N El Camino Real Encinitas, CA 92024",33.0583386,-117.2628295,(760) 943-7738
Stater Bros,"35 N Broadway Escondido, CA 92025",33.121801,-117.0815764,(760) 747-0641
Stater Bros,"770 Mission Ave Oceanside, CA 92054",33.19715182897336,-117.37757432692477,(760) 754-3770
Stater Bros,"170 Vista Way Oceanside, CA 92054",33.170693428571425,-117.36208557142858,(760) 757-3200
Stater Bros,"3589 Poway Rd Poway, CA 92064",32.9563272,-117.0355073,(858) 486-3771
Stater Bros,"674 Main St Ramona, CA 92065",33.04480476691197,-116.86332385283957,(760) 789-9915
Stater Bros,"330 E Mission Rd San Marcos, CA 92069",33.1436555,-117.1539165,(760) 741-5052
Stater Bros,"80 Sycamore Ave Vista, CA 92083",33.1663191,-117.2153794,(760) 727-7080
Stater Bros,"451 N Santa Fe Ave Vista, CA 92084",33.20556883083877,-117.24486837106144,(760) 726-8485
Stater Bros,"919 Carmel Mountain Rd San Diego, CA 92129",32.962447,-117.1407115,(858) 484-1281
Stater Bros,"8210 Varner Rd Palm Desert, CA 92211",33.7724584,-116.3312292,(760) 772-7508
Stater Bros,"72 Torrey Pines Rd Banning, CA 92220",33.9196096,-116.9397062,(951) 845-8770
Stater Bros,"7800 Vista Chino Cathedral City, CA 92234",33.8449025,-116.4583501,(760) 327-9295
Stater Bros,"717 N Vista Dr Palm Springs, CA 92262",33.8508078,-116.5592502,(760) 318-7440
Stater Bros,"1727 29 Palms Hwy Twentynine Palms, CA 92277",34.1351373,-116.1966639,(760) 367-6535
Stater Bros,"8060 29 Palms Hwy Yucca Valley, CA 92284",34.1217484,-116.4197709,(760) 365-2415
Stater Bros,"7075 29 Palms Hwy Yucca Valley, CA 92284",34.1217484,-116.4197709,(760) 365-9877
Stater Bros,"1137 Bartlett Ave Adelanto, CA 92301",34.579502,-117.493834,(760) 246-7705
Stater Bros,"2253 Apple Valley Rd Apple Valley, CA 92308",34.46867,-117.2423508,(760) 240-2214
Stater Bros,"57 Armory Rd Barstow, CA 92311",34.8841018,-117.0262955,(760) 252-5422
Stater Bros,"2171 Big Bear Blvd Big Bear Lake, CA 92315",34.2435737,-116.9037296,(909) 866-5211
Stater Bros,"045 Bloomington Ave Bloomington, CA 92316",34.0720055,-117.3953236,(909) 877-0090
Stater Bros,"155 Calimesa Blvd Calimesa, CA 92320",33.9925757,-117.0567757,(909) 795-2224
Stater Bros,"904 N Rancho Ave Colton, CA 92324",34.05520188861174,-117.33472959790826,(909) 888-8392
Stater Bros,"8140 Arrow Blvd Fontana, CA 92335",34.0992216,-117.4369336,(909) 427-8208
Stater Bros,"6721 Upland Ave Fontana, CA 92335",34.103532,-117.4139852,(909) 428-4558
Stater Bros,"954 Sierra Ave Fontana, CA 92335",34.0993638,-117.4357387,(909) 822-4515
Stater Bros,"1225 Sierra Ave Fontana, CA 92337",34.0540691,-117.435433,(909) 428-4558
Stater Bros,"4466 Main St Hesperia, CA 92345",34.4219463,-117.3042968,(760) 244-2299
Stater Bros,"8988 Greenspot Rd Highland, CA 92346",34.087866214918236,-117.11333898517016,(909) 863-7600
Stater Bros,"633 Highland Ave Highland, CA 92346",40.775941226190476,-124.17731551190475,(909) 864-0122
Stater Bros,"5630 Barton Rd Loma Linda, CA 92354",34.0520662,-117.275828,(909) 796-2423
Stater Bros,"536 Barton Rd Redlands, CA 92373",34.0482096,-117.2122592,(909) 798-0072
Stater Bros,"1 E Colton Ave Redlands, CA 92374",34.062763,-117.182669,(909) 792-3900
Stater Bros,"786 E Lugonia Ave Redlands, CA 92374",34.06996166058202,-117.1740336630913,(909) 794-5659
Stater Bros,"71 E Foothill Blvd Rialto, CA 92376",34.1067769,-117.3548371,(909) 874-5195
Stater Bros,"68 E Base Line Rd Rialto, CA 92376",34.1213771,-117.3529625,(909) 875-4471
Stater Bros,"4460 Yucaipa Blvd Yucaipa, CA 92399",34.0337692,-117.1008983,(909) 790-0060
Stater Bros,"1365 Bryant St Yucaipa, CA 92399",34.0380166,-117.0344609,(909) 790-3636
Stater Bros,"522 E Highland Ave San Bernardino, CA 92404",34.044370959183674,-117.16598710204082,(909) 882-3214
Stater Bros,"77 E 40th St San Bernardino, CA 92404",34.1650071,-117.2702443,(909) 886-4517
Stater Bros,"085 W Highland Ave San Bernardino, CA 92405",34.1359834,-117.2946185,(909) 886-1517
Stater Bros,"77 Kendall Dr San Bernardino, CA 92407",34.2076546,-117.3860298,(909) 882-0461
Stater Bros,"01 S Tippecanoe Ave San Bernardino, CA 92408",34.0691388,-117.2613149,(909) 733-5000
Stater Bros,"48 W 4th St San Bernardino, CA 92410",34.05508543512075,-117.1838048136784,(909) 888-0048
Stater Bros,"420 La Sierra Ave Riverside, CA 92503",33.8942713,-117.4685767,(951) 351-0154
Stater Bros,"160 Arlington Ave Riverside, CA 92504",33.9460725,-117.4247657,(951) 689-3951
Stater Bros,"7050 Van Buren Blvd Riverside, CA 92504",33.9355112,-117.4541207,(951) 780-2261
Stater Bros,"0370 Arlington Ave Riverside, CA 92505",33.9465541,-117.4780864,(951) 688-0834
Stater Bros,"861 Mary St Riverside, CA 92506",33.9409641,-117.3928329,(951) 686-4202
Stater Bros,"995 Iowa Ave Riverside, CA 92507",33.9682788,-117.339907,(951) 686-1032
Stater Bros,"770 Limonite Ave Riverside, CA 92509",33.9907166,-117.4252602,(951) 681-3142
Stater Bros,"155 Jurupa Rd Riverside, CA 92509",34.0036265,-117.4580197,(951) 685-1266
Stater Bros,"571 Mission Blvd Riverside, CA 92509",33.998414,-117.409779,(951) 686-1506
Stater Bros,"6750 Lakeshore Dr Lake Elsinore, CA 92530",33.6945864,-117.3900582,(951) 674-1349
Stater Bros,"1952 Mission Trl Lake Elsinore, CA 92530",33.6342682,-117.2906893,(951) 674-4837
Stater Bros,"10 E Stetson Ave Hemet, CA 92543",33.7293304,-117.0108829,(951) 925-5545
Stater Bros,"200 W Florida Ave Hemet, CA 92545",33.747632,-116.973672,(951) 658-1830
Stater Bros,"5900 Iris Ave Moreno Valley, CA 92551",33.8953616,-117.197198,(951) 924-1717
Stater Bros,"4595 Alessandro Blvd Moreno Valley, CA 92553",33.9171909,-117.2500518,(951) 242-7724
Stater Bros,"4831 Sunnymead Blvd Moreno Valley, CA 92553",33.9391387,-117.2394215,(951) 242-9100
Stater Bros,"4425 Moreno Beach Dr Moreno Valley, CA 92555",33.9209073,-117.1741951,(951) 242-1461
Stater Bros,"5050 Hancock Ave Murrieta, CA 92562",33.5809361,-117.1968316,(951) 677-4117
Stater Bros,"40 E 4th St Perris, CA 92570",33.782454901294194,-117.22665230957485,(951) 657-5000
Stater Bros,"7 W Nuevo Rd Perris, CA 92571",33.80126052340137,-117.2299419798475,(951) 657-1823
Stater Bros,"16 E Shaver St San Jacinto, CA 92583",33.7777968,-116.9531353,(951) 487-0319
Stater Bros,"5900 Newport Rd Menifee, CA 92584",33.6849873,-117.158769,(951) 672-6780
Stater Bros,"7160 Sun City Blvd Sun City, CA 92586",33.7250433,-117.1930644,(951) 679-6655
Stater Bros,"6016 Hidden Springs Rd Wildomar, CA 92595",33.5958431,-117.247885,(951) 678-3191
Stater Bros,"175 Baker St Costa Mesa, CA 92626",33.680126,-117.8986243,(714) 437-0754
Stater Bros,"180 Newport Blvd Costa Mesa, CA 92627",33.6439239,-117.9161375,(949) 646-2324
Stater Bros,"2351 El Toro Rd Lake Forest, CA 92630",33.6386163,-117.6743425,(949) 581-3440
Stater Bros,"0114 Adams Ave Huntington Beach, CA 92646",33.6722881,-117.9765178,(714) 963-0949
Stater Bros,"101 Warner Ave Huntington Beach, CA 92647",33.7155771,-118.0002704,(714) 841-3612
Stater Bros,"6892 La Paz Rd Aliso Viejo, CA 92656",33.5732324,-117.7066692,(949) 643-0511
Stater Bros,"16 Camino De Los Mares San Clemente, CA 92673",33.4733981,-117.6288893,(949) 496-8283
Stater Bros,"522 Westminster Blvd Westminster, CA 92683",33.75919,-117.9919216,(714) 892-1861
Stater Bros,"639 Oakmont Ave Santa Ana, CA 92705",33.7730516,-117.8585896,(714) 538-5550
Stater Bros,"230 E Mcfadden Ave Santa Ana, CA 92705",33.734418612244895,-117.86914159183674,(714) 543-4555
Stater Bros,"360 N Tustin Ave Santa Ana, CA 92705",33.74862877087341,-117.83424364104997,(714) 543-9034
Stater Bros,"1085 Warner Ave Fountain Valley, CA 92708",33.7160682,-117.9645224,(714) 775-6343
Stater Bros,"4171 Red Hill Ave Tustin, CA 92780",33.7271515,-117.8218699,(714) 544-1812
Stater Bros,"10 S Brookhurst St Anaheim, CA 92804",33.8198984,-117.9590199,(714) 774-3933
Stater Bros,"741 N Kellogg Dr Anaheim, CA 92807",33.8606797,-117.8066528,(714) 779-2020
Stater Bros,"33 N Euclid St Fullerton, CA 92832",33.8735278,-117.9420114,(714) 871-8725
Stater Bros,"040 E Bastanchury Rd Fullerton, CA 92835",33.8958679,-117.9273056,(714) 257-0460
Stater Bros,"888 Chapman Ave Garden Grove, CA 92841",33.7884363,-117.9799303,(714) 539-6556
Stater Bros,"800 E Collins Ave Orange, CA 92867",33.802254480836794,-117.84513572724296,(714) 538-5550
Stater Bros,"325 E Chapman Ave Orange, CA 92869",33.7923477,-117.7612147,(714) 997-7445
Stater Bros,"50 Hidden Valley Pkwy Corona, CA 92879",33.8984959,-117.5602615,(951) 372-1100
Stater Bros,"193 Magnolia Ave Corona, CA 92879",33.8634921,-117.5466156,(951) 736-1399
Stater Bros,"288 Border Ave Corona, CA 92882",33.867388,-117.5948201,(951) 734-2470
Stater Bros,"243 Eagle Glen Pkwy Corona, CA 92883",33.8195871,-117.5248708,(951) 372-2692
Stater Bros,"8527 Yorba Linda Blvd Yorba Linda, CA 92886",33.8886291,-117.8130428,(714) 777-3893
Stater Bros,"6920 State Highway 14 Mojave, CA 93501",34.179370899999995,-117.32200634886364,(661) 824-2719
Stater Bros,"850 E Avenue J Lancaster, CA 93535",34.689381707633586,-118.11359529007595,(661) 948-1885
Stater Bros,"845 W Avenue L Lancaster, CA 93536",34.660417692307696,-118.14661992307693,(661) 943-2545
Stater Bros,"535 E Avenue S Palmdale, CA 93550",34.5580678,-118.0899973,(661) 266-1076
Stater Bros,"7218 47th St E Palmdale, CA 93552",34.5354732,-118.0452579,(661) 285-9184
Stop & Save,"608 N Long Beach Blvd Compton, CA 90221",33.90022200000001,-118.20814045762712,(916) 560-4004
Stop & Shop,"123 Vine St Los Angeles, CA 90038",34.0916381,-118.3266278,(323) 467-3450
Stop & Shop,"46 E 6th St Beaumont, CA 92223",33.9293082,-116.9559981,(951) 845-2723
Stop & Shop,"505 W 9th St San Bernardino, CA 92411",34.115716,-117.29438873486593,(909) 884-2784
Stop & Shop,"863 Philbin Ave Riverside, CA 92503",33.939114,-117.46988,(951) 359-4212
Stop & Shop,"00 Carlson Blvd Richmond, CA 94804",37.9251535,-122.3381039,(510) 232-9456
Stop & Shop,"008 El Camino Ave Carmichael, CA 95608",38.610076,-121.3461004,(916) 972-1105
Stop & Shop,"007 Dry Creek Rd Rio Linda, CA 95673",38.6839079,-121.4384117,(916) 992-6138
Stop & Shop,"303 36th St Sacramento, CA 95816",38.576199,-121.455219,(916) 452-1072
Stop & Shop,"440 Folsom Blvd Sacramento, CA 95816",38.5673148,-121.4639622,(916) 739-1045
Stop & Shop,"500 Folsom Blvd Sacramento, CA 95819",38.5596365,-121.441205,(916) 452-1072
Stop & Shop,"533 Edison Ave Sacramento, CA 95821",38.6202948,-121.4190128,(916) 483-7231
Stop Market,"58 Gayley Ave Los Angeles, CA 90024",34.0590198,-118.4455736,(909) 981-1114
Stop N Save,"290 S Bascom Ave San Jose, CA 95128",37.3152458,-121.9317484,(408) 293-9950
Stremicks Heritage Foods,"3034 Excelsior Dr Norwalk, CA 90650",33.8949059,-118.0830442,(562) 926-7209
Stremicks Heritage Foods,"100 Etiwanda Ave Ontario, CA 91761",34.0631526,-117.5241844,(909) 390-6420
Stremicks Heritage Foods,"3535 Peach St Indio, CA 92201",33.713196,-116.2050015,(760) 775-0611
Sun Hop Fat 1 Supermarket,"424 International Blvd Oakland, CA 94601",37.7711162,-122.2120929,(510) 533-8888
Sun Hop Fat 1 Supermarket,"01 E 12th St Oakland, CA 94606",37.7763032,-122.2272739,(510) 763-8888
Sun Hop Fat 1 Supermarket,"49 E 12th St Oakland, CA 94606",37.79939676358736,-122.26321726512785,(510) 763-8888
Sun Sang Supermarket,"211 8th Ave Oakland, CA 94606",37.788599147989075,-122.25815570690916,(510) 839-2318
Sun Sang Supermarket,"51 International Blvd Oakland, CA 94606",37.7982524,-122.2566747,(510) 891-0298
Sundance Natural Foods,"231 Willowbrook Dr Oceanside, CA 92056",33.2317265,-117.2601428,(760) 945-9899
Sunflower Natural Foods,"639 Lincoln Blvd Los Angeles, CA 90045",33.9533259,-118.4101572,(916) 682-4443
Sunrise Food,"348 E 14th St Los Angeles, CA 90023",34.03377953061224,-118.2586216122449,(323) 780-9750
Sunrise Food,"27 Sunrise Ave Madera, CA 93638",36.9599396,-120.0452817,(559) 673-3802
Sunrise Food,"600 Jensen Ave Sanger, CA 93657",36.7068241,-119.5742108,(559) 875-6322
Sunrise Natural Foods,"160 Grass Valley Hwy Auburn, CA 95603",38.90201538372093,-121.07559581395348,(530) 888-8973
Sunrise Natural Foods,"950 Douglas Blvd Roseville, CA 95661",38.7438477027027,-121.2792762972973,(916) 789-8591
Sunrise Natural Foods,"11 Pleasant Grove Blvd Roseville, CA 95678",38.7682248,-121.364427,(916) 773-2565
Sunshine Foods,"115 Main St Saint Helena, CA 94574",38.49472590444563,-122.45694085091459,(707) 963-7070
Sunshine Market,"105 S Pacific Ave San Pedro, CA 90731",33.7087431,-118.2879334,(919) 676-3534
Super A Foods,"25 S Soto St Los Angeles, CA 90033",34.049911,-118.2058118,(323) 261-6922
Super A Foods,"200 Dominion Cir Los Angeles, CA 90040",33.9772347,-118.1363291,(323) 869-0600
Super A Foods,"353 Las Flores Dr Los Angeles, CA 90041",34.1411251,-118.1941724,(323) 254-1424
Super A Foods,"245 Yosemite Dr Los Angeles, CA 90041",34.1329645,-118.2020498,(323) 254-7341
Super A Foods,"250 York Blvd Los Angeles, CA 90042",34.1197693,-118.198379,(323) 551-6884
Super A Foods,"925 Division St Los Angeles, CA 90065",34.104816,-118.231359,(323) 224-2927
Super A Foods,"116 California Ave South Gate, CA 90280",33.9478121,-118.207024,(323) 563-6072
Super A Foods,"101 Rosemead Blvd Pico Rivera, CA 90660",33.9976965,-118.0846852,(562) 942-7337
Super A Foods,"3120 Downey Ave Paramount, CA 90723",33.8953484,-118.1513637,(562) 634-3162
Super A Foods,"35 W Duarte Rd Monrovia, CA 91016",34.129207959183674,-118.03387189795919,(626) 821-9158
Super A Foods,"825 N Verdugo Rd Glendale, CA 91208",34.1693415,-118.2278709,(323) 551-6884
Super A Foods,"00 W Main St Alhambra, CA 91801",34.095585,-118.1078216,(626) 282-0605
Super Bargain,"323 W Century Blvd Inglewood, CA 90304",33.9454224,-118.365831,(912) 262-6663
Super Bargain,"583 Atlantic Ave Long Beach, CA 90805",33.8575362,-118.1848919,(562) 423-2775
Super Bargain,"400 Cherry Ave Long Beach, CA 90813",33.771829,-118.167545,(562) 438-2099
Super K Food Store,"50 Auburn Folsom Rd Auburn, CA 95603",38.8873758,-121.0775708,(530) 887-1949
Supervalu,"6840 Main St Hesperia, CA 92345",34.4219463,-117.3042968,(760) 949-7055
Tawa Supermarket,"340 W Artesia Blvd Gardena, CA 90248",33.8728192,-118.2991388,(910) 371-1951
Tawa Supermarket,"450 Sepulveda Blvd Van Nuys, CA 91411",34.1719757,-118.466183,(818) 988-7899
Tawa Supermarket,"959 Chino Ave Chino Hills, CA 91709",34.0147275,-117.758608,(909) 517-3288
Tawa Supermarket,"40 W Valley Blvd San Gabriel, CA 91776",34.079348,-118.1079089,(626) 307-8899
Tawa Supermarket,"421 E Valley Blvd Alhambra, CA 91801",34.078931723097874,-118.11797939303106,(626) 282-4699
Tawa Supermarket,"402 Walnut Ave Irvine, CA 92604",33.7055969,-117.7889541,(949) 654-5888
Thriftway,"529 Dunsmuir Ave Dunsmuir, CA 96025",41.23574653334444,-122.27140001938645,(530) 235-4751
Trader Joe's,"456 S Sepulveda Blvd Los Angeles, CA 90034",33.9725752,-118.3947755,(919) 751-2149
Trader Joe's,"451 E Pacific Coast Hwy Long Beach, CA 90803",33.7604972,-118.1134024,(562) 596-4388
Trader Joe's,"845 E Thousand Oaks Blvd Thousand Oaks, CA 91362",34.176681,-118.849909,(805) 494-5040
Trader Joe's,"225 Riverside Ave Riverside, CA 92506",33.9468124,-117.3889579,(951) 781-2378
Trader Joe's,"1431 Brookhurst St Huntington Beach, CA 92646",33.6678409,-117.9538811,(714) 968-4070
Trader Joe's,"751 S Victoria Ave Ventura, CA 93003",34.2703531,-119.2135051,(805) 650-1504
Trader Joe's,"9 Danville Oak Pl Danville, CA 94526",37.82709832998099,-122.00739625513864,(925) 838-7438
Vallarta Supermarket,"425 Whittier Blvd Los Angeles, CA 90023",34.0258569,-118.1966303,(323) 980-4400
Vallarta Supermarket,"550 E 25th St Los Angeles, CA 90058",34.02342325,-118.262736,(323) 826-9477
Vallarta Supermarket,"1208 Sherman Way Canoga Park, CA 91303",34.2007187,-118.5972518,(818) 346-1665
Vallarta Supermarket,"2725 Gault St West Hills, CA 91307",34.1986754,-118.6253783,(818) 346-1665
Vallarta Supermarket,"453 Reseda Blvd Northridge, CA 91324",34.2306933,-118.5361608,(818) 576-1280
Vallarta Supermarket,"0175 San Fernando Rd Pacoima, CA 91331",34.2732534,-118.4296998,(818) 897-9700
Vallarta Supermarket,"011 Woodman Ave Pacoima, CA 91331",34.2606937,-118.4543013,(818) 920-2700
Vallarta Supermarket,"2979 Arroyo St San Fernando, CA 91340",34.2879499,-118.4210638,(818) 898-0088
Vallarta Supermarket,"4813 Wolfskill St Mission Hills, CA 91345",34.2653788,-118.4568661,(818) 837-9033
Vallarta Supermarket,"3449 Lyons Ave Valencia, CA 91355",34.3788495,-118.5577379,(661) 260-1110
Vallarta Supermarket,"3715 Vanowen St Van Nuys, CA 91405",34.1939155,-118.4858521,(818) 786-9356
Vallarta Supermarket,"6107 Victory Blvd Van Nuys, CA 91406",34.186641,-118.4847379,(818) 781-9007
Vallarta Supermarket,"06 E Grinnell Dr Burbank, CA 91501",34.1955605,-118.3054183,(818) 846-1717
Vallarta Supermarket,"1288 Ventura Blvd Studio City, CA 91604",34.1396622,-118.3817211,(818) 760-7021
Vallarta Supermarket,"3051 Victory Blvd North Hollywood, CA 91606",34.1866854,-118.3886474,(818) 760-7021
Vallarta Supermarket,"3940 Ramona Pkwy Baldwin Park, CA 91706",34.0836365,-117.9743363,(626) 480-8960
Vallarta Supermarket,"315 E Valley Pkwy Escondido, CA 92027",33.1451231,-117.0364256,(760) 291-0375
Vallarta Supermarket,"2351 Mariposa Rd Victorville, CA 92395",34.5071898,-117.3215589,(760) 243-1246
Vallarta Supermarket,"055 S Oxnard Blvd Oxnard, CA 93030",34.1799957,-119.1653855,(805) 240-1400
Vallarta Supermarket,"840 Cecil Ave Delano, CA 93215",35.7757843255814,-119.24754967441861,(661) 725-9283
Vallarta Supermarket,"615 W Avenue L Lancaster, CA 93534",34.660415,-118.14513352176964,(661) 945-3034
Vallarta Supermarket,"803 E Palmdale Blvd Palmdale, CA 93550",34.57961675510204,-118.11445183673469,(661) 273-1120
Vallarta Supermarket,"831 E Butler Ave Fresno, CA 93727",36.7286634,-119.7183968,(559) 455-0179
Vons,"24 S Grand Ave Los Angeles, CA 90017",33.7609084375,-118.14797777083334,(239) 332-4881
Vons,"430 S Fairfax Ave Los Angeles, CA 90019",34.0724935,-118.3614192,(323) 939-9335
Vons,"461 W 3rd St Los Angeles, CA 90020",34.184554195233595,-118.31109556569194,(239) 282-5515
Vons,"1750 Wilshire Blvd Los Angeles, CA 90025",34.0473895,-118.4634258,(912) 965-0879
Vons,"1674 Santa Monica Blvd Los Angeles, CA 90025",34.0453918,-118.4522851,(919) 209-0782
Vons,"342 N Alvarado St Los Angeles, CA 90026",34.06967142857143,-118.268282,(239) 332-4881
Vons,"520 W Sunset Blvd Los Angeles, CA 90027",34.098138,-118.2950547,(323) 662-8107
Vons,"511 Daly St Los Angeles, CA 90031",34.0648447,-118.2152966,(323) 225-6449
Vons,"118 S Sepulveda Blvd Los Angeles, CA 90034",33.9725752,-118.3947755,(912) 882-6987
Vons,"860 National Blvd Los Angeles, CA 90034",34.0306899,-118.3901054,(919) 781-8776
Vons,"27 Vine St Los Angeles, CA 90038",34.0916381,-118.3266278,(323) 461-4167
Vons,"921 La Tijera Blvd Los Angeles, CA 90045",33.9565192,-118.4160503,(916) 682-4443
Vons,"571 W 80th St Los Angeles, CA 90045",33.96682518791946,-118.28380573154362,(916) 685-5299
Vons,"030 S Centinela Ave Los Angeles, CA 90066",34.0282915,-118.4534267,(910) 948-4885
Vons,"969 Santa Monica Blvd West Hollywood, CA 90069",34.0872914,-118.3802688,(910) 371-1951
Vons,"0001 Paramount Blvd Downey, CA 90240",33.9666802,-118.1163975,(562) 928-1619
Vons,"260 W Redondo Beach Blvd Gardena, CA 90247",33.8923945,-118.2948188,(830) 278-9117
Vons,"15 Pier Ave Hermosa Beach, CA 90254",33.862036,-118.401466,(910) 594-6555
Vons,"10 Manhattan Ave Hermosa Beach, CA 90254",33.8737318,-118.4050158,(910) 642-5252
Vons,"10 Manhattan Beach Blvd Manhattan Beach, CA 90266",33.8873082,-118.3966873,(910) 642-5252
Vons,"212 Beryl St Redondo Beach, CA 90277",33.84704806122449,-118.3909928367347,(910) 594-6555
Vons,"45 Palos Verdes Blvd Redondo Beach, CA 90277",33.815076,-118.3864657,(910) 628-5803
Vons,"001 Inglewood Ave Redondo Beach, CA 90278",33.8684126,-118.3611958,(910) 588-4090
Vons,"00 E Manchester Blvd Inglewood, CA 90301",33.961782,-118.3510972,(916) 850-1003
Vons,"10 Broadway Santa Monica, CA 90401",34.0150775,-118.4936089,(910) 285-2445
Vons,"311 Wilshire Blvd Santa Monica, CA 90403",34.0264124,-118.4893354,(912) 261-4730
Vons,"4325 Crenshaw Blvd Torrance, CA 90505",33.8276225,-118.3285722,(918) 274-3970
Vons,"0642 Scott Ave Whittier, CA 90603",33.9412675,-118.0008184,(562) 943-4288
Vons,"101 W Imperial Hwy La Habra, CA 90631",33.917252989075514,-117.94625608835462,(562) 905-2805
Vons,"2721 Valley View Ave La Mirada, CA 90638",33.8858257,-118.0288937,(562) 921-5005
Vons,"04 W Beverly Blvd Montebello, CA 90640",34.0192273,-118.1157648,(323) 722-1706
Vons,"23 Metropole Av Avalon, CA 90704",33.3419998,-118.3289167,(912) 965-0879
Vons,"226 Woodruff Ave Lakewood, CA 90713",33.8629504,-118.1171295,(562) 496-4144
Vons,"2565 Carson St Hawaiian Gardens, CA 90716",33.8315191,-118.0737374,(562) 402-2548
Vons,"1322 Los Alamitos Blvd Los Alamitos, CA 90720",33.8029319,-118.0718266,(562) 493-3567
Vons,"221 S Gaffey St San Pedro, CA 90731",33.7360505,-118.2923575,(919) 542-0861
Vons,"440 W 25th St San Pedro, CA 90732",33.7215819,-118.3038917,(919) 542-0861
Vons,"00 E Broadway Long Beach, CA 90802",33.7665647,-118.1640604,(562) 624-2352
Vons,"550 Atlantic Ave Long Beach, CA 90807",33.824364,-118.185018,(562) 984-1428
Vons,"242 N Studebaker Rd Long Beach, CA 90808",33.8139321,-118.0991709,(562) 496-4155
Vons,"820 Ximeno Ave Long Beach, CA 90815",33.77742288888889,-118.14145588888888,(562) 498-2111
Vons,"35 Foothill Blvd La Canada Flintridge, CA 91011",34.1971063,-118.1842641,(818) 790-7563
Vons,"039 Verdugo Blvd Montrose, CA 91020",34.2047273,-118.222472,(818) 249-4595
Vons,"129 Fair Oaks Ave South Pasadena, CA 91030",34.1116167,-118.1502834,(626) 441-3898
Vons,"789 Foothill Blvd Tujunga, CA 91042",34.2463405,-118.2757546,(818) 353-5817
Vons,"55 N Fair Oaks Ave Pasadena, CA 91103",34.1244961,-118.1502762,(626) 578-1233
Vons,"390 N Allen Ave Pasadena, CA 91104",34.139165,-118.11297524999999,(626) 798-7603
Vons,"55 W California Blvd Pasadena, CA 91105",34.135851,-118.15173294117648,(626) 577-7149
Vons,"355 E Colorado Blvd Pasadena, CA 91107",34.1461359,-118.0958498,(626) 449-4338
Vons,"61 N Glendale Ave Glendale, CA 91206",34.1613898,-118.2362812,(818) 242-5926
Vons,"233 Foothill Blvd La Crescenta, CA 91214",34.2273367,-118.2450976,(818) 658-1018
Vons,"671 Kanan Rd Agoura Hills, CA 91301",34.1431893,-118.7617659,(818) 991-2857
Vons,"201 Topanga Canyon Blvd Canoga Park, CA 91304",34.2108388,-118.6059691,(818) 703-5959
Vons,"0440 Devonshire St Chatsworth, CA 91311",34.2572442,-118.5951414,(818) 341-7151
Vons,"100 Newbury Rd Newbury Park, CA 91320",34.1830475,-118.9121912,(805) 498-1219
Vons,"119 Reseda Blvd Northridge, CA 91324",34.2306933,-118.5361608,(818) 349-2494
Vons,"9333 Victory Blvd Reseda, CA 91335",34.1866251,-118.5235388,(818) 881-7020
Vons,"3730 Foothill Blvd Sylmar, CA 91342",34.3231842,-118.4658233,(818) 367-1849
Vons,"6130 Nordhoff St North Hills, CA 91343",34.2355126,-118.472219,(818) 894-4300
Vons,"6830 San Fernando Mission Blvd Granada Hills, CA 91344",34.2720214,-118.4999823,(818) 831-8511
Vons,"0321 Sepulveda Blvd Mission Hills, CA 91345",34.2568583,-118.4672779,(818) 891-1352
Vons,"6518 Bouquet Canyon Rd Santa Clarita, CA 91350",34.4140717,-118.5411586,(661) 296-8682
Vons,"8439 Ventura Blvd Tarzana, CA 91356",34.1715236,-118.542809,(818) 881-5527
Vons,"725 Agoura Rd Westlake Village, CA 91361",34.1478052,-118.8105531,(805) 497-1921
Vons,"048 E Avenida De Los Arboles Thousand Oaks, CA 91362",34.21864686473173,-118.87434495241244,(805) 492-3511
Vons,"3381 Mulholland Dr Woodland Hills, CA 91364",34.1500533,-118.6216431,(818) 223-3221
Vons,"5850 The Old Rd Stevenson Ranch, CA 91381",34.3843354,-118.571767,(661) 254-3570
Vons,"6550 Soledad Canyon Rd Canyon Country, CA 91387",34.4156506,-118.4774019,(661) 252-3838
Vons,"4845 Ventura Blvd Sherman Oaks, CA 91403",34.1514095,-118.4516698,(818) 986-7213
Vons,"01 N Pass Ave Burbank, CA 91505",34.1660542,-118.3508116,(818) 848-9542
Vons,"111 W Alameda Ave Burbank, CA 91506",34.1592687,-118.3249894,(818) 845-2461
Vons,"140 Lankershim Blvd North Hollywood, CA 91606",34.1846135,-118.3865453,(818) 980-0475
Vons,"32 E Badillo St Covina, CA 91724",34.086096,-117.8715553,(626) 967-0072
Vons,"351 Haven Ave Rancho Cucamonga, CA 91737",34.1356527,-117.5758022,(909) 980-4277
Vons,"122 S Hacienda Blvd Hacienda Heights, CA 91745",33.9893853,-117.9701731,(626) 330-4216
Vons,"340 Foothill Blvd La Verne, CA 91750",34.1134828,-117.7657866,(909) 596-3377
Vons,"170 Hamner Ave Mira Loma, CA 91752",33.9576937,-117.5582619,(951) 360-1911
Vons,"580 Moreno St Montclair, CA 91763",34.0887623,-117.7006749,(909) 981-7709
Vons,"40 S Diamond Bar Blvd Diamond Bar, CA 91765",34.0008891,-117.8112737,(909) 861-4615
Vons,"160 Via Verde San Dimas, CA 91773",34.07727124951882,-117.8159212862358,(909) 592-3261
Vons,"75 W Arrow Hwy Upland, CA 91786",34.09981776319549,-117.65220191582712,(909) 981-1114
Vons,"1 W Foothill Blvd Upland, CA 91786",34.107078,-117.656383,(909) 981-1114
Vons,"50 N Lemon Ave Walnut, CA 91789",34.0140005,-117.8626502,(909) 595-6465
Vons,"77 S Glendora Ave West Covina, CA 91790",34.0643731,-117.9286171,(626) 337-5615
Vons,"404 Bonita Rd Bonita, CA 91902",32.6615279,-117.030835,(619) 512-0125
Vons,"05 Telegraph Canyon Rd Chula Vista, CA 91910",32.62825867429566,-117.06039804896066,(619) 421-1417
Vons,"60 E H St Chula Vista, CA 91910",32.637098,-117.067251,(619) 425-4134
Vons,"70 3rd Ave Chula Vista, CA 91911",32.64880025661423,-117.08290992044658,(619) 422-2293
Vons,"681 Avocado Blvd La Mesa, CA 91941",34.15681711290323,-118.08520069354839,(619) 670-7207
Vons,"630 Lake Murray Blvd La Mesa, CA 91942",32.7850764,-117.0259737,(619) 464-1099
Vons,"560 El Camino Real Carlsbad, CA 92008",33.1758039,-117.3257739,(760) 729-2771
Vons,"05 Tamarack Ave Carlsbad, CA 92008",33.1509642,-117.339222,(760) 729-4722
Vons,"85 Tamarack Ave Carlsbad, CA 92008",33.1509642,-117.339222,(760) 729-4722
Vons,"710 El Camino Real Carlsbad, CA 92009",33.1535493,-117.3118208,(760) 436-1332
Vons,"01 Stratford Ct Del Mar, CA 92014",32.957283,-117.265503,(858) 481-1008
Vons,"606 Del Mar Heights Rd Del Mar, CA 92014",32.94825952920036,-117.26068212709507,(858) 755-5304
Vons,"505 Fletcher Pkwy El Cajon, CA 92020",32.80759538964833,-116.96871534102496,(619) 463-2633
Vons,"800 Fletcher Pkwy El Cajon, CA 92020",32.807751,-116.97275517222455,(619) 463-2633
Vons,"50 N 2nd St El Cajon, CA 92021",32.8035772,-116.9358106,(619) 444-6888
Vons,"53 Santa Fe Dr Encinitas, CA 92024",33.0383496,-117.2597062,(760) 753-4288
Vons,"62 N El Camino Real Encinitas, CA 92024",33.0523889,-117.2609424,(760) 942-4195
Vons,"51 W Felicita Ave Escondido, CA 92025",33.1035321,-117.075456,(760) 743-8860
Vons,"30 W El Norte Pkwy Escondido, CA 92026",33.1466376,-117.1042031,(760) 741-0928
Vons,"000 W El Norte Pkwy Escondido, CA 92026",33.1466376,-117.1042031,(760) 747-5920
Vons,"345 E Valley Pkwy Escondido, CA 92027",33.1451231,-117.0364256,(760) 489-5950
Vons,"544 Girard Ave La Jolla, CA 92037",32.8410955,-117.272692,(858) 454-2620
Vons,"2419 Woodside Ave Lakeside, CA 92040",32.8559632,-116.9316118,(619) 443-6811
Vons,"45 College Blvd Oceanside, CA 92057",33.25064839819629,-117.3000044291002,(760) 630-4884
Vons,"3438 Poway Rd Poway, CA 92064",32.9563272,-117.0355073,(858) 748-8833
Vons,"643 Mission Gorge Rd Santee, CA 92071",32.8386231,-116.9872729,(619) 596-5930
Vons,"31 Lomas Santa Fe Dr Solana Beach, CA 92075",32.9961296,-117.2611607,(858) 481-2894
Vons,"40 S Santa Fe Ave Vista, CA 92084",33.1581063,-117.202708,(760) 758-0620
Vons,"50 W University Ave San Diego, CA 92103",32.7482571,-117.1621798,(619) 295-0688
Vons,"702 Garnet Ave San Diego, CA 92109",32.79640490681005,-117.25654985458264,(858) 273-8340
Vons,"645 Midway Dr San Diego, CA 92110",32.7502125,-117.2072647,(619) 222-9736
Vons,"555 Balboa Ave San Diego, CA 92111",32.8202244,-117.1727675,(858) 279-4661
Vons,"155 El Cajon Blvd San Diego, CA 92115",32.7580582,-117.0775597,(619) 583-4160
Vons,"610 Adams Ave San Diego, CA 92116",32.7633439,-117.1200205,(619) 280-7634
Vons,"725 Clairemont Dr San Diego, CA 92117",32.8200782,-117.2040973,(858) 483-4670
Vons,"68 Orange Ave Coronado, CA 92118",32.6798101,-117.176009,(619) 435-6811
Vons,"555 Mission Gorge Rd San Diego, CA 92120",32.8069558,-117.0786911,(619) 284-1355
Vons,"993 Governor Dr San Diego, CA 92122",32.8515062,-117.2167108,(858) 453-1883
Vons,"788 Regents Rd San Diego, CA 92122",32.8411239,-117.2168159,(858) 455-6130
Vons,"550 Murphy Canyon Rd San Diego, CA 92123",32.802464,-117.113564,(858) 292-4148
Vons,"0460 Clairemont Mesa Blvd San Diego, CA 92124",32.8272839,-117.0938035,(858) 560-4565
Vons,"310 Mira Mesa Blvd San Diego, CA 92126",32.9103154,-117.156293,(858) 271-4830
Vons,"1906 Bernardo Plaza Dr San Diego, CA 92128",33.0201342,-117.074296,(858) 487-8221
Vons,"3255 Black Mountain Rd San Diego, CA 92129",32.9543199,-117.1300916,(858) 484-7234
Vons,"627 Carmel Mountain Rd San Diego, CA 92130",32.9221626,-117.2281698,(858) 523-1842
Vons,"850 Valley Centre Dr San Diego, CA 92130",32.9379202,-117.2302056,(858) 793-4667
Vons,"0016 Scripps Ranch Blvd San Diego, CA 92131",32.9203083,-117.1106853,(858) 271-5350
Vons,"0675 Scripps Poway Pkwy San Diego, CA 92131",32.9346213,-117.0645746,(858) 693-0638
Vons,"20 Dennery Rd San Diego, CA 92154",32.5818334,-117.0326382,(619) 428-3302
Vons,"65 Saturn Blvd San Diego, CA 92154",32.5770913,-117.0928079,(619) 575-2200
Vons,"75 W Main St Brawley, CA 92227",32.9785948,-115.5507913,(760) 351-3007
Vons,"4200 Palm Dr Desert Hot Springs, CA 92240",33.9472194,-116.5013469,(760) 251-1636
Vons,"50 N Imperial Ave El Centro, CA 92243",32.7964712,-115.5700234,(760) 353-4603
Vons,"8271 Highway 111 La Quinta, CA 92253",33.7074609,-116.2774465,(760) 564-2001
Vons,"2675 Highway 111 Palm Desert, CA 92260",33.7257859,-116.4007646,(760) 346-2493
Vons,"3443 Highland Springs Dr Palm Desert, CA 92260",33.7674967,-116.3852598,(760) 346-2493
Vons,"315 E Tahquitz Canyon Way Palm Springs, CA 92262",33.82303902379384,-116.5445273939093,(760) 322-2192
Vons,"733 E Palm Canyon Dr Palm Springs, CA 92264",33.80129181320886,-116.5398295828443,(760) 324-4502
Vons,"2424 Bob Hope Dr Rancho Mirage, CA 92270",33.7650405,-116.4080797,(760) 568-0160
Vons,"7590 29 Palms Hwy Yucca Valley, CA 92284",34.1217484,-116.4197709,(760) 365-8998
Vons,"270 E Main St Barstow, CA 92311",34.898673129032254,-117.02532874193548,(760) 256-8105
Vons,"rand Terrace, CA 92313",35.4219055,-117.6925619,(909) 790-1961
Vons,"2170 Big Bear Blvd Big Bear Lake, CA 92315",34.2435737,-116.9037296,(909) 866-8459
Vons,"390 Cherry Ave Fontana, CA 92336",34.1147504,-117.4886775,(909) 429-3928
Vons,"7390 Main St Hesperia, CA 92345",34.4219463,-117.3042968,(760) 948-2445
Vons,"22 Orange St Redlands, CA 92374",34.055821326730374,-117.18248239717276,(909) 793-0447
Vons,"2199 Hesperia Rd Victorville, CA 92395",34.4848161,-117.2902306,(760) 241-2288
Vons,"3644 Yucaipa Blvd Yucaipa, CA 92399",34.0337692,-117.1008983,(909) 797-7052
Vons,"2941 2nd St Yucaipa, CA 92399",34.037646,-117.0431641,(909) 797-7096
Vons,"520 Riverside Plaza Dr Riverside, CA 92506",33.95508355,-117.39064846008233,(951) 342-7930
Vons,"1564 Grape St Lake Elsinore, CA 92532",33.6612711,-117.296236,(951) 245-2002
Vons,"125 W Florida Ave Hemet, CA 92545",33.747467224489796,-116.97241651020408,(951) 658-0111
Vons,"7220 Sun City Blvd Sun City, CA 92586",33.7250433,-117.1930644,(951) 679-8889
Vons,"3 Diamante Irvine, CA 92620",33.71817318929142,-117.75337470707112,(714) 544-3020
Vons,"85 E 17th St Costa Mesa, CA 92627",33.6363913,-117.9201861,(949) 548-8911
Vons,"4270 El Toro Rd Laguna Woods, CA 92637",33.6097716,-117.7256532,(949) 581-5371
Vons,"891 Atlanta Ave Huntington Beach, CA 92646",33.6576961,-117.9773244,(714) 960-9640
Vons,"922 Edinger Ave Huntington Beach, CA 92649",33.7299464,-118.0238462,(714) 846-6356
Vons,"4882 Wilson St Midway City, CA 92655",33.7484014,-117.9831445,(714) 894-5948
Vons,"2401 Camino Capistrano San Juan Capistrano, CA 92675",33.5064105,-117.6649678,(949) 661-7594
Vons,"8751 Los Alisos Blvd Mission Viejo, CA 92692",33.6311272,-117.6638934,(949) 380-1596
Vons,"650 S Bristol St Santa Ana, CA 92704",33.738666026315784,-117.88495547368422,(714) 540-0510
Vons,"701 S Harbor Blvd Santa Ana, CA 92704",33.7169828,-117.9207977,(714) 751-4270
Vons,"50 E 1st St Tustin, CA 92780",33.7456732,-117.8182715,(714) 832-9996
Vons,"30 W Lincoln Ave Anaheim, CA 92805",33.8353393,-117.9173621,(714) 535-2288
Vons,"600 E Santa Ana Canyon Rd Anaheim, CA 92807",33.8524193,-117.7843249,(714) 998-3751
Vons,"80 N Brea Blvd Brea, CA 92821",33.9253746,-117.8957301,(714) 529-4941
Vons,"2961 Chapman Ave Garden Grove, CA 92840",33.788722,-117.9406663,(714) 750-3663
Vons,"1861 Valley View St Garden Grove, CA 92845",33.7833404,-118.0288178,(714) 889-9955
Vons,"684 N Tustin St Orange, CA 92865",33.8238501,-117.8360218,(714) 637-6651
Vons,"69 Magnolia Ave Corona, CA 92879",33.8634921,-117.5466156,(951) 549-1910
Vons,"848 Valley View Ave Yorba Linda, CA 92886",33.8902187,-117.8286645,(714) 579-3760
Vons,"433 Harbor Blvd Ventura, CA 93001",34.2068936,-119.2474561,(805) 642-7811
Vons,"15 W Main St Ventura, CA 93001",34.401505323204255,-118.794504591037,(805) 653-6874
Vons,"040 Telegraph Rd Ventura, CA 93003",34.2727563,-119.2498591,(805) 650-2155
Vons,"20 Arneill Rd Camarillo, CA 93010",34.2183583,-119.0390063,(805) 482-8802
Vons,"275 Mission Oaks Blvd Camarillo, CA 93012",34.231195,-118.990115,(805) 482-7933
Vons,"50 Linden Ave Carpinteria, CA 93013",34.4003647,-119.5171268,(805) 684-4124
Vons,"36 W Ventura St Fillmore, CA 93015",34.3800351,-118.933245,(805) 524-1445
Vons,"241 Tierra Rejada Rd Moorpark, CA 93021",34.2638288,-118.8608395,(805) 530-3770
Vons,"125 Maricopa Hwy Ojai, CA 93023",34.469069,-119.287361,(805) 646-4669
Vons,"291 S Victoria Ave Oxnard, CA 93035",34.1794223,-119.2212844,(805) 984-0651
Vons,"15 Halyard St Port Hueneme, CA 93041",34.180443,-119.217303,(805) 984-3268
Vons,"27 W Channel Islands Blvd Port Hueneme, CA 93041",34.1760036,-119.209131,(805) 985-2536
Vons,"76 W Main St Santa Paula, CA 93060",34.347686,-119.079856,(805) 525-6356
Vons,"805 E Los Angeles Ave Simi Valley, CA 93063",34.27179804081632,-118.78227151020408,(805) 522-1193
Vons,"855 Cochran St Simi Valley, CA 93065",34.2810503,-118.7927213,(805) 522-9394
Vons,"4 W Victoria St Santa Barbara, CA 93101",34.4242345150652,-119.70591982442284,(805) 963-2420
Vons,"855 State St Santa Barbara, CA 93105",34.433583,-119.7185175,(805) 687-5611
Vons,"040 Coast Village Rd Santa Barbara, CA 93108",34.421511,-119.6404345,(805) 969-4728
Vons,"715 Andrita St Santa Barbara, CA 93110",34.4363401,-119.7877049,(805) 683-8764
Vons,"63 S Turnpike Rd Santa Barbara, CA 93111",34.4374171,-119.7894945,(805) 967-2181
Vons,"75 N Fairview Ave Goleta, CA 93117",34.4413974375,-119.83047190625,(805) 683-8764
Vons,"610 Lake Isabella Blvd Lake Isabella, CA 93240",35.6363751,-118.469947,(760) 379-4461
Vons,"360 Olive Dr Bakersfield, CA 93308",35.4124696,-119.0745332,(661) 399-6967
Vons,"700 Stockdale Hwy Bakersfield, CA 93309",35.3543003,-119.0592753,(661) 328-6950
Vons,"400 Stine Rd Bakersfield, CA 93309",35.348066,-119.047579,(661) 835-0212
Vons,"000 Ming Ave Bakersfield, CA 93311",35.3396869,-119.1514085,(661) 663-0598
Vons,"76 Islay St San Luis Obispo, CA 93401",35.275615,-120.660085,(805) 541-1055
Vons,"900 Broad St San Luis Obispo, CA 93401",35.280192,-120.664657,(805) 541-1132
Vons,"130 Los Osos Valley Rd Los Osos, CA 93402",35.30613495,-120.81965349648519,(805) 528-1482
Vons,"135 El Camino Real Atascadero, CA 93422",35.52399237666529,-120.70360266427804,(805) 466-4949
Vons,"124 W Ocean Ave Lompoc, CA 93436",34.63884328571429,-120.4588403877551,(805) 736-4142
Vons,"29 N H St Lompoc, CA 93436",34.6672865,-120.4577144,(805) 737-4464
Vons,"20 W Tefft St Nipomo, CA 93444",35.036731849999995,-120.48302514014587,(805) 931-1860
Vons,"191 Creston Rd Paso Robles, CA 93446",35.62915965148542,-120.68278015899507,(805) 239-2744
Vons,"17 E Main St Santa Maria, CA 93454",34.9530109,-120.4180898,(870) 453-2311
Vons,"190 N Main St Bishop, CA 93514",37.36196906382979,-118.39539461702127,(760) 872-9811
Vons,"058 W Avenue J Lancaster, CA 93536",34.6894329,-118.1696477,(661) 945-1012
Vons,"81 Old Mammoth Rd Mammoth Lakes, CA 93546",37.6337512,-118.9685504,(760) 934-4536
Vons,"616 E Palmdale Blvd Palmdale, CA 93550",34.5796356,-118.1029905,(661) 273-3780
Vons,"027 Rancho Vista Blvd Palmdale, CA 93551",34.6017997,-118.1476305,(661) 265-9741
Vons,"30 N Norma St Ridgecrest, CA 93555",35.6296958,-117.678807,(760) 446-5587
Vons,"100 Fowler Ave Clovis, CA 93611",36.828904,-119.682072,(559) 294-6730
Vons,"650 Herndon Ave Clovis, CA 93611",36.8372165,-119.7015587,(559) 297-6442
Vons,"170 W Shaw Ave Fresno, CA 93711",36.80857240599475,-119.7942617529329,(559) 277-3310
Vons,"949 N Cedar Ave Fresno, CA 93720",36.754233939393934,-119.754575,(559) 438-1403
Vons,"733 N 1st St Fresno, CA 93720",36.75327798252072,-119.77237253136626,(559) 439-4179
Vons,"343 N Blackstone Ave Fresno, CA 93726",36.74761714677191,-119.79061358784975,(559) 243-0289
Vons,"638 E Kings Canyon Rd Fresno, CA 93727",36.7357926,-119.7195341,(559) 458-0240
Wal-Mart Supercenter,"1729 Imperial Hwy Norwalk, CA 90650",33.9170397,-118.0862427,(562) 864-1984
Wal-Mart Supercenter,"6471 Carl Boyer Dr Santa Clarita, CA 91350",34.4154977,-118.5053586,(661) 259-0863
Wal-Mart Supercenter,"7931 Kelly Johnson Pkwy Valencia, CA 91355",34.450239,-118.579922,(800) 925-6278
Wal-Mart Supercenter,"250 Big Dalton Ave Baldwin Park, CA 91706",34.0679207,-117.9686676,(626) 814-2235
Wal-Mart Supercenter,"2981 Ramona Blvd Baldwin Park, CA 91706",34.0833178,-117.9736603,(626) 814-2699
Wal-Mart Supercenter,"943 Grand Ave Chino, CA 91710",33.9865019,-117.6280059,(909) 364-1968
Wal-Mart Supercenter,"23 S Roselyn Way Monterey Park, CA 91754",34.0612987,-118.123739,(626) 280-1453
Wal-Mart Supercenter,"827 Walnut Grove Ave Rosemead, CA 91770",34.0702114,-118.0820993,(626) 927-9011
Wal-Mart Supercenter,"32 Center Dr San Marcos, CA 92069",33.1351727,-117.1194907,(760) 233-9910
Wal-Mart Supercenter,"4500 Monterey Ave Palm Desert, CA 92211",33.7870179,-116.3880461,(760) 328-4375
Wal-Mart Supercenter,"540 E 2nd St Beaumont, CA 92223",33.9232098,-116.950284,(951) 845-1529
Wal-Mart Supercenter,"1033 Date Palm Dr Cathedral City, CA 92234",33.7858429,-116.4580472,(800) 925-6278
Wal-Mart Supercenter,"9295 Highway 111 La Quinta, CA 92253",33.7074609,-116.2774465,(760) 564-3313
Wal-Mart Supercenter,"601 E Ramon Rd Palm Springs, CA 92264",33.815806,-116.54165433333333,(760) 322-7049
Wal-Mart Supercenter,"5272 Bear Valley Rd Victorville, CA 92395",34.4710863,-117.2632773,(760) 951-5005
Wal-Mart Supercenter,"231 N Sanderson Ave Hemet, CA 92545",33.74516159572731,-117.0067252866424,(951) 766-1164
Wal-Mart Supercenter,"861 S San Jacinto Ave San Jacinto, CA 92583",33.7816549,-116.9588537,(951) 487-1492
Wal-Mart Supercenter,"790 N Carrie St San Jacinto, CA 92583",33.8109433,-116.9679115,(951) 487-8237
Wal-Mart Supercenter,"962 Skywood St Brea, CA 92821",33.930469,-117.8906314,(562) 694-2014
Wal-Mart Supercenter,"50 N 12th Ave Hanford, CA 93230",36.3392844,-119.673061,(559) 589-6706
Wal-Mart Supercenter,"601 Fashion Pl Bakersfield, CA 93306",35.391581,-118.962596,(661) 871-6520
Wal-Mart Supercenter,"4555 Valley Central Way Lancaster, CA 93536",34.6929602,-118.1718757,(661) 729-0399
Wal-Mart Supercenter,"0130 10th St W Palmdale, CA 93551",34.5914762,-118.1476166,(661) 267-6496
Wal-Mart Supercenter,"11 S China Lake Blvd Ridgecrest, CA 93555",35.6128145,-117.6700567,(760) 371-4974
Wal-Mart Supercenter,"70 W El Monte Way Dinuba, CA 93618",36.5459482,-119.4040379,(559) 591-0380
Wal-Mart Supercenter,"021 Arnold Dr Martinez, CA 94553",37.9957874,-122.1094549,(925) 313-9436
Wal-Mart Supercenter,"150 Camino Arroyo Gilroy, CA 95020",36.9977758,-121.5474859,(408) 848-8161
Wal-Mart Supercenter,"77 Story Rd San Jose, CA 95122",37.3347374,-121.8501663,(408) 885-1142
Wal-Mart Supercenter,"225 Plaza Pkwy Modesto, CA 95350",37.6716356,-121.0344967,(209) 524-4733
Wal-Mart Supercenter,"55 Riverpoint Ct West Sacramento, CA 95605",38.588677,-121.5522269,(916) 373-2200
Wal-Mart Supercenter,"010 Auburn Blvd Citrus Heights, CA 95621",38.6892649,-121.3053187,(916) 729-8077
Wal-Mart Supercenter,"961 Greenback Ln Orangevale, CA 95662",38.6785096,-121.2355734,(916) 989-5800
Wal-Mart Supercenter,"00 Pleasant Grove Blvd Roseville, CA 95678",38.7855408,-121.2849059,(916) 784-7813
Wal-Mart Supercenter,"150 Harter Rd Yuba City, CA 95993",39.1386752,-121.6555985,(530) 751-0130
Weis Markets,"325 Moyer Way Chico, CA 95926",39.7414291,-121.8751419,(530) 737-5263
Westfarm Foods,"70 Barnard Ave San Jose, CA 95125",37.30958793236786,-121.8704445207037,(408) 295-4384
Whole Foods Market,"955 E 48th St Los Angeles, CA 90058",34.00035410169491,-118.25902418644067,(323) 277-2720
Whole Foods Market,"5315 Magnolia Blvd Sherman Oaks, CA 91403",34.1648639,-118.455258,(818) 783-9571
Whole Foods Market,"870 Harbor Blvd Costa Mesa, CA 92627",33.652833,-117.9190799,(949) 574-3800
Whole Foods Market,"99 Valencia St San Francisco, CA 94110",37.7569068,-122.4211185,(415) 285-0231
Whole Foods Market,"721 Midtown Ct Palo Alto, CA 94303",37.4338466,-122.1281154,(650) 326-8670
Whole Foods Market,"an Rafael, CA 94901",37.96638465709654,-122.5113808609296,(415) 451-0171
Whole Foods Market,"8 Union St Watsonville, CA 95076",36.90687223281639,-121.75136106312186,(831) 724-1802
Whole Foods Market,"49 Zinfandel Dr Escalon, CA 95320",37.792031,-121.005175,(925) 274-9708
Whole Foods Market,"751 E Roseville Pkwy Roseville, CA 95661",38.742363,-121.2360945,(916) 781-5424
Whole Foods Market,"800 Sierra College Blvd Roseville, CA 95661",38.747199,-121.2263811,(916) 781-5424
